{
"type": "FeatureCollection",
"name": "basin",
"crs": { "type": "name", "properties": { "name": "urn:ogc:def:crs:OGC:1.3:CRS84" } },
"features": [
{ "type": "Feature", "properties": { }, "geometry": { "type": "Polygon", "coordinates": [ [ [ -122.237678170912815, 44.782300993522476 ], [ -122.23794002385317, 44.781968284853804 ], [ -122.238043544421089, 44.782227539519837 ], [ -122.237678170912815, 44.782300993522476 ], [ -122.237781690984747, 44.782560248585575 ], [ -122.237416315388501, 44.782633701929022 ], [ -122.237312796608549, 44.78237444654053 ], [ -122.237678170912815, 44.782300993522476 ] ], [ [ -122.237416315388501, 44.782633701929022 ], [ -122.23834802022931, 44.784967003652532 ], [ -122.243244385129074, 44.787343435573987 ], [ -122.245540298758783, 44.787161852420539 ], [ -122.250649971183947, 44.788094809328662 ], [ -122.252111529480942, 44.7878008420169 ], [ -122.252787675363308, 44.788505088337345 ], [ -122.253883844960413, 44.788284596631279 ], [ -122.254931014290975, 44.786953615687516 ], [ -122.257019681348723, 44.786253347457688 ], [ -122.257859554655866, 44.784403866655559 ], [ -122.259321001516199, 44.784109823126357 ], [ -122.261562247016343, 44.784779198026968 ], [ -122.263127306734191, 44.784744350588454 ], [ -122.264168899103268, 44.78537501064082 ], [ -122.266568324487665, 44.785452304123091 ], [ -122.271944972679961, 44.784089971113318 ], [ -122.275697058622256, 44.785575379350362 ], [ -122.278037259985837, 44.788465425487537 ], [ -122.282214164281882, 44.787064132191041 ], [ -122.283152268197057, 44.787435424209278 ], [ -122.286282486907382, 44.787365206064422 ], [ -122.289565988874003, 44.788664601896571 ], [ -122.291654349080119, 44.787963790906488 ], [ -122.293269091480084, 44.789039060314707 ], [ -122.295141047428459, 44.791743218509431 ], [ -122.296602490665421, 44.791448763321455 ], [ -122.300409560738601, 44.792082241730235 ], [ -122.304374475725169, 44.792123557132811 ], [ -122.307969979089421, 44.794200145853324 ], [ -122.310838946846445, 44.794462207385109 ], [ -122.311881135522597, 44.795092510158213 ], [ -122.312611858470063, 44.79494519209765 ], [ -122.314181012794961, 44.792948000726788 ], [ -122.313973354062668, 44.792429596775989 ], [ -122.31486172385334, 44.791690200713518 ], [ -122.314654063761168, 44.791171799292329 ], [ -122.315019401359024, 44.791098133844166 ], [ -122.314811741878032, 44.790579733361305 ], [ -122.315438578389688, 44.790173201336216 ], [ -122.315492417261325, 44.789321936876817 ], [ -122.32232963351143, 44.787662894815163 ], [ -122.323113993639197, 44.786664259825862 ], [ -122.32290628558215, 44.786145877087463 ], [ -122.3259862408933, 44.784964281015256 ], [ -122.326143804993464, 44.784372210051934 ], [ -122.326874380601154, 44.784224817761157 ], [ -122.331150495679026, 44.785042901542454 ], [ -122.333389158708158, 44.787672790710275 ], [ -122.334796753646501, 44.788229189436699 ], [ -122.336462527020885, 44.790414395333229 ], [ -122.337766286770361, 44.790711582725855 ], [ -122.339328290960864, 44.792637581552725 ], [ -122.340266786779011, 44.79300847815442 ], [ -122.342824006864674, 44.792492308222435 ], [ -122.345223774861935, 44.79256819382919 ], [ -122.346996882875217, 44.793050721348152 ], [ -122.348458127759685, 44.792755699558981 ], [ -122.349764835425162, 44.791091032503431 ], [ -122.349556908837357, 44.790572685929618 ], [ -122.350287500424926, 44.790425163866139 ], [ -122.350183535749053, 44.790165991339464 ], [ -122.354097740067587, 44.789095384373475 ], [ -122.353993762796506, 44.788836215583224 ], [ -122.355924148183803, 44.788726511149576 ], [ -122.356081458182999, 44.78813439996506 ], [ -122.36077924616454, 44.786064771438788 ], [ -122.362344283578352, 44.786028764556434 ], [ -122.364221354710139, 44.786770217883202 ], [ -122.366047644451456, 44.786401208558594 ], [ -122.367455482247266, 44.786957262445497 ], [ -122.373456649153184, 44.785184076792234 ], [ -122.374395228891387, 44.785554728012841 ], [ -122.375856191396153, 44.785259412355451 ], [ -122.380706354448321, 44.786520384098147 ], [ -122.381800155004143, 44.788260565300568 ], [ -122.383834569088876, 44.788409605562919 ], [ -122.385658990591367, 44.790002053804805 ], [ -122.386858853581629, 44.790039618061591 ], [ -122.387746392357457, 44.789299742829122 ], [ -122.389572621804348, 44.78893041063786 ], [ -122.390146097003338, 44.789374823081438 ], [ -122.392441681397813, 44.789190721223662 ], [ -122.393329147737404, 44.788450810419505 ], [ -122.394790090034348, 44.788155286307877 ], [ -122.395312287582115, 44.787489246474991 ], [ -122.395260983825665, 44.7863788200819 ], [ -122.395887296029557, 44.785971915582351 ], [ -122.395679030699839, 44.785453646660024 ], [ -122.396827490295337, 44.784380699991893 ], [ -122.396619222653968, 44.78386243439369 ], [ -122.397141368890544, 44.783196393886861 ], [ -122.399593638423255, 44.782420020130601 ], [ -122.399646408733688, 44.781568737085493 ], [ -122.40069059557257, 44.780236638331367 ], [ -122.403873070462282, 44.779312394170802 ], [ -122.403768916994323, 44.77905326977875 ], [ -122.407524791703892, 44.778573282133536 ], [ -122.407733126822052, 44.7790915245848 ], [ -122.408463466620262, 44.778943689067987 ], [ -122.410445027084933, 44.779943603777333 ], [ -122.415818323094754, 44.778575513739376 ], [ -122.417434819107655, 44.779649262606199 ], [ -122.417747442212203, 44.780426605147092 ], [ -122.417486482875773, 44.780759663606602 ], [ -122.419729183908942, 44.781426385831431 ], [ -122.420615460469946, 44.782648001351859 ], [ -122.424371415413333, 44.782167537367194 ], [ -122.427657321685075, 44.783463531421823 ], [ -122.430317770845718, 44.783204810618571 ], [ -122.430735317034333, 44.782279534472643 ], [ -122.432822010040255, 44.781576533371478 ], [ -122.432978628099718, 44.780984341628916 ], [ -122.438820977753707, 44.779800440999608 ], [ -122.440803013436636, 44.780799908423155 ], [ -122.441898440867661, 44.780577882322611 ], [ -122.443411090695463, 44.781392226301094 ], [ -122.447166813147845, 44.780911124425323 ], [ -122.450035753320989, 44.781170196612635 ], [ -122.450609560881489, 44.781614342311912 ], [ -122.452904715536178, 44.781429207494966 ], [ -122.453478544196955, 44.781873341161955 ], [ -122.455043434076259, 44.781836251482829 ], [ -122.456086774287058, 44.782465413631712 ], [ -122.457651676471073, 44.782428293427756 ], [ -122.45786040872369, 44.782946462336504 ], [ -122.459268930831783, 44.7835015465879 ], [ -122.462294393351996, 44.783168132128068 ], [ -122.462450756270115, 44.782575903822064 ], [ -122.463181013721879, 44.782427768775378 ], [ -122.463702491280614, 44.781761471098797 ], [ -122.466153941673966, 44.780983881350011 ], [ -122.467562491051268, 44.781538875921534 ], [ -122.467771296707284, 44.782057028341491 ], [ -122.472257108917134, 44.781427058446141 ], [ -122.47251780027419, 44.781093892820991 ], [ -122.472204542760082, 44.780316677086248 ], [ -122.472725914832509, 44.77965034745295 ], [ -122.481018609631306, 44.77768686059526 ], [ -122.481331956512747, 44.778464051100343 ], [ -122.483210123851066, 44.779203823672475 ], [ -122.492702152511953, 44.777276304686502 ], [ -122.495258989183512, 44.778718920318887 ], [ -122.496354203334761, 44.778496449898128 ], [ -122.498597608062752, 44.779161847827552 ], [ -122.498806644814834, 44.779679949055783 ], [ -122.500110910558519, 44.779975548678976 ], [ -122.500319961459894, 44.780493648496112 ], [ -122.5015197182544, 44.780530184826013 ], [ -122.504076866931669, 44.781972642695806 ], [ -122.506997485266893, 44.781379171937708 ], [ -122.508406378926182, 44.781933737398781 ], [ -122.511066456925946, 44.781673413604437 ], [ -122.511640670632687, 44.782117298237893 ], [ -122.512735885915731, 44.781894692148562 ], [ -122.513675184421345, 44.782264364211436 ], [ -122.516804913709308, 44.78218875981711 ], [ -122.521185667888403, 44.781298113334984 ], [ -122.522594676520995, 44.781852529434829 ], [ -122.523115562468234, 44.781186001422292 ], [ -122.531511621653266, 44.779478412949203 ], [ -122.532816026782029, 44.779773693921086 ], [ -122.534641201579063, 44.77940239223414 ], [ -122.536989680501947, 44.780326171325626 ], [ -122.538401437091139, 44.782842114097775 ], [ -122.539236209499435, 44.782952585881482 ], [ -122.53944557023101, 44.783470628063668 ], [ -122.540385037080895, 44.783840114103938 ], [ -122.540803784924506, 44.784876197231057 ], [ -122.543254458603315, 44.784097191019583 ], [ -122.54502875706099, 44.78457708695025 ], [ -122.54784441325576, 44.783723704947697 ], [ -122.555564052992167, 44.783273551595812 ], [ -122.560836484818083, 44.785564029917779 ], [ -122.561620599796839, 44.786525716082529 ], [ -122.566315406471546, 44.786410600391733 ], [ -122.566629776941994, 44.787187606310617 ], [ -122.57075355224697, 44.788590400114288 ], [ -122.57091255951002, 44.789959763254927 ], [ -122.574201658332484, 44.791252183246343 ], [ -122.577122060552497, 44.790657170983557 ], [ -122.578636568222365, 44.791470005370819 ], [ -122.579366666183333, 44.791321233953028 ], [ -122.58124626633132, 44.792059652734103 ], [ -122.581195780846912, 44.792911025953046 ], [ -122.58083072567959, 44.792985417405404 ], [ -122.581774452654585, 44.7953163694457 ], [ -122.57958787260236, 44.797724474455535 ], [ -122.581160826097204, 44.801609453918708 ], [ -122.578713766310173, 44.80435097313417 ], [ -122.57934296764985, 44.805904990465201 ], [ -122.578562182458796, 44.806905165866617 ], [ -122.572354797281349, 44.808169604974054 ], [ -122.57245964366426, 44.808428614906788 ], [ -122.568703285463428, 44.808913260027197 ], [ -122.567763313980663, 44.808543951684484 ], [ -122.564737236013841, 44.808879767669616 ], [ -122.562752538700494, 44.80788207182804 ], [ -122.559726465490456, 44.808217774132601 ], [ -122.558681759946225, 44.807589383104229 ], [ -122.556490790902046, 44.808035363742718 ], [ -122.555188863172503, 44.809702107508002 ], [ -122.555398429590269, 44.810220156103277 ], [ -122.554877638541399, 44.810886853429395 ], [ -122.55352168580319, 44.811443165054328 ], [ -122.555560314871002, 44.813551434658116 ], [ -122.553476992307267, 44.816218240548743 ], [ -122.552016139550091, 44.816515513980924 ], [ -122.550453489197565, 44.818515592052812 ], [ -122.548732114197165, 44.819146176913819 ], [ -122.546908828247737, 44.821479569705517 ], [ -122.544507809059496, 44.821407292796366 ], [ -122.54294482247154, 44.823407305530552 ], [ -122.540127446274013, 44.824260661245503 ], [ -122.539450612596482, 44.825519695500908 ], [ -122.537989496365782, 44.825816822284942 ], [ -122.535744149771276, 44.825152013994114 ], [ -122.532091314122354, 44.825894699804344 ], [ -122.531049018344333, 44.827227959686788 ], [ -122.52739601844111, 44.827970521017299 ], [ -122.526979516622887, 44.828896193896298 ], [ -122.525257656874643, 44.829526492053446 ], [ -122.525362355452287, 44.829785551383011 ], [ -122.522805123070555, 44.830305249151365 ], [ -122.522909813430147, 44.830564310856246 ], [ -122.519361221281599, 44.831565721016247 ], [ -122.519465900360132, 44.831824786154975 ], [ -122.511898369177658, 44.833642476705485 ], [ -122.511376966776268, 44.834309040368616 ], [ -122.507358001855664, 44.835125275685215 ], [ -122.506313367682182, 44.834496437933993 ], [ -122.502450462588982, 44.834720176748597 ], [ -122.499789773510869, 44.836942296171252 ], [ -122.496971285182312, 44.83779477073233 ], [ -122.496293509251743, 44.839053625684208 ], [ -122.495197310570347, 44.83927612616236 ], [ -122.49467569937255, 44.839942633399403 ], [ -122.491282437432972, 44.840350977684167 ], [ -122.491126193881868, 44.840943317277258 ], [ -122.486845734117523, 44.842092197519342 ], [ -122.486950304525536, 44.842351294258535 ], [ -122.486219449878163, 44.84249957906448 ], [ -122.484339485088881, 44.84175974245003 ], [ -122.484130366991408, 44.841241545669135 ], [ -122.483399518175574, 44.841389814723087 ], [ -122.482355010509181, 44.840760781261068 ], [ -122.480893312277757, 44.841057295747326 ], [ -122.480371545808353, 44.84172375001652 ], [ -122.478909817959448, 44.842020243522995 ], [ -122.479014357739871, 44.842279346410216 ], [ -122.476090853129691, 44.842872288831273 ], [ -122.474785475264966, 44.842576413069061 ], [ -122.473323704341496, 44.842872846231231 ], [ -122.473167297068656, 44.843465168287238 ], [ -122.469930812610443, 44.845242625522516 ], [ -122.468886987664533, 44.846575460415501 ], [ -122.464449295827023, 44.848315963584653 ], [ -122.462622301975827, 44.850648363641618 ], [ -122.462831283835058, 44.851166605099351 ], [ -122.461421717011433, 44.852573478744993 ], [ -122.461578652625136, 44.853943169976034 ], [ -122.460691073397655, 44.854683643027975 ], [ -122.46063901731074, 44.855535091384006 ], [ -122.45912449438228, 44.854720804835964 ], [ -122.458706568857338, 44.853684302229127 ], [ -122.456252138071704, 44.852499869807495 ], [ -122.456043202685208, 44.851981616514621 ], [ -122.453693336767017, 44.851056267761543 ], [ -122.451604709506327, 44.851759705012839 ], [ -122.450664868977455, 44.853351548551899 ], [ -122.449568287082784, 44.853573683065363 ], [ -122.448680580724798, 44.854314075963771 ], [ -122.449098355901768, 44.855350611315238 ], [ -122.448053962202593, 44.856683314732237 ], [ -122.4489417425916, 44.857904951671671 ], [ -122.448576189496819, 44.857978993566356 ], [ -122.448889535515619, 44.858756401734432 ], [ -122.447583965769113, 44.860422291320042 ], [ -122.445390544232524, 44.860866508269126 ], [ -122.441682651853128, 44.860496195428546 ], [ -122.439802674180626, 44.859755703757422 ], [ -122.439071527015955, 44.859903737348134 ], [ -122.43719159457936, 44.859163210066136 ], [ -122.436982785165185, 44.858644919174957 ], [ -122.435781672375029, 44.858607798128659 ], [ -122.434267380879049, 44.857793225050536 ], [ -122.425702877327609, 44.85812526845762 ], [ -122.423143801723697, 44.858643097720162 ], [ -122.422986916634585, 44.859235382487043 ], [ -122.422255738177512, 44.85938332419002 ], [ -122.422047042993285, 44.858865009780629 ], [ -122.421211522687969, 44.858753788479298 ], [ -122.420898496092164, 44.857976315656018 ], [ -122.419227484076899, 44.85775385401071 ], [ -122.416303696918717, 44.856383481600524 ], [ -122.414737054067544, 44.856420124828986 ], [ -122.411447837756995, 44.855123598833323 ], [ -122.411030643290786, 44.854086946766159 ], [ -122.409621043044424, 44.853531266170862 ], [ -122.403980327760181, 44.855232428827598 ], [ -122.403457690788329, 44.855898605039741 ], [ -122.403666233760163, 44.856416944858793 ], [ -122.400480113290683, 44.857341345986043 ], [ -122.402408427918814, 44.863117086622601 ], [ -122.401885714227689, 44.863783268730764 ], [ -122.402094269513128, 44.864301620352393 ], [ -122.401728630256656, 44.864375535577366 ], [ -122.401884379529932, 44.865745333428869 ], [ -122.401100266749111, 44.866744609161628 ], [ -122.401621668792544, 44.868040500611812 ], [ -122.401098909113557, 44.868706687169784 ], [ -122.399374855158698, 44.869335424558805 ], [ -122.398852063208267, 44.870001604334632 ], [ -122.399060614401378, 44.870519968064492 ], [ -122.397440766147355, 44.871407865547319 ], [ -122.397649310833401, 44.871926233144599 ], [ -122.397022209943572, 44.872333225513636 ], [ -122.397073608220239, 44.873443868570327 ], [ -122.396707913824656, 44.873517771652068 ], [ -122.397020733396431, 44.874295328632172 ], [ -122.396497879663059, 44.874961506810294 ], [ -122.396706428095527, 44.875479880101942 ], [ -122.396340722242414, 44.875553782527632 ], [ -122.396549271299207, 44.876072156768586 ], [ -122.394719173379855, 44.878403779008416 ], [ -122.388711977986702, 44.878216164385577 ], [ -122.385996395437175, 44.877363454376628 ], [ -122.382130635064954, 44.87758374664962 ], [ -122.380878079776352, 44.876435472840427 ], [ -122.378632599672315, 44.875767955728641 ], [ -122.377275938874376, 44.874360452839035 ], [ -122.375970385545585, 44.874063593469621 ], [ -122.37508371598318, 44.872841428396903 ], [ -122.373674019917701, 44.872285345959384 ], [ -122.37346565863858, 44.871766940661814 ], [ -122.37252588257293, 44.871396210177892 ], [ -122.369757562750934, 44.871394629357532 ], [ -122.367042495228645, 44.870541548874847 ], [ -122.365945358115582, 44.870763007966303 ], [ -122.365371349640725, 44.870318409542222 ], [ -122.364274210668057, 44.870539854845916 ], [ -122.361924959187789, 44.869612858437833 ], [ -122.360357979316817, 44.869648867259158 ], [ -122.358948471652909, 44.869092634084161 ], [ -122.357645724642254, 44.866833522100627 ], [ -122.356810212028265, 44.866721897414074 ], [ -122.356601997742558, 44.866203472533549 ], [ -122.355870598027664, 44.866351054490181 ], [ -122.355189898357807, 44.867609276647372 ], [ -122.353831157314431, 44.868163637811584 ], [ -122.353673640612655, 44.868755854224879 ], [ -122.35294220676748, 44.868903421070073 ], [ -122.352418959007679, 44.869569419059182 ], [ -122.352627151502517, 44.870087854436534 ], [ -122.352261426602126, 44.870161635722553 ], [ -122.352573717473206, 44.870939290321829 ], [ -122.352050450254396, 44.871605289982945 ], [ -122.351318981910495, 44.871752848937497 ], [ -122.349853185062045, 44.874010056098314 ], [ -122.347762762700683, 44.874711911873938 ], [ -122.347081827066631, 44.875970116995973 ], [ -122.345095393228505, 44.876931160366738 ], [ -122.345199472266259, 44.877190388083662 ], [ -122.341384072574272, 44.878520181269735 ], [ -122.341175940560561, 44.878001718403446 ], [ -122.337625360093767, 44.877036299371738 ], [ -122.335276248899746, 44.876108822252462 ], [ -122.334598361068387, 44.875404852145039 ], [ -122.332091627230469, 44.875069525093949 ], [ -122.331779553700457, 44.874291815436685 ], [ -122.331413783144583, 44.874365540566984 ], [ -122.329541516586346, 44.869699290624226 ], [ -122.329803255355998, 44.869366336308282 ], [ -122.329437509383496, 44.869440055214433 ], [ -122.329125492578328, 44.868662349425719 ], [ -122.327088775851593, 44.868512450831211 ], [ -122.326307057799809, 44.867549214891902 ], [ -122.325105848048779, 44.867511101498991 ], [ -122.322287527868042, 44.866397885408553 ], [ -122.321297964424232, 44.864916148005292 ], [ -122.320512666111895, 44.865914950177739 ], [ -122.318318229718344, 44.866357093275695 ], [ -122.317794659443379, 44.867022952211016 ], [ -122.316435622578126, 44.867576933619922 ], [ -122.315858127557959, 44.869094204652527 ], [ -122.311938666440255, 44.870163888807745 ], [ -122.311153168162321, 44.871162648172138 ], [ -122.31005583736858, 44.871383650217403 ], [ -122.309636080961212, 44.872308736957116 ], [ -122.30853872651825, 44.872529727167539 ], [ -122.308642658054197, 44.872788980620193 ], [ -122.305508492419676, 44.872859735038766 ], [ -122.301222846226565, 44.874002768584916 ], [ -122.300649237503308, 44.873557889876885 ], [ -122.298612436213816, 44.873407557029545 ], [ -122.296263988983867, 44.872479404268411 ], [ -122.296056222960217, 44.871960878619731 ], [ -122.294904664971085, 44.873033174349651 ], [ -122.293441443951451, 44.873327665727523 ], [ -122.293545318606533, 44.873586931353934 ], [ -122.289783335426264, 44.874063825183953 ], [ -122.2898871971354, 44.874323094082136 ], [ -122.288423926157577, 44.874617531577421 ], [ -122.28836967691899, 44.875468950532508 ], [ -122.288003852491897, 44.875542557438216 ], [ -122.288315426308856, 44.876320371129978 ], [ -122.287949597198008, 44.876393978031572 ], [ -122.288468896411345, 44.877690337298944 ], [ -122.28810306002697, 44.877763944850827 ], [ -122.288464257199308, 44.879652462078582 ], [ -122.28663501396467, 44.880020491576929 ], [ -122.284128347475999, 44.879684264350985 ], [ -122.284232196082669, 44.879943540975724 ], [ -122.282402921818417, 44.880311512989074 ], [ -122.282506764749783, 44.88057079132372 ], [ -122.280677464021863, 44.880938740329867 ], [ -122.280781301277571, 44.881198020374377 ], [ -122.279055805666303, 44.881825228127141 ], [ -122.278947057329759, 44.883528088289466 ], [ -122.276642964267907, 44.885672435557801 ], [ -122.276954453730085, 44.886450293751984 ], [ -122.276588557174861, 44.886523871370869 ], [ -122.277419220558158, 44.888598165774845 ], [ -122.277053312840408, 44.888671745025398 ], [ -122.277468658540556, 44.889708895320076 ], [ -122.276682421056364, 44.890707497529952 ], [ -122.277147208590847, 44.892855391544373 ], [ -122.276098831421493, 44.894186867778551 ], [ -122.275366951562646, 44.894334019982317 ], [ -122.275208683569019, 44.894926179631497 ], [ -122.272122807112126, 44.896106903973909 ], [ -122.270915966923383, 44.898030509726382 ], [ -122.269452097799203, 44.898324756231055 ], [ -122.267780586967291, 44.898100386339721 ], [ -122.265584755654501, 44.89854169892152 ], [ -122.265688561935875, 44.898801001156926 ], [ -122.263022916078341, 44.899056518732479 ], [ -122.260045892775892, 44.898534063706208 ], [ -122.258215981323417, 44.898901721500529 ], [ -122.257691563679103, 44.899567395404119 ], [ -122.25439763498953, 44.900229105442371 ], [ -122.253354357219607, 44.899598204053319 ], [ -122.252256373473855, 44.899818747453359 ], [ -122.249541650678736, 44.898963232376936 ], [ -122.247973928746546, 44.898997930092861 ], [ -122.247192988877444, 44.898034165669138 ], [ -122.245887551291744, 44.897736023776993 ], [ -122.245106655920381, 44.896772250009818 ], [ -122.2447406684946, 44.896845742478526 ], [ -122.242239572638894, 44.894546520053467 ], [ -122.240934224600267, 44.894248332348099 ], [ -122.240049741123684, 44.893025218798144 ], [ -122.236603504730041, 44.892316410056196 ], [ -122.23618877238502, 44.891279127072067 ], [ -122.235822805082989, 44.891352594276519 ], [ -122.233895513503057, 44.889498417132586 ], [ -122.233529553376599, 44.889571877778131 ], [ -122.233218551108536, 44.888793913214968 ], [ -122.232852594072128, 44.888867371894129 ], [ -122.23259656812904, 44.887237986103791 ], [ -122.232962516590263, 44.887164528398714 ], [ -122.23228558741711, 44.886460023555472 ], [ -122.230248549055489, 44.886308647795538 ], [ -122.227900594787286, 44.885379270365064 ], [ -122.225497653296216, 44.885301266382534 ], [ -122.224558504087568, 44.884929487695217 ], [ -122.223778062456788, 44.883965618194964 ], [ -122.222942560018865, 44.883853154973238 ], [ -122.221802798735624, 44.881000569049185 ], [ -122.220863729895171, 44.880628768163433 ], [ -122.218302230149874, 44.881142712560269 ], [ -122.217777556336557, 44.881808203140743 ], [ -122.218295546391545, 44.883104849944949 ], [ -122.216624583978174, 44.882879850455964 ], [ -122.214794861030171, 44.883246902586791 ], [ -122.212916748457829, 44.88250319256835 ], [ -122.212240075843056, 44.881798594111125 ], [ -122.208269939412887, 44.881754542450771 ], [ -122.205818898817299, 44.88056545227446 ], [ -122.203519693807365, 44.880746393014221 ], [ -122.202007718375881, 44.879929157354724 ], [ -122.201275831799208, 44.880075900394324 ], [ -122.19986742177872, 44.87951798229809 ], [ -122.20212556068951, 44.876264259670727 ], [ -122.204321081040831, 44.875824008659244 ], [ -122.204845841189538, 44.875158579882445 ], [ -122.206309488730312, 44.874865054204783 ], [ -122.206205947946899, 44.874605720346359 ], [ -122.208504936121173, 44.874424736103528 ], [ -122.208297839799343, 44.873906072376066 ], [ -122.208663742314982, 44.873832683226873 ], [ -122.207476484401425, 44.869869334404903 ], [ -122.207842365883607, 44.869795948176829 ], [ -122.207531751596477, 44.86901795942476 ], [ -122.207897628393923, 44.86894457318914 ], [ -122.207690553597075, 44.868425915044831 ], [ -122.208056427005644, 44.868352528475519 ], [ -122.207849352806136, 44.867833871280581 ], [ -122.208215222825942, 44.867760484377555 ], [ -122.20800814922373, 44.867241828131874 ], [ -122.208636343491946, 44.866835725313194 ], [ -122.20832573368493, 44.866057743680862 ], [ -122.208691593538774, 44.865984355776696 ], [ -122.208277453107243, 44.864947049276729 ], [ -122.207338682717676, 44.86457516738043 ], [ -122.202009637964323, 44.865083790363954 ], [ -122.201436760720625, 44.864638496583986 ], [ -122.196784003008844, 44.865851537970428 ], [ -122.193753523987766, 44.866179015002878 ], [ -122.19171718568478, 44.866027061051724 ], [ -122.190778491683375, 44.865655062285185 ], [ -122.189998756735704, 44.864691038916995 ], [ -122.187175201712336, 44.86553704779503 ], [ -122.185870659765953, 44.865238344135726 ], [ -122.184041248531301, 44.865604961788151 ], [ -122.184144690146681, 44.8658643074004 ], [ -122.181583471892054, 44.866377532975243 ], [ -122.180064289351066, 44.867522142099517 ], [ -122.177868881131531, 44.867961987551453 ], [ -122.175522289384503, 44.867031732401131 ], [ -122.17322346506144, 44.867212148073456 ], [ -122.17071784309779, 44.866873811043575 ], [ -122.170145157520267, 44.866428381753259 ], [ -122.168681535820497, 44.866721506983573 ], [ -122.167639580174225, 44.866089987803932 ], [ -122.165603303553439, 44.865937637265723 ], [ -122.15995540552683, 44.86762857441078 ], [ -122.155310211962302, 44.866878114864562 ], [ -122.150919085742714, 44.867756958264799 ], [ -122.150139896981983, 44.866792698523454 ], [ -122.147793729011511, 44.865861960599759 ], [ -122.145232234085682, 44.86637449171581 ], [ -122.143824574950685, 44.865816002658512 ], [ -122.141994919374113, 44.866182047040887 ], [ -122.138185156474563, 44.865543959407347 ], [ -122.135886283111503, 44.865723734277822 ], [ -122.134947901822954, 44.865351344943242 ], [ -122.134534900976618, 44.864313812473306 ], [ -122.134168969518001, 44.864386997715826 ], [ -122.134431652752866, 44.864054429542449 ], [ -122.133708937449597, 44.862238751115925 ], [ -122.134074857738455, 44.862165567489178 ], [ -122.133661889869558, 44.861128039901928 ], [ -122.134027804176284, 44.861054856589767 ], [ -122.131644251238598, 44.857051118601056 ], [ -122.13274193191782, 44.856831584274943 ], [ -122.133633138751193, 44.856093283360948 ], [ -122.136194331001903, 44.855580985915047 ], [ -122.136719606212409, 44.854915854779875 ], [ -122.138914857754742, 44.854476696281957 ], [ -122.139074228409839, 44.853884753038145 ], [ -122.141166173509504, 44.853186185726102 ], [ -122.141062916809148, 44.852926814508905 ], [ -122.142788955091248, 44.852301424437741 ], [ -122.143314139627506, 44.85163627245278 ], [ -122.142797834608032, 44.850339429977275 ], [ -122.14316368039664, 44.850266223536934 ], [ -122.140319847163923, 44.844114611902953 ], [ -122.140685661846476, 44.844041413266424 ], [ -122.14037594172045, 44.843263314983176 ], [ -122.141004319881091, 44.842857551406098 ], [ -122.140797840176887, 44.842338821035781 ], [ -122.141585526101466, 44.841341127069498 ], [ -122.142682918468523, 44.841121519228864 ], [ -122.143208016915821, 44.840456384642053 ], [ -122.142898284141765, 44.839678298552691 ], [ -122.143264071939257, 44.839605093620186 ], [ -122.142072365047184, 44.837603405565908 ], [ -122.142438142478724, 44.837530203233847 ], [ -122.14223166806093, 44.837011481375939 ], [ -122.142756738935461, 44.836346354791452 ], [ -122.141978030151449, 44.835382116856181 ], [ -122.142343795628335, 44.835308915152268 ], [ -122.141827634374209, 44.834012117263555 ], [ -122.142352685866541, 44.833346996808586 ], [ -122.141733312572356, 44.831790846560523 ], [ -122.142099058823177, 44.831717646123487 ], [ -122.141789379016359, 44.830939572969321 ], [ -122.14215512058621, 44.830866372521228 ], [ -122.141535774652326, 44.829310230151549 ], [ -122.140597869156309, 44.828937911328829 ], [ -122.140185004475853, 44.827900482544756 ], [ -122.140550731295264, 44.827827286981616 ], [ -122.14013787414423, 44.826789860674715 ], [ -122.139668941499806, 44.826603698220659 ], [ -122.141243955653238, 44.824608392733886 ], [ -122.142969267039717, 44.823983040721949 ], [ -122.142762830036105, 44.823464335683617 ], [ -122.144440900342985, 44.821728358174965 ], [ -122.14423445891957, 44.821209658063019 ], [ -122.14633410880073, 44.818549209735949 ], [ -122.146127662545226, 44.818030516288459 ], [ -122.146858995372199, 44.817884095026741 ], [ -122.147908737438456, 44.816553862455031 ], [ -122.150158614421514, 44.815263312410714 ], [ -122.149435998647334, 44.813447920798829 ], [ -122.149801637004686, 44.813374702394384 ], [ -122.149857586240429, 44.812523461073859 ], [ -122.154769883179057, 44.810979627939254 ], [ -122.155032256670367, 44.810647059910401 ], [ -122.154468686706508, 44.808239813598696 ], [ -122.154834291347882, 44.808166582325782 ], [ -122.154786933471712, 44.807056015406978 ], [ -122.155414887394357, 44.806650217698738 ], [ -122.155208407710262, 44.806131552251117 ], [ -122.155939591723381, 44.805985085382758 ], [ -122.155733110039492, 44.805466421525836 ], [ -122.157831815819378, 44.802805888101958 ], [ -122.159453166023837, 44.801921026549905 ], [ -122.161186065582626, 44.799333704347042 ], [ -122.162592480453696, 44.799891926569991 ], [ -122.163323580749861, 44.79974542147319 ], [ -122.164364470659081, 44.800376878746732 ], [ -122.165095572363384, 44.800230363818343 ], [ -122.16613648635726, 44.800861808016663 ], [ -122.16973628288541, 44.800980370509848 ], [ -122.169791970135435, 44.800129144803407 ], [ -122.170682021696024, 44.799390692953793 ], [ -122.170475446795322, 44.798872059572197 ], [ -122.170999942001359, 44.798206880001118 ], [ -122.170849039466674, 44.796837028697929 ], [ -122.17121456447606, 44.796763754619022 ], [ -122.171270229579278, 44.795912536423138 ], [ -122.175131987037076, 44.79569836352421 ], [ -122.176903957202285, 44.796183145228596 ], [ -122.18264877240118, 44.794751074283433 ], [ -122.183331954825263, 44.793493938768748 ], [ -122.18469059068002, 44.792941400303825 ], [ -122.185214899504487, 44.792276174009807 ], [ -122.18902849378722, 44.790951086626343 ], [ -122.188980584814516, 44.789840575148666 ], [ -122.190759976485737, 44.788363446202418 ], [ -122.190553280942297, 44.787844856727304 ], [ -122.191442942963576, 44.787106287477002 ], [ -122.191498344735564, 44.786255079479552 ], [ -122.194890683114096, 44.785854376125776 ], [ -122.194787322906379, 44.78559508600916 ], [ -122.196249070314849, 44.785301729969767 ], [ -122.196407774220845, 44.784709811730139 ], [ -122.197138636394428, 44.784563127131044 ], [ -122.197924813825438, 44.783565233109066 ], [ -122.197718077888766, 44.78304666031125 ], [ -122.19850422906481, 44.78204876630415 ], [ -122.201316978682769, 44.783164369426537 ], [ -122.20304067231946, 44.782538302894586 ], [ -122.206170746057239, 44.782469957750145 ], [ -122.206949761477361, 44.783433706811479 ], [ -122.208880229150751, 44.783326123011726 ], [ -122.21085895444638, 44.784328998441907 ], [ -122.21232060446647, 44.784035467846515 ], [ -122.214561380661962, 44.784705629047941 ], [ -122.218580865716305, 44.783898270198399 ], [ -122.218477417415144, 44.783638999516711 ], [ -122.221662544641148, 44.782719079802796 ], [ -122.222600254512471, 44.783090792196042 ], [ -122.224427217595945, 44.782723717352383 ], [ -122.225364942771378, 44.783095410392953 ], [ -122.227191890928651, 44.78272829783306 ], [ -122.227764242373723, 44.783173398621798 ], [ -122.229591179580567, 44.782806253269342 ], [ -122.230163547524413, 44.783251343883066 ], [ -122.237416315388501, 44.782633701929022 ] ] ] } }
]
}
