{
"type": "FeatureCollection",
"name": "basin",
"crs": { "type": "name", "properties": { "name": "urn:ogc:def:crs:OGC:1.3:CRS84" } },
"features": [
{ "type": "Feature", "properties": { }, "geometry": { "type": "Polygon", "coordinates": [ [ [ -122.547709066283232, 44.446362459206362 ], [ -122.547345841856156, 44.446436703043943 ], [ -122.54724165169921, 44.446177878968825 ], [ -122.547604874852226, 44.446103635455742 ], [ -122.547709066283232, 44.446362459206362 ] ], [ [ -122.547709066283232, 44.446362459206362 ], [ -122.548072289913861, 44.446288214391267 ], [ -122.548176483415347, 44.446547037877913 ], [ -122.547813258510686, 44.446621283017471 ], [ -122.547709066283232, 44.446362459206362 ] ], [ [ -122.548176483415347, 44.446547037877913 ], [ -122.548539707523531, 44.446472791760726 ], [ -122.548643903095538, 44.446731614983364 ], [ -122.548280677713336, 44.446805861425013 ], [ -122.548176483415347, 44.446547037877913 ] ], [ [ -122.548643903095538, 44.446731614983364 ], [ -122.54900712768125, 44.446657367564171 ], [ -122.549111325323807, 44.446916190522821 ], [ -122.548748099464049, 44.446990438266496 ], [ -122.548643903095538, 44.446731614983364 ] ] ] } }
]
}
