{
"type": "FeatureCollection",
"name": "basin",
"crs": { "type": "name", "properties": { "name": "urn:ogc:def:crs:OGC:1.3:CRS84" } },
"features": [
{ "type": "Feature", "properties": { }, "geometry": { "type": "Polygon", "coordinates": [ [ [ -122.28333158795283, 44.30754732200311 ], [ -122.28343455819433, 44.307806276241983 ], [ -122.283797327807662, 44.307732772748622 ], [ -122.283900300108513, 44.307991726726293 ], [ -122.28426307020888, 44.307918221935715 ], [ -122.283797327807662, 44.307732772748622 ], [ -122.283694356292941, 44.307473818829543 ], [ -122.28333158795283, 44.30754732200311 ], [ -122.282865850644498, 44.307361869699115 ], [ -122.282248058059736, 44.305808143927578 ], [ -122.282610818273554, 44.305734643969927 ], [ -122.282198967179113, 44.304698829238411 ], [ -122.28282151170869, 44.304292876052095 ], [ -122.281017372819477, 44.300741037466764 ], [ -122.281899666385343, 44.30000264431893 ], [ -122.281693762092914, 44.299484741848254 ], [ -122.282213309073725, 44.29881984493182 ], [ -122.284183716229336, 44.297860940551537 ], [ -122.283977801001583, 44.29734304389585 ], [ -122.2844973091984, 44.296678140994565 ], [ -122.286673551179106, 44.296237098105749 ], [ -122.288334909316902, 44.294501302379651 ], [ -122.287560350163389, 44.293539041876784 ], [ -122.288599227908804, 44.292209217393342 ], [ -122.288084404357377, 44.290914508309406 ], [ -122.288706787204731, 44.290508539112423 ], [ -122.288294935472905, 44.289472775680203 ], [ -122.288657601804189, 44.289399261715886 ], [ -122.287059455716204, 44.286365490954232 ], [ -122.28876974526996, 44.285738992119967 ], [ -122.288926475142787, 44.285147601400531 ], [ -122.290014400378098, 44.284927053372421 ], [ -122.290793427551336, 44.283929688700987 ], [ -122.290587504153649, 44.283411817090204 ], [ -122.290950135608711, 44.283338297793833 ], [ -122.288479269444849, 44.277123864173468 ], [ -122.28899857876246, 44.276458971298858 ], [ -122.288846456735982, 44.27509079326471 ], [ -122.290350552793058, 44.273946424016771 ], [ -122.293094514920213, 44.27394964039005 ], [ -122.29495667405287, 44.274691246221913 ], [ -122.299979100580813, 44.274512052520066 ], [ -122.300395293423151, 44.273588195356574 ], [ -122.30112042931448, 44.273441105302624 ], [ -122.301639586603557, 44.272776168119719 ], [ -122.301590202680998, 44.271666935837878 ], [ -122.302937435320388, 44.27111382026078 ], [ -122.303094007969136, 44.270522430586176 ], [ -122.304181652720573, 44.270301773366441 ], [ -122.304700756004465, 44.26963682851288 ], [ -122.30578838133971, 44.26941615856024 ], [ -122.307288011836022, 44.270231142691216 ], [ -122.308738178859528, 44.269936885580968 ], [ -122.308635169536657, 44.269677971054847 ], [ -122.315626300484666, 44.268538950911449 ], [ -122.316145278157904, 44.267873963814743 ], [ -122.318526477326856, 44.267950241366947 ], [ -122.322411080701528, 44.266881761313996 ], [ -122.325257826666899, 44.267143216831897 ], [ -122.325463965223889, 44.26766101751371 ], [ -122.326292056436671, 44.267772692436012 ], [ -122.328101141381737, 44.269364140252584 ], [ -122.33032607475343, 44.270031624651629 ], [ -122.331051107742027, 44.269884372581203 ], [ -122.332085433013077, 44.270513806684612 ], [ -122.332810467335378, 44.270366544882961 ], [ -122.334310443256697, 44.271181226033647 ], [ -122.33451666314528, 44.27169901696557 ], [ -122.33627609440012, 44.272181145236956 ], [ -122.338088696101096, 44.271812925070677 ], [ -122.339019986991872, 44.272183414634561 ], [ -122.341195088879289, 44.271741502653697 ], [ -122.341091953001367, 44.271482612312035 ], [ -122.347720224575042, 44.270415555797875 ], [ -122.347617065822021, 44.270156671216391 ], [ -122.351863826167005, 44.269013654049289 ], [ -122.35176065373966, 44.268754773422607 ], [ -122.356576109770984, 44.268055685029104 ], [ -122.359526237374723, 44.268575284683607 ], [ -122.35973264171119, 44.269093033760136 ], [ -122.360664013404815, 44.269463369780247 ], [ -122.361076847988045, 44.270498866512561 ], [ -122.363302142731669, 44.271165801053456 ], [ -122.368324126524001, 44.270984029295853 ], [ -122.372570589781958, 44.269840349375571 ], [ -122.376349123752448, 44.270470960316175 ], [ -122.37971459903163, 44.270066025891332 ], [ -122.380180344790617, 44.270251125116069 ], [ -122.380800055221002, 44.271804282203732 ], [ -122.381162526769629, 44.271730518894117 ], [ -122.381782273186488, 44.27328367610945 ], [ -122.382144751568859, 44.273209909901041 ], [ -122.382764533974637, 44.274763067245075 ], [ -122.383127019190923, 44.274689298137631 ], [ -122.383436924843153, 44.275465876617886 ], [ -122.385196801060999, 44.275947361727575 ], [ -122.385506736143228, 44.276723937388333 ], [ -122.386904165514764, 44.277279177129664 ], [ -122.387110805195022, 44.277796892941161 ], [ -122.389439925548658, 44.278722258669106 ], [ -122.392961537912228, 44.277725482441753 ], [ -122.394462398303517, 44.27853949765958 ], [ -122.395392578445708, 44.280869173805407 ], [ -122.395133429576362, 44.281201830767799 ], [ -122.396427667723728, 44.281498121792907 ], [ -122.39663439290814, 44.282015827290763 ], [ -122.397566143293361, 44.282385914791149 ], [ -122.397979619597152, 44.283421324363523 ], [ -122.401655760159031, 44.283792381414976 ], [ -122.403622768522027, 44.284791331382195 ], [ -122.405331940919041, 44.284163337208639 ], [ -122.406004658656812, 44.284866046074605 ], [ -122.406833092088775, 44.284977223650721 ], [ -122.407350135932091, 44.286271456644947 ], [ -122.407712655885817, 44.286197618829732 ], [ -122.408126310243176, 44.287233004970282 ], [ -122.408488834489404, 44.287159164895236 ], [ -122.409885574479645, 44.289673786779943 ], [ -122.412059745331462, 44.291190318447292 ], [ -122.413923676491422, 44.291930285141952 ], [ -122.415011303225185, 44.291708712479341 ], [ -122.415218201313294, 44.29222639995038 ], [ -122.414855657317077, 44.292300259122932 ], [ -122.416252739113588, 44.294814840742362 ], [ -122.415890182412284, 44.294888703125586 ], [ -122.41609709690367, 44.295406392613863 ], [ -122.419411427851927, 44.295850830463039 ], [ -122.420084407297011, 44.296553485022876 ], [ -122.420809528569407, 44.296405735926612 ], [ -122.420913006501607, 44.296664577625677 ], [ -122.42018788268814, 44.296812327364243 ], [ -122.420653140985749, 44.298956944134595 ], [ -122.420290566940409, 44.299030819132589 ], [ -122.422205442300253, 44.302839597849513 ], [ -122.422671528958801, 44.303024560776272 ], [ -122.422153326967234, 44.30369001092437 ], [ -122.422825693795687, 44.30635234187568 ], [ -122.425363304627069, 44.30779482501071 ], [ -122.426450534243372, 44.309532843418175 ], [ -122.427279302414647, 44.309643899360566 ], [ -122.429350439193954, 44.312861071650005 ], [ -122.430075714607369, 44.312713267113693 ], [ -122.43111161136369, 44.313341986482172 ], [ -122.431370706555242, 44.313009237492246 ], [ -122.433650066046354, 44.312824619425534 ], [ -122.434426917007542, 44.313786066874066 ], [ -122.435825510224475, 44.314340835113718 ], [ -122.436136200378911, 44.315117354045377 ], [ -122.436861485129057, 44.314969511856113 ], [ -122.437897479237122, 44.315598181353344 ], [ -122.438985407130005, 44.315376401993284 ], [ -122.440850296599393, 44.316116028435964 ], [ -122.440901990414488, 44.317225309194072 ], [ -122.439658550488971, 44.318038712051447 ], [ -122.442144918292897, 44.322291102577992 ], [ -122.441264080682657, 44.323030590750676 ], [ -122.441782071685083, 44.324324791336196 ], [ -122.441419385046572, 44.324398727749873 ], [ -122.441730185323394, 44.3251752497616 ], [ -122.441367494080396, 44.325249186163994 ], [ -122.44214459676347, 44.32621061325532 ], [ -122.442973594426803, 44.326321575321515 ], [ -122.443750732165782, 44.327282995172446 ], [ -122.444683361503706, 44.32765278724321 ], [ -122.445512317487172, 44.329723507390405 ], [ -122.447118589338857, 44.330795856482631 ], [ -122.447170396878562, 44.331905168474414 ], [ -122.446289489194669, 44.332644704600071 ], [ -122.446704015890418, 44.333680069910677 ], [ -122.446341284584349, 44.333754021161916 ], [ -122.447999497606062, 44.337895496863311 ], [ -122.448362249257045, 44.337821540460823 ], [ -122.448776839247458, 44.338856910427282 ], [ -122.451834414053195, 44.339633381744839 ], [ -122.452922832677658, 44.341371298321292 ], [ -122.454788589107665, 44.342110769317749 ], [ -122.45577343979717, 44.34358983095111 ], [ -122.45660267223721, 44.343700712163148 ], [ -122.457432188438872, 44.345771426975254 ], [ -122.457069404150445, 44.345845409301567 ], [ -122.457484176164215, 44.346880769397757 ], [ -122.457121385996984, 44.346954752036062 ], [ -122.457743560138141, 44.348507795866595 ], [ -122.460801672837562, 44.34928407687417 ], [ -122.461994194386534, 44.351280793950082 ], [ -122.462357002384394, 44.351206797374687 ], [ -122.463134700238697, 44.352168153696134 ], [ -122.464067777613465, 44.352537829081413 ], [ -122.465519022706516, 44.352241813554599 ], [ -122.466814924348029, 44.352537463372947 ], [ -122.470080180977789, 44.351871339121011 ], [ -122.471479851529281, 44.352425776534048 ], [ -122.473710423531131, 44.357010737671878 ], [ -122.476769102573712, 44.357786665806209 ], [ -122.476976673955079, 44.358304327905962 ], [ -122.477909911256305, 44.358673911046047 ], [ -122.479103101875921, 44.360670513923225 ], [ -122.480295420641824, 44.360707206921838 ], [ -122.48050302789315, 44.36122486667454 ], [ -122.483768568419222, 44.360558394847139 ], [ -122.484701873776046, 44.360927932140839 ], [ -122.486465807671792, 44.363368072855863 ], [ -122.488332535333441, 44.364107107721907 ], [ -122.489421076595917, 44.363884893930958 ], [ -122.491495553896215, 44.365141535027306 ], [ -122.49377650218203, 44.364955867581848 ], [ -122.493672641766366, 44.364697046009127 ], [ -122.494761174994792, 44.364474788313636 ], [ -122.497871644977423, 44.364399694250274 ], [ -122.502279973064518, 44.36657976306666 ], [ -122.504819877504815, 44.366060981975998 ], [ -122.507153636221958, 44.36698445534843 ], [ -122.511507696357626, 44.366094927010444 ], [ -122.511403766498063, 44.365836118650279 ], [ -122.514306399594957, 44.365243024209171 ], [ -122.514202460356373, 44.364984218491948 ], [ -122.516483341084125, 44.364798162359662 ], [ -122.516432361037616, 44.365648721099589 ], [ -122.515810654060715, 44.366055817256637 ], [ -122.516850159996324, 44.36864387029884 ], [ -122.519493994093452, 44.368383612580487 ], [ -122.520427601891498, 44.368752905589808 ], [ -122.521412140673846, 44.368271625556346 ], [ -122.5226046159232, 44.368307940464703 ], [ -122.523175404982851, 44.368751377514023 ], [ -122.524989570254036, 44.368380538270927 ], [ -122.525197542311616, 44.368898136594773 ], [ -122.526494022437788, 44.369193216008952 ], [ -122.526702008476789, 44.369710812861832 ], [ -122.529036190912635, 44.370633909932849 ], [ -122.529761866730013, 44.370485544662088 ], [ -122.530177899822917, 44.371520731190301 ], [ -122.530644753156579, 44.371705342252014 ], [ -122.53427314022062, 44.370963431370697 ], [ -122.536244631374089, 44.371960600194207 ], [ -122.537802620977018, 44.373882529956177 ], [ -122.539824943032372, 44.374029068602987 ], [ -122.540241151567045, 44.375064231360916 ], [ -122.538843086684935, 44.37647045360994 ], [ -122.539467404248953, 44.378023210617513 ], [ -122.540868182152963, 44.378576948977241 ], [ -122.541647307512363, 44.379537901419013 ], [ -122.5432028628571, 44.379499814943756 ], [ -122.543411008129837, 44.380017396845375 ], [ -122.545745773078167, 44.380940221037378 ], [ -122.548027104066776, 44.380753618673303 ], [ -122.54953210711875, 44.381566057244832 ], [ -122.553264927543111, 44.381082400598565 ], [ -122.554972037528458, 44.378492380768662 ], [ -122.556423440657255, 44.378195358941156 ], [ -122.557717053247515, 44.376530169215584 ], [ -122.558805566250101, 44.376307382798984 ], [ -122.558960148350835, 44.375715565518618 ], [ -122.562796719367782, 44.375490424082471 ], [ -122.563730660898699, 44.375859419093594 ], [ -122.564147245771451, 44.376894511102414 ], [ -122.567779015767996, 44.378111649071755 ], [ -122.568766854885425, 44.379589985006795 ], [ -122.57094389935547, 44.379144220005145 ], [ -122.573070635497942, 44.379549024791757 ], [ -122.57281198199054, 44.379882095185742 ], [ -122.573853876593944, 44.382469777726392 ], [ -122.573232360351611, 44.382877156070663 ], [ -122.573961721687553, 44.384688542279854 ], [ -122.575362919114752, 44.385241925699304 ], [ -122.576196572280111, 44.387312078517873 ], [ -122.576663659711173, 44.387496534403439 ], [ -122.576922323350104, 44.387163451227735 ], [ -122.578115160569567, 44.387199270714902 ], [ -122.578632468767395, 44.386533098873791 ], [ -122.580083940354328, 44.386235814341347 ], [ -122.579979717735085, 44.385977048656621 ], [ -122.582261123857222, 44.385789858248188 ], [ -122.583554246502771, 44.384124391303018 ], [ -122.585005644910382, 44.383827054664003 ], [ -122.584901407203716, 44.383568294133006 ], [ -122.588529834792396, 44.382824887427539 ], [ -122.588634085209222, 44.383083644717757 ], [ -122.597237736198409, 44.381040312978392 ], [ -122.598171941662244, 44.381409070840576 ], [ -122.599056201458765, 44.382628442627691 ], [ -122.601024550721803, 44.381664686128723 ], [ -122.605069940429885, 44.381955818316541 ], [ -122.611133363899867, 44.380432301266595 ], [ -122.612326100652027, 44.380467814036443 ], [ -122.613260380307182, 44.380836465674001 ], [ -122.61346906465181, 44.381353939449134 ], [ -122.614299016034451, 44.381463847371506 ], [ -122.614507710241256, 44.381981320198989 ], [ -122.615337670991096, 44.382091221796593 ], [ -122.615650728290106, 44.382867429703609 ], [ -122.616585059109354, 44.383236059880986 ], [ -122.61700249653515, 44.38427100244467 ], [ -122.617365311406672, 44.384196578656642 ], [ -122.617782766664348, 44.385231520856003 ], [ -122.618145585821168, 44.38515709479406 ], [ -122.618563058911548, 44.386192036629289 ], [ -122.618925882353736, 44.386117608293283 ], [ -122.619706201005116, 44.387078119154566 ], [ -122.620536232604564, 44.387187989546042 ], [ -122.621783802359317, 44.388332791175912 ], [ -122.623652691588205, 44.389069967690283 ], [ -122.624378357311187, 44.388921081431349 ], [ -122.628116265321452, 44.390395338434196 ], [ -122.628325092545595, 44.390912799290099 ], [ -122.629259603231532, 44.391281346805926 ], [ -122.629572862455305, 44.392057536930885 ], [ -122.631079093695263, 44.392869073415596 ], [ -122.632172963141329, 44.394605714847188 ], [ -122.632535816680743, 44.394531248145441 ], [ -122.634459917030554, 44.3963776694549 ], [ -122.638093993299378, 44.39759294023024 ], [ -122.638616313291919, 44.398886573234989 ], [ -122.639809389247461, 44.398921841370921 ], [ -122.640848547990586, 44.399549039871047 ], [ -122.641574288143588, 44.399400056708359 ], [ -122.642613470557293, 44.400027242077769 ], [ -122.6433392119514, 44.399878249155655 ], [ -122.644378418035501, 44.400505421393994 ], [ -122.645104160670172, 44.400356418712384 ], [ -122.645313148330558, 44.400873863749155 ], [ -122.64707813691318, 44.401352008166569 ], [ -122.647859030082202, 44.402312384812099 ], [ -122.649882437371502, 44.402457261586143 ], [ -122.650558864445443, 44.403158904296035 ], [ -122.652010376179376, 44.402860826064206 ], [ -122.654501216093692, 44.403189829057688 ], [ -122.654710284258798, 44.403707262436001 ], [ -122.655073161760271, 44.403632732954783 ], [ -122.654814819538799, 44.403965979213055 ], [ -122.655232968642252, 44.405000846907377 ], [ -122.655595852496987, 44.404926315800672 ], [ -122.656223107727428, 44.40647861715032 ], [ -122.658560319562014, 44.407399515161956 ], [ -122.661463441536625, 44.406803163501756 ], [ -122.663333271857098, 44.407539812042558 ], [ -122.664059048141297, 44.407390703953745 ], [ -122.664686520096524, 44.408942973510783 ], [ -122.666556444517525, 44.409679580152876 ], [ -122.66744230397596, 44.410898570105701 ], [ -122.667805205986127, 44.410824004836755 ], [ -122.668328195313237, 44.412117557296668 ], [ -122.66926321604987, 44.412485840670399 ], [ -122.669577031650547, 44.413261971251316 ], [ -122.670407464832451, 44.413371537033271 ], [ -122.669890854441689, 44.41403810236099 ], [ -122.670100073630593, 44.414555523394597 ], [ -122.670462992305062, 44.414480950316609 ], [ -122.671404529643453, 44.416809344949442 ], [ -122.671767458956225, 44.416734767966453 ], [ -122.672548879451568, 44.417695030992014 ], [ -122.67218594585448, 44.417769610253082 ], [ -122.672241506058896, 44.418879033067874 ], [ -122.671466550727828, 44.419878902914604 ], [ -122.66970733102724, 44.421361206111257 ], [ -122.669916571432722, 44.421878635413044 ], [ -122.669295271672539, 44.422286495331583 ], [ -122.669560032204501, 44.423913361990415 ], [ -122.66697643485368, 44.427246235563757 ], [ -122.667339424964197, 44.42717166899515 ], [ -122.667653286561958, 44.427947828120679 ], [ -122.668016279687208, 44.427873259599053 ], [ -122.669370031199264, 44.429276433614739 ], [ -122.67170820846394, 44.430197145305684 ], [ -122.672803722527078, 44.431933589466652 ], [ -122.673634389863068, 44.432043139459381 ], [ -122.674052999876281, 44.433078009294334 ], [ -122.674988341113092, 44.433446268784003 ], [ -122.675511642329155, 44.434739854746518 ], [ -122.67473655379014, 44.435739777062182 ], [ -122.671573923802939, 44.436669755865339 ], [ -122.670798755039769, 44.43766965937025 ], [ -122.670700560831733, 44.439371154499995 ], [ -122.670337509034127, 44.439445732140697 ], [ -122.670651461877426, 44.44022190433359 ], [ -122.669513176208838, 44.441296385675379 ], [ -122.670762570670121, 44.442440858982387 ], [ -122.670036433498595, 44.442590014593357 ], [ -122.669624249466821, 44.443515346317106 ], [ -122.667550432352044, 44.44422151259927 ], [ -122.666356543878891, 44.444186489434578 ], [ -122.66620274426738, 44.444778516167538 ], [ -122.665371932738921, 44.444668916927284 ], [ -122.660393276477507, 44.445971458934821 ], [ -122.660602521754953, 44.446488929755219 ], [ -122.659254731399542, 44.447045865783835 ], [ -122.658583880085374, 44.448304457639559 ], [ -122.656872919487881, 44.448935917890147 ], [ -122.656977532855947, 44.449194657656669 ], [ -122.653241700475604, 44.449681288969771 ], [ -122.652466112064076, 44.450681113424622 ], [ -122.648834750961825, 44.45142636727622 ], [ -122.647536164076655, 44.451132427734734 ], [ -122.646083597844651, 44.45143048759244 ], [ -122.644895301847228, 44.453355548674814 ], [ -122.643805833885878, 44.453579074515893 ], [ -122.643288654840688, 44.454245593341483 ], [ -122.643497794962528, 44.454763100064831 ], [ -122.640911737531667, 44.458095685960316 ], [ -122.632816945305777, 44.459475684689927 ], [ -122.632145479388839, 44.46073417668665 ], [ -122.631055850612455, 44.460957601879684 ], [ -122.627797349653207, 44.465548473315927 ], [ -122.626085666184906, 44.466179561672448 ], [ -122.625414008647326, 44.467438037706685 ], [ -122.624065511820959, 44.467994642827385 ], [ -122.622513030701612, 44.46999402765222 ], [ -122.616959416101579, 44.470851911103942 ], [ -122.615088341882199, 44.470114513429429 ], [ -122.612336427420445, 44.470117937778348 ], [ -122.610828702069782, 44.469306057065907 ], [ -122.602318681604075, 44.471609441491672 ], [ -122.602423121473976, 44.471868236466797 ], [ -122.599257811012606, 44.472796571048519 ], [ -122.598376732749671, 44.473537331363751 ], [ -122.591836947482705, 44.474876131816139 ], [ -122.59194135231958, 44.475134936795158 ], [ -122.587322385708305, 44.476360464729481 ], [ -122.583851410797337, 44.480432789117842 ], [ -122.584268947085235, 44.481468046650292 ], [ -122.582869599239004, 44.482875046634945 ], [ -122.583337364378409, 44.483059516377878 ], [ -122.583754909007638, 44.484094781317921 ], [ -122.583391521655599, 44.4841691292836 ], [ -122.583704684685159, 44.484945579607569 ], [ -122.582927665105714, 44.48594507436885 ], [ -122.583136441590952, 44.486462710544217 ], [ -122.581995989238365, 44.487536549931676 ], [ -122.582309151839254, 44.488313009110833 ], [ -122.581791101823796, 44.488979338588933 ], [ -122.581949628582521, 44.490347787335004 ], [ -122.580031955237814, 44.49242111720497 ], [ -122.5802407295526, 44.492938765069404 ], [ -122.579618237160417, 44.493346268363972 ], [ -122.579827011164724, 44.493863917899063 ], [ -122.578013557219734, 44.496196060349121 ], [ -122.57728663914466, 44.496344727871879 ], [ -122.576145927435277, 44.497418539929228 ], [ -122.576045266421602, 44.499120180734813 ], [ -122.574904488229777, 44.500193988555836 ], [ -122.574803791870195, 44.501895638530023 ], [ -122.574440299093595, 44.501969964944713 ], [ -122.57475344179133, 44.502746465812827 ], [ -122.573871705325928, 44.503487111624253 ], [ -122.573925723729118, 44.504596776811873 ], [ -122.572680440895709, 44.505411742258687 ], [ -122.573411108412543, 44.507223601472781 ], [ -122.572892825989811, 44.507889923354185 ], [ -122.571075182621016, 44.50826152439177 ], [ -122.571283937286864, 44.508779203815301 ], [ -122.570402084231006, 44.509519836275885 ], [ -122.570610837629204, 44.510037518148465 ], [ -122.569469789126785, 44.511111304622027 ], [ -122.570096052235755, 44.512664360658327 ], [ -122.568332199536215, 44.514145617572467 ], [ -122.568854085108512, 44.515439843653205 ], [ -122.568335694867315, 44.516106159578662 ], [ -122.568544452776152, 44.516623851997252 ], [ -122.568180873995217, 44.516698163709762 ], [ -122.568389632546072, 44.517215857028376 ], [ -122.568026050413735, 44.517290168413645 ], [ -122.568339190401034, 44.518066709835054 ], [ -122.568702776362471, 44.517992397472945 ], [ -122.570056270404251, 44.519396848475644 ], [ -122.569278653493768, 44.520396337461172 ], [ -122.568551456198918, 44.520544965111306 ], [ -122.568033023859641, 44.521211287165819 ], [ -122.568241795205338, 44.521728985733539 ], [ -122.567618965626153, 44.522136458189536 ], [ -122.56782773665833, 44.522654158434001 ], [ -122.567100511906759, 44.522802778901116 ], [ -122.565649470765067, 44.525060587875608 ], [ -122.564922215359815, 44.525209197245104 ], [ -122.564767343783032, 44.525801208994565 ], [ -122.563676444627589, 44.526024114727555 ], [ -122.56378082065747, 44.526282970064585 ], [ -122.561703362287091, 44.526987614415454 ], [ -122.559110514308415, 44.530319127251062 ], [ -122.556928525814996, 44.530764841789797 ], [ -122.55703288333747, 44.531023705042294 ], [ -122.553861105297671, 44.52999047083307 ], [ -122.550743082592078, 44.530066898783005 ], [ -122.54955069200507, 44.531991432743851 ], [ -122.545084959760089, 44.534584264197093 ], [ -122.545034211508906, 44.535435139953847 ], [ -122.544151723523015, 44.536175641369745 ], [ -122.54405019987658, 44.537877399549494 ], [ -122.543063353079972, 44.538359020036346 ], [ -122.542908260072124, 44.538951023172132 ], [ -122.542180805369213, 44.539099513091493 ], [ -122.5421300171962, 44.539950396023926 ], [ -122.54077938962763, 44.540506245348737 ], [ -122.540883700371126, 44.54076512665393 ], [ -122.53761002125583, 44.541433253430213 ], [ -122.537091123996703, 44.542099485240691 ], [ -122.536363622661014, 44.542247944474845 ], [ -122.535066314025798, 44.54391351283325 ], [ -122.535274903085167, 44.544431288237867 ], [ -122.53475595982222, 44.545097515283118 ], [ -122.529767398664617, 44.546395458472468 ], [ -122.529248386078081, 44.547061666937481 ], [ -122.527533720598626, 44.547691600428195 ], [ -122.526599890501899, 44.549282899884879 ], [ -122.524831894167249, 44.548803009339913 ], [ -122.521298110191893, 44.549803844760838 ], [ -122.520361997813168, 44.549434415874572 ], [ -122.518906760718338, 44.549731152828038 ], [ -122.519011001958958, 44.549990056368543 ], [ -122.516568530455984, 44.550768216496088 ], [ -122.51667276434361, 44.551027122441823 ], [ -122.516204711043386, 44.550842392082338 ], [ -122.514126002746181, 44.551546333258457 ], [ -122.512723745538082, 44.552952808788021 ], [ -122.512932191406193, 44.553470629189405 ], [ -122.512049116581906, 44.554210947197582 ], [ -122.511997937922445, 44.555061846389165 ], [ -122.509555202542714, 44.5558398867732 ], [ -122.509867849496402, 44.556616629737839 ], [ -122.509088915048807, 44.557615848072047 ], [ -122.509765432353475, 44.558318436850037 ], [ -122.508622603062307, 44.559391814566759 ], [ -122.507530977093083, 44.559614277591677 ], [ -122.506856185059803, 44.560872407897143 ], [ -122.502593716162934, 44.562021075291831 ], [ -122.502021430383493, 44.561577367843682 ], [ -122.500825557203854, 44.561540853702319 ], [ -122.494275331630988, 44.562875123436378 ], [ -122.493964176131016, 44.564059079506222 ], [ -122.493236343907384, 44.564207310791467 ], [ -122.493080755358051, 44.56479928903547 ], [ -122.490273523040841, 44.565651107093473 ], [ -122.489598349653235, 44.566909166634375 ], [ -122.487778662486747, 44.567279680310541 ], [ -122.487259075900795, 44.567945755604349 ], [ -122.483983551355124, 44.568612606719235 ], [ -122.485390009321648, 44.573088713861061 ], [ -122.485753982238094, 44.573014618660139 ], [ -122.486378895241202, 44.574568274367905 ], [ -122.486742875039099, 44.574494176234545 ], [ -122.487471985470307, 44.576306775209062 ], [ -122.487107996712908, 44.576380875620607 ], [ -122.487316318600008, 44.576898762272066 ], [ -122.484508511237507, 44.577750481522607 ], [ -122.48357325320481, 44.579341583525562 ], [ -122.476812707821551, 44.580157151621151 ], [ -122.474213637366873, 44.583487397269842 ], [ -122.474421882367082, 44.584005312022228 ], [ -122.4736937925463, 44.584153443224743 ], [ -122.473537986947591, 44.584745424319507 ], [ -122.47254995376656, 44.585226572340218 ], [ -122.473851112013591, 44.587483146153026 ], [ -122.473487048146808, 44.587557211249276 ], [ -122.474215944007398, 44.589369934027488 ], [ -122.473591924561461, 44.589777027143477 ], [ -122.474216712976869, 44.591330796347535 ], [ -122.473436851466104, 44.59232988195275 ], [ -122.472708669816583, 44.592478010470224 ], [ -122.472032901515306, 44.593736054523987 ], [ -122.471304701640136, 44.593884175843655 ], [ -122.471617084950495, 44.594661072450542 ], [ -122.469537198079564, 44.597325274311515 ], [ -122.466467759364875, 44.596548783855305 ], [ -122.465375394607591, 44.59677092023032 ], [ -122.463034271210788, 44.595846262154531 ], [ -122.459497113165654, 44.596845564004276 ], [ -122.458300639053874, 44.596808666283039 ], [ -122.458404720705786, 44.597067643535922 ], [ -122.45621991425088, 44.59751177612943 ], [ -122.456323989012816, 44.597770755399949 ], [ -122.455491639051999, 44.597659812484217 ], [ -122.453775002890723, 44.598288867762747 ], [ -122.450445610661248, 44.597845001138744 ], [ -122.448885011513312, 44.599842920769674 ], [ -122.449301217278958, 44.600878866358322 ], [ -122.447896587608057, 44.602284811475748 ], [ -122.448104688839521, 44.602802788438211 ], [ -122.44737633885255, 44.602950782269872 ], [ -122.445555387463543, 44.605281671721016 ], [ -122.445763479978993, 44.605799655717576 ], [ -122.442069412194044, 44.607390495615547 ], [ -122.442745730797398, 44.608093499772792 ], [ -122.441861173433068, 44.608833441303858 ], [ -122.442381367254598, 44.610128426213215 ], [ -122.441600818170016, 44.611127366908583 ], [ -122.441496599014215, 44.612829322980382 ], [ -122.440872165846741, 44.613236284081871 ], [ -122.441392374608625, 44.614531285304146 ], [ -122.441756618963922, 44.61445730331473 ], [ -122.442276854075786, 44.615752304552501 ], [ -122.44264110404437, 44.615678319954945 ], [ -122.443473531957707, 44.617750322750304 ], [ -122.443837791386457, 44.617676334567911 ], [ -122.444514138642234, 44.620340332165895 ], [ -122.444149865592721, 44.62041432262302 ], [ -122.444357993938041, 44.620932325947322 ], [ -122.443577349268509, 44.621931301798121 ], [ -122.442120213871434, 44.622227248560328 ], [ -122.441443578487096, 44.623485219586485 ], [ -122.43780060891919, 44.624225001429409 ], [ -122.437644396415038, 44.624816992403737 ], [ -122.436187172800231, 44.625112876356781 ], [ -122.435250482758448, 44.624742790356379 ], [ -122.429421476201696, 44.625926127412363 ], [ -122.427287846404809, 44.625518815593928 ], [ -122.420990316498205, 44.626516712951819 ], [ -122.420833951405868, 44.627108687244423 ], [ -122.419844923474642, 44.627589489891797 ], [ -122.420364839688119, 44.62888461363459 ], [ -122.420000494134584, 44.628958539657361 ], [ -122.419948099381159, 44.629809541692254 ], [ -122.418126336420357, 44.630179157065541 ], [ -122.418230315465138, 44.630438184489606 ], [ -122.41375402399153, 44.631066133886669 ], [ -122.413805513675356, 44.632176169259111 ], [ -122.41328469868273, 44.632842050841163 ], [ -122.4125559486003, 44.632989864592759 ], [ -122.412399494619578, 44.633581837422 ], [ -122.409848820671172, 44.634099152331572 ], [ -122.409692340400127, 44.63469112343369 ], [ -122.407870389701088, 44.635060602993974 ], [ -122.407713889866841, 44.635652573029745 ], [ -122.406985097278749, 44.635800357323966 ], [ -122.405943266690912, 44.637132076879141 ], [ -122.401728238243422, 44.635465642991008 ], [ -122.401103356317194, 44.635872438424627 ], [ -122.400999434579518, 44.635613394593207 ], [ -122.397355368443101, 44.636352093724874 ], [ -122.395584500083515, 44.637831462642289 ], [ -122.395531790866073, 44.638682471653865 ], [ -122.389961438337849, 44.639531212811285 ], [ -122.388452608886865, 44.638716522702438 ], [ -122.388140978474084, 44.637939357057761 ], [ -122.386475515811753, 44.637716597094489 ], [ -122.385435059161765, 44.637087095775463 ], [ -122.384706202380883, 44.637234759076598 ], [ -122.384498481265297, 44.636716644445073 ], [ -122.381220539517884, 44.635420015492329 ], [ -122.378565721747435, 44.635677676258254 ], [ -122.378669557559192, 44.635936737558183 ], [ -122.376951233885194, 44.636564858295849 ], [ -122.373934057697909, 44.634935179484891 ], [ -122.371904286394695, 44.634786039874442 ], [ -122.369094901842004, 44.633674388358187 ], [ -122.367272756705958, 44.634043313766234 ], [ -122.36721969380929, 44.63489430449804 ], [ -122.36591643687585, 44.636558562450162 ], [ -122.365187543149318, 44.636706119162689 ], [ -122.365030665496931, 44.637298041310359 ], [ -122.363572855032984, 44.637593141629438 ], [ -122.363676636292126, 44.637852215661262 ], [ -122.362740167130582, 44.637481611284635 ], [ -122.357587154341317, 44.637404234424672 ], [ -122.3555041319742, 44.638105837882264 ], [ -122.35394251730267, 44.638141753021792 ], [ -122.354150008435354, 44.638659916726176 ], [ -122.353421066340076, 44.638807409964862 ], [ -122.353264080707106, 44.639399321032798 ], [ -122.349097779873745, 44.640802368001268 ], [ -122.34857626063301, 44.641468009938649 ], [ -122.348783720819171, 44.641986185758711 ], [ -122.347479872859338, 44.643650289882196 ], [ -122.346386355900563, 44.64387147614012 ], [ -122.345814403640048, 44.643427020591623 ], [ -122.341701092527657, 44.643978848685201 ], [ -122.338734700475413, 44.643458439313704 ], [ -122.337430576539333, 44.645122450813638 ], [ -122.337584517079122, 44.646491648707503 ], [ -122.336437461058253, 44.647563757579 ], [ -122.336644846841722, 44.648081959179343 ], [ -122.334664964869134, 44.649042355693858 ], [ -122.333621504400185, 44.650373550022124 ], [ -122.332266955435827, 44.65092742214869 ], [ -122.331066207151039, 44.652850505790582 ], [ -122.327992364390624, 44.654031870535277 ], [ -122.327938790847398, 44.654882883016683 ], [ -122.327574204043955, 44.654956561296309 ], [ -122.327781544521955, 44.655474785079612 ], [ -122.327156032247032, 44.65588125263411 ], [ -122.327309789008225, 44.65725049479245 ], [ -122.326162387154511, 44.658322540915684 ], [ -122.326369727132985, 44.658840770733747 ], [ -122.324911282834648, 44.659135463418259 ], [ -122.324128430190058, 44.660133824673764 ], [ -122.321054134574368, 44.661315048892448 ], [ -122.320532180525774, 44.661980611473915 ], [ -122.316417532908503, 44.662531684231936 ], [ -122.315845619877777, 44.662087082224808 ], [ -122.314751700831465, 44.662308018707655 ], [ -122.314958965481836, 44.662826270771269 ], [ -122.313968661221026, 44.663306327469293 ], [ -122.313811272836972, 44.663898224094694 ], [ -122.311101285228148, 44.665005586915939 ], [ -122.310840246182835, 44.665338351624769 ], [ -122.311151113275216, 44.66611574411553 ], [ -122.31062902452031, 44.666781275094309 ], [ -122.308440993056109, 44.667223058451782 ], [ -122.308283547092856, 44.667814953690048 ], [ -122.302448602679348, 44.668992864407379 ], [ -122.30104375936817, 44.668436274088172 ], [ -122.299850399138123, 44.666436760093809 ], [ -122.298913884084072, 44.666065685345487 ], [ -122.298134910671479, 44.665102724013252 ], [ -122.294857250752756, 44.663803896815615 ], [ -122.294650137368706, 44.663285612490441 ], [ -122.291057463209228, 44.663170442268772 ], [ -122.288977564990219, 44.661909877192194 ], [ -122.287883560961177, 44.662130593797514 ], [ -122.286010792095311, 44.661388277512323 ], [ -122.28471448968574, 44.659129513073417 ], [ -122.280708070181021, 44.657977477039353 ], [ -122.279618983822189, 44.656236977460132 ], [ -122.279150851311741, 44.656051374212247 ], [ -122.277431091241681, 44.656678243186001 ], [ -122.277224133435908, 44.656159940028587 ], [ -122.275090469190616, 44.655750172118154 ], [ -122.274883532190728, 44.65523186639868 ], [ -122.274518885683165, 44.655305400066162 ], [ -122.274780064881838, 44.654972713640888 ], [ -122.27457313264604, 44.654454408329137 ], [ -122.274208489997989, 44.654527941024192 ], [ -122.273484261188287, 44.65271387230397 ], [ -122.274632403692578, 44.651642291589603 ], [ -122.274115107398586, 44.650346537755027 ], [ -122.274479727574757, 44.650273005991941 ], [ -122.274011650521501, 44.650087387191604 ], [ -122.272198735918991, 44.64653281234262 ], [ -122.268035529337311, 44.645972252636717 ], [ -122.267828676425168, 44.645453947160789 ], [ -122.264606916334444, 44.643303466750815 ], [ -122.26387772893851, 44.643450473194051 ], [ -122.262370333927208, 44.642634353809342 ], [ -122.260705171740497, 44.642410024911733 ], [ -122.256019875548603, 44.642514394527034 ], [ -122.255236197580601, 44.64351231568601 ], [ -122.255442947923612, 44.644030638425797 ], [ -122.254713732738082, 44.644177595123217 ], [ -122.253668772178585, 44.645508150792971 ], [ -122.252210299014266, 44.645802041859803 ], [ -122.251791152341582, 44.646726478586999 ], [ -122.247780225796589, 44.647534587034812 ], [ -122.246692156303524, 44.645793859425176 ], [ -122.244510286455949, 44.644273482716613 ], [ -122.243319026596964, 44.642273571143193 ], [ -122.242486480218176, 44.642161290724665 ], [ -122.241708586929519, 44.641198051625594 ], [ -122.240408135452299, 44.640900028773586 ], [ -122.239320362785222, 44.63915926657436 ], [ -122.237552063323022, 44.638675480069189 ], [ -122.236774280532046, 44.637712219640434 ], [ -122.235473917927791, 44.637414151076186 ], [ -122.234696179290566, 44.636450881226416 ], [ -122.232356845338259, 44.635522103571574 ], [ -122.232047025763038, 44.634744580574072 ], [ -122.231682443248417, 44.634817994111614 ], [ -122.23106283321053, 44.633262948003697 ], [ -122.232108049546667, 44.631932604842831 ], [ -122.231694984129632, 44.630895915046871 ], [ -122.230862597279796, 44.630783565052496 ], [ -122.23044955799854, 44.629746874021556 ], [ -122.230814114487671, 44.62967346466332 ], [ -122.230401082736876, 44.628636776006758 ], [ -122.230765633288769, 44.628563366959462 ], [ -122.230455863935049, 44.627785852146161 ], [ -122.230820409836085, 44.627712443086466 ], [ -122.230352609068149, 44.627526680676787 ], [ -122.229423350912498, 44.625194140489427 ], [ -122.230049166681383, 44.624788157705382 ], [ -122.229326442234353, 44.622973968556927 ], [ -122.229690963400998, 44.622900563351465 ], [ -122.229277990283478, 44.621863886613738 ], [ -122.229642505514036, 44.621790481718897 ], [ -122.229332780133987, 44.621012975842611 ], [ -122.229697290714611, 44.620939570935143 ], [ -122.229077853622172, 44.619384562939715 ], [ -122.229861638037676, 44.618386847960942 ], [ -122.229655162378734, 44.617868514843643 ], [ -122.23028090890945, 44.61746253748737 ], [ -122.229867959975692, 44.616425874913951 ], [ -122.226071446557526, 44.615790640138059 ], [ -122.221800758454151, 44.616930477608101 ], [ -122.221078339494028, 44.615116275078584 ], [ -122.220246164673071, 44.615003862863155 ], [ -122.21946890102457, 44.614040551754705 ], [ -122.219104416549655, 44.614113927659766 ], [ -122.21724042219968, 44.611409775867457 ], [ -122.215308134234363, 44.613478390357436 ], [ -122.2118214062194, 44.613620279363687 ], [ -122.208183416331238, 44.612392830303101 ], [ -122.206835591597994, 44.61098443658895 ], [ -122.202723124864775, 44.611531949409979 ], [ -122.199917494406975, 44.610416801114596 ], [ -122.198459545057503, 44.610710083230657 ], [ -122.197572281526391, 44.611448409605494 ], [ -122.19736607474087, 44.610930034503269 ], [ -122.196066401400984, 44.610631600165334 ], [ -122.195392625845045, 44.609927346081463 ], [ -122.193934667419953, 44.610220578520419 ], [ -122.193721122279257, 44.611663141559106 ], [ -122.19132795037909, 44.61158457347927 ], [ -122.191431031215842, 44.611843766025316 ], [ -122.189608508038248, 44.61221025162903 ], [ -122.189711583234356, 44.612469445855808 ], [ -122.185440492072757, 44.613608113135349 ], [ -122.181850647451128, 44.613490022026284 ], [ -122.177753493645469, 44.610114874137111 ], [ -122.17681843019156, 44.609742990713059 ], [ -122.174892869294382, 44.609850071122516 ], [ -122.173537833628956, 44.610402285390293 ], [ -122.172602789398084, 44.610030372237041 ], [ -122.17239677847904, 44.609511960232595 ], [ -122.171097242724557, 44.609213284006572 ], [ -122.170423741538443, 44.608508906245561 ], [ -122.171049757103447, 44.608103214579366 ], [ -122.171105268919021, 44.607252353444103 ], [ -122.167832858527973, 44.605950579500529 ], [ -122.167103864033734, 44.606097046075952 ], [ -122.165757021052727, 44.604688257583177 ], [ -122.165392528759412, 44.604761485498308 ], [ -122.165186589209, 44.604243068346314 ], [ -122.165551078929511, 44.604169841075745 ], [ -122.164465825662589, 44.602428610434615 ], [ -122.163530941673059, 44.602056640287003 ], [ -122.162548727267648, 44.600574609702015 ], [ -122.160679041971719, 44.599830639353534 ], [ -122.16037021059762, 44.599053011197846 ], [ -122.158706461560087, 44.59882743357992 ], [ -122.157677142209906, 44.596235332553796 ], [ -122.157209760441305, 44.596049327025405 ], [ -122.151481291995466, 44.597479675901205 ], [ -122.149088671640115, 44.597400353903573 ], [ -122.146078745947065, 44.59576567726414 ], [ -122.145349814180875, 44.59591202191347 ], [ -122.144573837696882, 44.594948315703334 ], [ -122.140723450841151, 44.595161512733085 ], [ -122.139788798052905, 44.594789382390374 ], [ -122.138807209841602, 44.593307200822956 ], [ -122.137610980256795, 44.593267432068764 ], [ -122.132611280810011, 44.594550661225007 ], [ -122.131480206307828, 44.591699156033883 ], [ -122.130648469147616, 44.591586191761166 ], [ -122.129667127877326, 44.590103953393928 ], [ -122.128732605894044, 44.589731749814817 ], [ -122.128115777562968, 44.588176380751015 ], [ -122.128844663211623, 44.58803013258531 ], [ -122.129526756925927, 44.586773848035193 ], [ -122.130255624398885, 44.586627592618242 ], [ -122.130517247853675, 44.586295238335609 ], [ -122.130208825287781, 44.585517563436511 ], [ -122.130834869222028, 44.585112080509361 ], [ -122.130423643036679, 44.584075184423902 ], [ -122.130059223636181, 44.584148312675929 ], [ -122.129750816134447, 44.583370640350559 ], [ -122.128816386771106, 44.582998442809199 ], [ -122.128610794010243, 44.582479993908741 ], [ -122.12923681939958, 44.58207452114803 ], [ -122.129348851333987, 44.580372931833395 ], [ -122.129974852784855, 44.579967457471021 ], [ -122.129460877628858, 44.578671348716355 ], [ -122.128629304120196, 44.578558375074785 ], [ -122.128218151625759, 44.577521486969744 ], [ -122.127181029540012, 44.576890061070806 ], [ -122.124163163119391, 44.577215754815583 ], [ -122.121668531208215, 44.57687672058568 ], [ -122.121463011877054, 44.576358267582492 ], [ -122.121098624381887, 44.57643137016634 ], [ -122.119660095322104, 44.572802202129779 ], [ -122.121070929242293, 44.571399805565434 ], [ -122.120557189899699, 44.570103686665604 ], [ -122.120192835133153, 44.570176785786487 ], [ -122.11988460483937, 44.569399114282945 ], [ -122.118950422877745, 44.569026859028902 ], [ -122.118744948248747, 44.568508410674696 ], [ -122.117343707035033, 44.567950014579068 ], [ -122.116615012977533, 44.568096193624953 ], [ -122.115269978970431, 44.566687012984687 ], [ -122.114905636899735, 44.566760097142087 ], [ -122.113925001026516, 44.565277823104338 ], [ -122.111169226266639, 44.565270907967268 ], [ -122.109562723597008, 44.564193978690106 ], [ -122.109254642831715, 44.563416292746133 ], [ -122.108058959468863, 44.563376262014764 ], [ -122.108002690418019, 44.564227015576016 ], [ -122.107274016292138, 44.56437314248268 ], [ -122.106489049970307, 44.565370020490306 ], [ -122.104667319778656, 44.565735310649721 ], [ -122.103733272224787, 44.565362951931846 ], [ -122.097800966081877, 44.566272434711841 ], [ -122.096856774788975, 44.567860776615198 ], [ -122.095501943772632, 44.568412149074781 ], [ -122.095342864580658, 44.569003664209113 ], [ -122.092530471512745, 44.56984712301562 ], [ -122.091755547080112, 44.568883164831 ], [ -122.090457148844521, 44.568583731036867 ], [ -122.090251894050596, 44.568065239373063 ], [ -122.089056139751634, 44.568025038121469 ], [ -122.088850897397137, 44.567506544932812 ], [ -122.088019529128218, 44.567393321254059 ], [ -122.087814296640303, 44.566874827182581 ], [ -122.086880326170373, 44.566502349696329 ], [ -122.085422834469085, 44.566794370542816 ], [ -122.08402190405171, 44.566235626991819 ], [ -122.083247142311379, 44.56527162699593 ], [ -122.079921833402508, 44.564818564082096 ], [ -122.078418413915898, 44.564000512622989 ], [ -122.077689678332931, 44.564146478051626 ], [ -122.076288866681324, 44.563587656600326 ], [ -122.074102650052779, 44.564025505847972 ], [ -122.071301114208424, 44.562907773984243 ], [ -122.070424030654507, 44.561684449717156 ], [ -122.069490227681953, 44.561311854827132 ], [ -122.068464899377631, 44.558719278991958 ], [ -122.068829248273445, 44.558646322791994 ], [ -122.068419133820129, 44.557609295609517 ], [ -122.068783476784745, 44.557536339709621 ], [ -122.068270844975359, 44.556240058835577 ], [ -122.066710975265451, 44.556272612871325 ], [ -122.062406871844928, 44.554336530168442 ], [ -122.060687693959807, 44.554960471417928 ], [ -122.059287213102905, 44.554401482775077 ], [ -122.058467340901217, 44.552327389927576 ], [ -122.056964458651166, 44.551509119115785 ], [ -122.054812680390299, 44.546064631080363 ], [ -122.05517697583727, 44.545991714119815 ], [ -122.054869603365177, 44.545213933470727 ], [ -122.055393267988791, 44.544549579705397 ], [ -122.054880991240353, 44.54325328382032 ], [ -122.055245271471321, 44.543180367115838 ], [ -122.054937910990006, 44.542402591342665 ], [ -122.055302186577862, 44.542329674616731 ], [ -122.054585030610241, 44.540514869044593 ], [ -122.049804055322753, 44.540352732355473 ], [ -122.047208737354822, 44.539753073825487 ], [ -122.041482714676533, 44.54117853189603 ], [ -122.040913636764969, 44.540732873976019 ], [ -122.039718395145186, 44.54069223344937 ], [ -122.036804104652944, 44.541275197572091 ], [ -122.027937828516102, 44.537733218220801 ], [ -122.027892742177428, 44.536623271353371 ], [ -122.031661914789979, 44.532232869297601 ], [ -122.031252530253838, 44.531195787187251 ], [ -122.031616771012395, 44.531122936838642 ], [ -122.030184005981894, 44.527493162274837 ], [ -122.031231535400423, 44.526164698021766 ], [ -122.032688385465704, 44.525873294117545 ], [ -122.034157208145132, 44.523621309568711 ], [ -122.035249796340949, 44.523402735364193 ], [ -122.035671136083181, 44.522479227579218 ], [ -122.036763700943169, 44.522260641520774 ], [ -122.036923182322511, 44.521669255933588 ], [ -122.047643562604961, 44.518964396790018 ], [ -122.047700552917021, 44.518113751872676 ], [ -122.048064705531772, 44.518040858701866 ], [ -122.047757541795988, 44.517263108484762 ], [ -122.050215684033319, 44.514533059740423 ], [ -122.049703733729501, 44.513236827715673 ], [ -122.050329591086353, 44.512831785420609 ], [ -122.050124812887077, 44.512313294480855 ], [ -122.054596590649481, 44.511697684755035 ], [ -122.057498147605003, 44.51307488374345 ], [ -122.05780540429194, 44.513852604551637 ], [ -122.06003570267201, 44.514524949982466 ], [ -122.060240563514057, 44.515043428174408 ], [ -122.062368484968957, 44.515456496842667 ], [ -122.069184214337014, 44.513811374712233 ], [ -122.071676257865704, 44.514151342738984 ], [ -122.072666094720404, 44.513673237038006 ], [ -122.074133321904824, 44.511420871852565 ], [ -122.074861497328726, 44.511274942413806 ], [ -122.075646301997836, 44.510278366538806 ], [ -122.075497970644264, 44.50890927734671 ], [ -122.075862043762939, 44.508836309788727 ], [ -122.07555460232544, 44.508058638923991 ], [ -122.075918670806232, 44.507985671344564 ], [ -122.075098851247006, 44.505911887806185 ], [ -122.075826965306234, 44.505765954823303 ], [ -122.075622013131323, 44.505247510871683 ], [ -122.076350118913496, 44.505101575242456 ], [ -122.077657957988706, 44.503440621455077 ], [ -122.077452998828704, 44.502922182896974 ], [ -122.077976114486887, 44.502257800988545 ], [ -122.077668678642183, 44.501480145951241 ], [ -122.078191781035642, 44.500815765248262 ], [ -122.077940943525476, 44.49918748983233 ], [ -122.078304961708412, 44.499114517129925 ], [ -122.07774671271585, 44.496708600934596 ], [ -122.078633778382894, 44.495971253598768 ], [ -122.079725776436675, 44.495752328383702 ], [ -122.07978234396991, 44.494901712124388 ], [ -122.082022829362117, 44.493613220199734 ], [ -122.083330307222042, 44.49195225164879 ], [ -122.085616628973185, 44.491773526018882 ], [ -122.08551413618531, 44.491514319287269 ], [ -122.086970006459396, 44.491222344752394 ], [ -122.086867509322943, 44.490963139365519 ], [ -122.088687323083761, 44.490598150716657 ], [ -122.090097085187935, 44.489196329434364 ], [ -122.089892073884755, 44.488677925772556 ], [ -122.090256022656092, 44.488604922112209 ], [ -122.087591128113985, 44.481865706361184 ], [ -122.087955042738685, 44.48179271003773 ], [ -122.087237652813386, 44.479978315494812 ], [ -122.089067556012751, 44.477652953719975 ], [ -122.090682018799299, 44.476769556152547 ], [ -122.090477040651521, 44.476251167128005 ], [ -122.092306731824308, 44.47392577939042 ], [ -122.093762194539238, 44.473633741704894 ], [ -122.092260632732291, 44.472816006198912 ], [ -122.091133291121423, 44.469964907084709 ], [ -122.091497137953894, 44.469891902950735 ], [ -122.090984734926224, 44.468595952974908 ], [ -122.091348574561508, 44.46852294945873 ], [ -122.090426287004618, 44.466190246421107 ], [ -122.090062458911248, 44.466263247059821 ], [ -122.089345177060423, 44.464448923826879 ], [ -122.089708996177208, 44.464375925425976 ], [ -122.089504063001968, 44.463857548575326 ], [ -122.088105228654072, 44.463298971244726 ], [ -122.08790031101789, 44.462780593116584 ], [ -122.086603964377957, 44.462481190045622 ], [ -122.08920704930209, 44.461119676090647 ], [ -122.089888599875493, 44.459863936643885 ], [ -122.091605094249829, 44.459239746738106 ], [ -122.093434286996356, 44.456914427634082 ], [ -122.093229347884517, 44.456396064720096 ], [ -122.094797121416278, 44.454402927828639 ], [ -122.094648525292854, 44.4530340230463 ], [ -122.095012277360311, 44.452961011950727 ], [ -122.094704869697324, 44.452183477832364 ], [ -122.095227424141186, 44.451519100134405 ], [ -122.094817554260018, 44.450482391934045 ], [ -122.095181292438326, 44.450409380772477 ], [ -122.094156659823611, 44.447817617921267 ], [ -122.093121841515824, 44.44718610334084 ], [ -122.09281448177363, 44.446408574380627 ], [ -122.093178200229687, 44.446335569311977 ], [ -122.092870843700766, 44.44555804188213 ], [ -122.09323455752785, 44.445485036791254 ], [ -122.092619857954134, 44.443929985563329 ], [ -122.089822984155703, 44.442812929456942 ], [ -122.086969770509796, 44.442546340409777 ], [ -122.08370693545308, 44.441242968417079 ], [ -122.080490109079633, 44.441049220034657 ], [ -122.079819222320126, 44.440344640760799 ], [ -122.077432237113854, 44.440264062848591 ], [ -122.075567912289273, 44.439519158445222 ], [ -122.07536316256359, 44.439000787191553 ], [ -122.076931059171059, 44.437007933753527 ], [ -122.076680488270881, 44.435379876905003 ], [ -122.077044164885791, 44.435306917540565 ], [ -122.076998342144861, 44.434197229983013 ], [ -122.079191015491404, 44.431799269823337 ], [ -122.079145159950727, 44.430689591225409 ], [ -122.0798724567194, 44.430543659518143 ], [ -122.079826590864627, 44.429433984096192 ], [ -122.080451493813158, 44.42902887283082 ], [ -122.080144361905411, 44.428251344525279 ], [ -122.082495588000853, 44.425262044152838 ], [ -122.085824536311449, 44.423754755540735 ], [ -122.085517366644041, 44.422977248262626 ], [ -122.085880967152519, 44.422904266708464 ], [ -122.084959488930409, 44.420571751145573 ], [ -122.085584279429341, 44.420166623396668 ], [ -122.085379511552787, 44.419648288699086 ], [ -122.0861066763471, 44.419502326386421 ], [ -122.086629063019316, 44.418838028258911 ], [ -122.08881051383068, 44.41840010985895 ], [ -122.090730769150781, 44.418294313306923 ], [ -122.091662717731211, 44.418666645946757 ], [ -122.092753427631365, 44.418447650055612 ], [ -122.092651018472182, 44.418188489120112 ], [ -122.098206871344857, 44.41735253826829 ], [ -122.102252175044484, 44.417658953671072 ], [ -122.102149730739271, 44.417399800463812 ], [ -122.103501487987685, 44.416848538500801 ], [ -122.10532912787248, 44.414523264655422 ], [ -122.106680801852306, 44.41397197379424 ], [ -122.106373437191735, 44.413194530604372 ], [ -122.107939824363896, 44.411201421154715 ], [ -122.107530003879916, 44.41016484027196 ], [ -122.108881572995926, 44.409613532151162 ], [ -122.109403660100753, 44.408949158631536 ], [ -122.110494156196538, 44.408730022084328 ], [ -122.110391693867015, 44.408470880079868 ], [ -122.111482179068702, 44.408251735670355 ], [ -122.111379713683405, 44.407992594685879 ], [ -122.113560655243802, 44.407554281322859 ], [ -122.114343689434321, 44.406557697451426 ], [ -122.115434131059303, 44.406338521594058 ], [ -122.11600257015867, 44.406783734372652 ], [ -122.118024942124293, 44.406936684001224 ], [ -122.118695895319803, 44.407641021397069 ], [ -122.120354817087048, 44.407867004670024 ], [ -122.122535696528786, 44.407428544583432 ], [ -122.123104191438472, 44.407873728096597 ], [ -122.123831148529703, 44.40772756365822 ], [ -122.124502169917747, 44.408431872998378 ], [ -122.126524610259082, 44.408584694202361 ], [ -122.126729659459187, 44.409102953589027 ], [ -122.127559150253418, 44.409215898149569 ], [ -122.128230225137784, 44.409920190926499 ], [ -122.130150178380049, 44.409813828503324 ], [ -122.131184770921479, 44.410445005943672 ], [ -122.133524037295714, 44.409415006737923 ], [ -122.13342148584448, 44.409155882069705 ], [ -122.136226700456092, 44.40831185211588 ], [ -122.137009409975519, 44.407315133541431 ], [ -122.138099790435263, 44.407095771926166 ], [ -122.138779891425145, 44.405839926161583 ], [ -122.146728690985753, 44.403121377681344 ], [ -122.147669418226045, 44.401533241751586 ], [ -122.148657073668375, 44.401054687071579 ], [ -122.147361639729809, 44.400755913459498 ], [ -122.147053868295302, 44.399978585725044 ], [ -122.145395050676328, 44.399752938467749 ], [ -122.144313588428986, 44.398012305889019 ], [ -122.14348420686963, 44.397899468241327 ], [ -122.142561086110547, 44.395567473828223 ], [ -122.141731737393499, 44.395454625854121 ], [ -122.14142405461935, 44.394677293765923 ], [ -122.140492162676864, 44.394305327777964 ], [ -122.137667696118001, 44.388159797146301 ], [ -122.135748368151354, 44.388266263008838 ], [ -122.134714071693978, 44.387635150359962 ], [ -122.133987353607353, 44.38778136798485 ], [ -122.132589722999484, 44.387223346736128 ], [ -122.130409558830891, 44.387661952725324 ], [ -122.127465274359054, 44.385177149001819 ], [ -122.125443530416277, 44.385024349576391 ], [ -122.124772731003731, 44.384320079549227 ], [ -122.121977787323075, 44.38320383786543 ], [ -122.120887739085774, 44.383423056620451 ], [ -122.120319463828793, 44.382977886479047 ], [ -122.119126956734704, 44.382937970150785 ], [ -122.118670667184944, 44.380791936540525 ], [ -122.122304016734461, 44.380061237546599 ], [ -122.122462417323604, 44.379469928256363 ], [ -122.124074106306495, 44.378586309752713 ], [ -122.128247413454773, 44.373271159982558 ], [ -122.12763256562296, 44.37171650627014 ], [ -122.127269284668373, 44.371789593832084 ], [ -122.126859406895434, 44.370753157974548 ], [ -122.126496130270226, 44.370826243281542 ], [ -122.125834767299423, 44.368162072620343 ], [ -122.124903325421812, 44.367790018266327 ], [ -122.124754311292236, 44.366421396402444 ], [ -122.125378364856928, 44.366016128199036 ], [ -122.125490136612285, 44.364315324569986 ], [ -122.126896511932571, 44.36291348811902 ], [ -122.12669160116252, 44.362395279085717 ], [ -122.128200370055367, 44.361252538207907 ], [ -122.128051303734637, 44.359883938677484 ], [ -122.1287777355777, 44.359737761938327 ], [ -122.129299243626093, 44.359073379845505 ], [ -122.12909432609689, 44.358555178652288 ], [ -122.129457534166448, 44.358482088130771 ], [ -122.128274687306288, 44.356482376317039 ], [ -122.12444713458477, 44.354735123925984 ], [ -122.124242267254473, 44.354216919948151 ], [ -122.124763777280378, 44.35355256324339 ], [ -122.124456479189078, 44.352775260010127 ], [ -122.124819661294239, 44.352702183012248 ], [ -122.124512366416582, 44.351924881282372 ], [ -122.124875543906242, 44.351851804261337 ], [ -122.124670682013956, 44.351333604049387 ], [ -122.125452903656637, 44.350337072029298 ], [ -122.134010492515415, 44.349174182700558 ], [ -122.134168718859968, 44.34858289756243 ], [ -122.135621310877895, 44.348290480328195 ], [ -122.137343531004177, 44.345706012391524 ], [ -122.139885426994539, 44.345194214423721 ], [ -122.140919124208295, 44.345825231096143 ], [ -122.142371628031995, 44.345532741923527 ], [ -122.143777264765149, 44.344130782064916 ], [ -122.146942767943941, 44.343213513019407 ], [ -122.146737763514707, 44.342695356056417 ], [ -122.147622064490292, 44.341957789673593 ], [ -122.151253021147937, 44.341226360515513 ], [ -122.151150505077382, 44.340967286389457 ], [ -122.151876684455459, 44.340820989450435 ], [ -122.151932217968152, 44.339970620365627 ], [ -122.153645106488241, 44.339345789444259 ], [ -122.154789836549043, 44.338275955616993 ], [ -122.156865722481371, 44.337577928073273 ], [ -122.157796924684163, 44.337949735598201 ], [ -122.162414178651034, 44.336739442747145 ], [ -122.163819218738055, 44.335337296985173 ], [ -122.165634442242606, 44.334971378890231 ], [ -122.166415873141759, 44.333974640258702 ], [ -122.167504979303274, 44.333755071722095 ], [ -122.169272877098763, 44.332279685839517 ], [ -122.170361946789185, 44.332060094709782 ], [ -122.173013605127565, 44.329846959657743 ], [ -122.174828632060624, 44.329480920408614 ], [ -122.174726043688651, 44.329221870741847 ], [ -122.176178046024773, 44.328929023006772 ], [ -122.176075453333297, 44.328669974675471 ], [ -122.178561229059795, 44.329007815067406 ], [ -122.178971644552774, 44.33004400181558 ], [ -122.1808340946031, 44.330787289892825 ], [ -122.18150494654121, 44.331491199163089 ], [ -122.184566721596028, 44.330314014944577 ], [ -122.184464094766909, 44.330054972334317 ], [ -122.194209710596766, 44.328927591944208 ], [ -122.194004388255237, 44.32840952313542 ], [ -122.194627678111928, 44.328003962696577 ], [ -122.194422355373817, 44.327485895522429 ], [ -122.194785326572173, 44.327412631631184 ], [ -122.194580004420075, 44.326894565333951 ], [ -122.195100615245551, 44.326229971110898 ], [ -122.194689976421984, 44.325193842262131 ], [ -122.195052935064666, 44.325120577988869 ], [ -122.194902599284077, 44.323752156208407 ], [ -122.195888788823794, 44.323273329200767 ], [ -122.195683470773858, 44.322755269039739 ], [ -122.196669640305714, 44.322276437235743 ], [ -122.197347806470532, 44.321020514907033 ], [ -122.198436604434477, 44.320800699316052 ], [ -122.198128610572951, 44.320023619027786 ], [ -122.198388873506659, 44.319691319840203 ], [ -122.20264124532963, 44.318552950586607 ], [ -122.202538567270366, 44.318293928209272 ], [ -122.205907447746029, 44.317893350917679 ], [ -122.205804758212409, 44.317634331412037 ], [ -122.207256378240032, 44.31734115185094 ], [ -122.207153684391287, 44.317082133680998 ], [ -122.208502588606819, 44.316529922913794 ], [ -122.209796683091866, 44.316828049965352 ], [ -122.211974056660026, 44.316388210207279 ], [ -122.212590335658959, 44.317942295580423 ], [ -122.2122274343767, 44.31801560656664 ], [ -122.212432864435783, 44.318533636137104 ], [ -122.212795768267654, 44.318460324512564 ], [ -122.213412084921785, 44.320014412732846 ], [ -122.21444608209714, 44.320644825715561 ], [ -122.214856995171274, 44.32168088387494 ], [ -122.215685563268693, 44.321793259530153 ], [ -122.216664901831621, 44.323274022177372 ], [ -122.218527578905508, 44.324016772633783 ], [ -122.219616356297195, 44.323796782499976 ], [ -122.220698567206199, 44.32553653455512 ], [ -122.221890124157355, 44.325575537266459 ], [ -122.224321400702095, 44.326762894541595 ], [ -122.22597869517196, 44.326987525295202 ], [ -122.228416430756127, 44.326215049328745 ], [ -122.229710797553935, 44.326512988787684 ], [ -122.23307992565023, 44.326111717196277 ], [ -122.232977119900156, 44.325852714258403 ], [ -122.234428798305714, 44.325559233484725 ], [ -122.235106298025087, 44.324303110423969 ], [ -122.236195026221168, 44.324082984607742 ], [ -122.237434938471367, 44.325231224099461 ], [ -122.238160762947615, 44.325084461558816 ], [ -122.240592306699895, 44.326271520541042 ], [ -122.243132693672607, 44.32575777319564 ], [ -122.244064206113904, 44.326128968309739 ], [ -122.244269903917044, 44.326646957418106 ], [ -122.24649589063641, 44.327315922056087 ], [ -122.24855898696751, 44.330536018482533 ], [ -122.250888025520013, 44.331463908859426 ], [ -122.252702674779655, 44.331096807120232 ], [ -122.253537031754647, 44.329249173962296 ], [ -122.254262864376017, 44.329102322435283 ], [ -122.25494003211621, 44.327846089283213 ], [ -122.255665846683229, 44.327699230535671 ], [ -122.255460058651607, 44.327181257906645 ], [ -122.256185864977553, 44.327034396526756 ], [ -122.2568629764516, 44.32577815897141 ], [ -122.257588764724048, 44.325631290371383 ], [ -122.258265836205183, 44.324375049328488 ], [ -122.259354490355676, 44.324154734131973 ], [ -122.261954163223152, 44.32083050527396 ], [ -122.265116978368823, 44.319910472740496 ], [ -122.267445878535256, 44.320838053135745 ], [ -122.269260153863584, 44.320470733854961 ], [ -122.269157218514309, 44.320211761888039 ], [ -122.272216961847889, 44.319032590469519 ], [ -122.272114017391871, 44.318773621557874 ], [ -122.275016719679357, 44.318185799717803 ], [ -122.275796349379959, 44.317188454570967 ], [ -122.275590439520158, 44.316670524314162 ], [ -122.276213133478478, 44.316264592011009 ], [ -122.276007223240825, 44.315746663386619 ], [ -122.276889766531426, 44.315008280609469 ], [ -122.276683854940998, 44.314490354374584 ], [ -122.277046667616162, 44.31441686826318 ], [ -122.276325992896801, 44.312604130531199 ], [ -122.276585844210459, 44.312271683702612 ], [ -122.275188597946581, 44.311715245900729 ], [ -122.274776823879051, 44.310679395441852 ], [ -122.276438840135469, 44.30894369659719 ], [ -122.28333158795283, 44.30754732200311 ] ] ] } }
]
}
