{
"type": "FeatureCollection",
"name": "basin",
"crs": { "type": "name", "properties": { "name": "urn:ogc:def:crs:OGC:1.3:CRS84" } },
"features": [
{ "type": "Feature", "properties": { }, "geometry": { "type": "Polygon", "coordinates": [ [ [ -122.28333158795283, 44.30754732200311 ], [ -122.28343455819433, 44.307806276241983 ], [ -122.283797327807662, 44.307732772748622 ], [ -122.283900300108513, 44.307991726726293 ], [ -122.28426307020888, 44.307918221935715 ], [ -122.283797327807662, 44.307732772748622 ], [ -122.283694356292941, 44.307473818829543 ], [ -122.28333158795283, 44.30754732200311 ], [ -122.282865850644498, 44.307361869699115 ], [ -122.282248058059736, 44.305808143927578 ], [ -122.282610818273554, 44.305734643969927 ], [ -122.282198967179113, 44.304698829238411 ], [ -122.28282151170869, 44.304292876052095 ], [ -122.281017372819477, 44.300741037466764 ], [ -122.281899666385343, 44.30000264431893 ], [ -122.281693762092914, 44.299484741848254 ], [ -122.282213309073725, 44.29881984493182 ], [ -122.284183716229336, 44.297860940551537 ], [ -122.283977801001583, 44.29734304389585 ], [ -122.2844973091984, 44.296678140994565 ], [ -122.286673551179106, 44.296237098105749 ], [ -122.288334909316902, 44.294501302379651 ], [ -122.287560350163389, 44.293539041876784 ], [ -122.288599227908804, 44.292209217393342 ], [ -122.288084404357377, 44.290914508309406 ], [ -122.288706787204731, 44.290508539112423 ], [ -122.288294935472905, 44.289472775680203 ], [ -122.288657601804189, 44.289399261715886 ], [ -122.287059455716204, 44.286365490954232 ], [ -122.288147406546088, 44.286144957636111 ], [ -122.288926475142787, 44.285147601400531 ], [ -122.290014400378098, 44.284927053372421 ], [ -122.290793427551336, 44.283929688700987 ], [ -122.290587504153649, 44.283411817090204 ], [ -122.290950135608711, 44.283338297793833 ], [ -122.288479269444849, 44.277123864173468 ], [ -122.28899857876246, 44.276458971298858 ], [ -122.288846456735982, 44.27509079326471 ], [ -122.290350552793058, 44.273946424016771 ], [ -122.291438293843214, 44.273725869412111 ], [ -122.293663009461213, 44.274393972739723 ], [ -122.294388168551862, 44.274246919128338 ], [ -122.29495667405287, 44.274691246221913 ], [ -122.299979100580813, 44.274512052520066 ], [ -122.300395293423151, 44.273588195356574 ], [ -122.30112042931448, 44.273441105302624 ], [ -122.301639586603557, 44.272776168119719 ], [ -122.301590202680998, 44.271666935837878 ], [ -122.302937435320388, 44.27111382026078 ], [ -122.303094007969136, 44.270522430586176 ], [ -122.304181652720573, 44.270301773366441 ], [ -122.304700756004465, 44.26963682851288 ], [ -122.30578838133971, 44.26941615856024 ], [ -122.307288011836022, 44.270231142691216 ], [ -122.308738178859528, 44.269936885580968 ], [ -122.308635169536657, 44.269677971054847 ], [ -122.315626300484666, 44.268538950911449 ], [ -122.316145278157904, 44.267873963814743 ], [ -122.318526477326856, 44.267950241366947 ], [ -122.322411080701528, 44.266881761313996 ], [ -122.325257826666899, 44.267143216831897 ], [ -122.325463965223889, 44.26766101751371 ], [ -122.326292056436671, 44.267772692436012 ], [ -122.328101141381737, 44.269364140252584 ], [ -122.33032607475343, 44.270031624651629 ], [ -122.331051107742027, 44.269884372581203 ], [ -122.332085433013077, 44.270513806684612 ], [ -122.332810467335378, 44.270366544882961 ], [ -122.334310443256697, 44.271181226033647 ], [ -122.33451666314528, 44.27169901696557 ], [ -122.33627609440012, 44.272181145236956 ], [ -122.338088696101096, 44.271812925070677 ], [ -122.339019986991872, 44.272183414634561 ], [ -122.341195088879289, 44.271741502653697 ], [ -122.341091953001367, 44.271482612312035 ], [ -122.347720224575042, 44.270415555797875 ], [ -122.347617065822021, 44.270156671216391 ], [ -122.351863826167005, 44.269013654049289 ], [ -122.35176065373966, 44.268754773422607 ], [ -122.356576109770984, 44.268055685029104 ], [ -122.359526237374723, 44.268575284683607 ], [ -122.35973264171119, 44.269093033760136 ], [ -122.360664013404815, 44.269463369780247 ], [ -122.361076847988045, 44.270498866512561 ], [ -122.363302142731669, 44.271165801053456 ], [ -122.368324126524001, 44.270984029295853 ], [ -122.372570589781958, 44.269840349375571 ], [ -122.376349123752448, 44.270470960316175 ], [ -122.37971459903163, 44.270066025891332 ], [ -122.380180344790617, 44.270251125116069 ], [ -122.380800055221002, 44.271804282203732 ], [ -122.381162526769629, 44.271730518894117 ], [ -122.381782273186488, 44.27328367610945 ], [ -122.382144751568859, 44.273209909901041 ], [ -122.382764533974637, 44.274763067245075 ], [ -122.383127019190923, 44.274689298137631 ], [ -122.383436924843153, 44.275465876617886 ], [ -122.385196801060999, 44.275947361727575 ], [ -122.386075858721867, 44.277167877266557 ], [ -122.389439925548658, 44.278722258669106 ], [ -122.392961537912228, 44.277725482441753 ], [ -122.394462398303517, 44.27853949765958 ], [ -122.395392578445708, 44.280869173805407 ], [ -122.395133429576362, 44.281201830767799 ], [ -122.396427667723728, 44.281498121792907 ], [ -122.39663439290814, 44.282015827290763 ], [ -122.397566143293361, 44.282385914791149 ], [ -122.397979619597152, 44.283421324363523 ], [ -122.401655760159031, 44.283792381414976 ], [ -122.403622768522027, 44.284791331382195 ], [ -122.405331940919041, 44.284163337208639 ], [ -122.40579785330101, 44.284348352107649 ], [ -122.406004658656812, 44.284866046074605 ], [ -122.406833092088775, 44.284977223650721 ], [ -122.407350135932091, 44.286271456644947 ], [ -122.407712655885817, 44.286197618829732 ], [ -122.408126310243176, 44.287233004970282 ], [ -122.408488834489404, 44.287159164895236 ], [ -122.409885574479645, 44.289673786779943 ], [ -122.410248109851992, 44.289599941543024 ], [ -122.411593768893852, 44.291005322871065 ], [ -122.413923676491422, 44.291930285141952 ], [ -122.415373843891217, 44.291634852972599 ], [ -122.415322586899734, 44.29052562080274 ], [ -122.416047654122039, 44.290377899476432 ], [ -122.415840755342103, 44.28986021526039 ], [ -122.416462363579043, 44.289453649933165 ], [ -122.415634786017918, 44.28738292094981 ], [ -122.416411994280367, 44.286384816838066 ], [ -122.416205104896036, 44.285867137432234 ], [ -122.416826674370938, 44.285460573736124 ], [ -122.416050397051279, 44.284499079649059 ], [ -122.416931009235739, 44.283759816950671 ], [ -122.416724123895165, 44.283242141139603 ], [ -122.417501268710012, 44.282244039146313 ], [ -122.418226242702531, 44.282096308462975 ], [ -122.418744318308569, 44.281430903127479 ], [ -122.42713323278862, 44.278881316367666 ], [ -122.427081793226094, 44.277772117757443 ], [ -122.42759974899036, 44.277106683850391 ], [ -122.428324646114504, 44.276958899714849 ], [ -122.42873910637141, 44.276034637366195 ], [ -122.432984866603249, 44.274889017904293 ], [ -122.434848578149854, 44.275628666827359 ], [ -122.437385593756488, 44.275111268646427 ], [ -122.43728208586424, 44.274852451203749 ], [ -122.438990696387165, 44.274224037623284 ], [ -122.440285207134409, 44.272560347005715 ], [ -122.442822066589954, 44.272042848432953 ], [ -122.444893036489049, 44.2693808923731 ], [ -122.448982813111414, 44.268826331212281 ], [ -122.448879270580818, 44.268567526120449 ], [ -122.451053539813714, 44.268123822040252 ], [ -122.451571186911295, 44.267458307998325 ], [ -122.453745403011197, 44.267014560939785 ], [ -122.453952521233973, 44.267532161962478 ], [ -122.455350320913155, 44.268086672401267 ], [ -122.457162165819625, 44.267716833691985 ], [ -122.465445877546813, 44.270784691070695 ], [ -122.467827343652132, 44.270858297230546 ], [ -122.469225325182762, 44.27141266568367 ], [ -122.46953620092161, 44.272189038133384 ], [ -122.469898577921896, 44.272115033090806 ], [ -122.471814781526845, 44.273963330837375 ], [ -122.472643189477893, 44.27407409628097 ], [ -122.472850473374336, 44.274591675353811 ], [ -122.473782537147628, 44.2749612235271 ], [ -122.475439386538255, 44.275182725235808 ], [ -122.476734698144398, 44.277437794062372 ], [ -122.480877017144891, 44.277991420761069 ], [ -122.484813086356326, 44.279986927527361 ], [ -122.488074675668472, 44.27932046197472 ], [ -122.489006887284916, 44.279689907091708 ], [ -122.489214313140636, 44.280207466622031 ], [ -122.490146543146324, 44.280576904427825 ], [ -122.490768864416054, 44.282129581190532 ], [ -122.493979299384364, 44.282313370344056 ], [ -122.495015323885241, 44.282941553089564 ], [ -122.497500998197182, 44.283273406837566 ], [ -122.500867917756253, 44.284824989929767 ], [ -122.504337136727941, 44.284675665000471 ], [ -122.50583948590112, 44.285488435172617 ], [ -122.508117717651501, 44.28530255280117 ], [ -122.509153918667792, 44.285930629331155 ], [ -122.514280416143663, 44.286002111091754 ], [ -122.51661155031104, 44.286925265867431 ], [ -122.520235557786563, 44.286183867307926 ], [ -122.521892832642948, 44.286404795716088 ], [ -122.523395430356913, 44.287217370589495 ], [ -122.523653973156911, 44.286884460069736 ], [ -122.52701937929713, 44.286475786873837 ], [ -122.529558460156252, 44.287916224205055 ], [ -122.530959701487447, 44.290429577430615 ], [ -122.532358601780658, 44.290983304730808 ], [ -122.533136600896214, 44.291944132508448 ], [ -122.534327741060224, 44.291980336765526 ], [ -122.537229599925837, 44.293346459343326 ], [ -122.537437435363969, 44.293863958151931 ], [ -122.539094953799051, 44.294084675843372 ], [ -122.541530639094702, 44.295266158265086 ], [ -122.542617901583213, 44.29504354157995 ], [ -122.544120938799608, 44.295855896871409 ], [ -122.551990063747382, 44.293964275339384 ], [ -122.553493189260152, 44.294776522997793 ], [ -122.55370115312428, 44.295293997925846 ], [ -122.554529954903629, 44.29540425840085 ], [ -122.554737928599366, 44.295921732376904 ], [ -122.556499548254706, 44.296400971460201 ], [ -122.556707540028043, 44.296918443419415 ], [ -122.558573204004176, 44.297656392361496 ], [ -122.559298034700163, 44.297507888682532 ], [ -122.561630176492329, 44.298430276683099 ], [ -122.563079837863, 44.29813323165974 ], [ -122.562975815416451, 44.297874499984466 ], [ -122.564321432294122, 44.297318710318642 ], [ -122.565358336966185, 44.297946364659836 ], [ -122.566083155906426, 44.297797823946681 ], [ -122.566861710735566, 44.29875846799893 ], [ -122.568157031676947, 44.299053099152644 ], [ -122.568365120495827, 44.299570555715832 ], [ -122.569193998340737, 44.299680725854905 ], [ -122.569972618826242, 44.300641355433633 ], [ -122.571476107549074, 44.301453411162043 ], [ -122.57287918136916, 44.303966392784858 ], [ -122.573708120252633, 44.304076535812982 ], [ -122.575161531044316, 44.305739030554122 ], [ -122.576457021316628, 44.306033585176216 ], [ -122.576873371576653, 44.307068487449918 ], [ -122.577235817567242, 44.306994184836142 ], [ -122.578589060137745, 44.310357619278157 ], [ -122.580092867360051, 44.311169593939709 ], [ -122.582009295765872, 44.31105674791494 ], [ -122.582579991288469, 44.311499877760419 ], [ -122.586308720512534, 44.311015365960365 ], [ -122.589004153010691, 44.311862970949576 ], [ -122.59345775878262, 44.311229584994017 ], [ -122.59579083669216, 44.312151400513386 ], [ -122.595999176491617, 44.312668827820353 ], [ -122.598590613884539, 44.313257527482079 ], [ -122.598798978438239, 44.313774951588435 ], [ -122.599732266045166, 44.314143646988285 ], [ -122.601390482386719, 44.314363598097813 ], [ -122.604756782364632, 44.313952936204814 ], [ -122.606523811791192, 44.316391247856366 ], [ -122.60792386398316, 44.316944210368717 ], [ -122.612740083057361, 44.316235784208281 ], [ -122.613311022891082, 44.316678787037084 ], [ -122.616935561115866, 44.315934710312909 ], [ -122.618330759160486, 44.314527846036732 ], [ -122.620401123705008, 44.313822636446929 ], [ -122.619984067934865, 44.312787855998508 ], [ -122.624695586670626, 44.311820308867567 ], [ -122.626562399679443, 44.31255732734936 ], [ -122.631015699954531, 44.311922684184125 ], [ -122.633969825408116, 44.312436243448509 ], [ -122.634694648738872, 44.312287324737419 ], [ -122.635210830042254, 44.311621037115067 ], [ -122.636660450650808, 44.311323182781486 ], [ -122.64003194209765, 44.312871333067321 ], [ -122.641843972803045, 44.312498946137154 ], [ -122.642157012201181, 44.313274979549647 ], [ -122.642881826517254, 44.313126016009832 ], [ -122.643661644697289, 44.314086240896401 ], [ -122.648323628168384, 44.313968370536415 ], [ -122.649207910158793, 44.315187238571852 ], [ -122.649570320188303, 44.315112737803318 ], [ -122.650196607066121, 44.316664777168761 ], [ -122.651959439037341, 44.317142773126733 ], [ -122.653046689015454, 44.316919244525401 ], [ -122.653255480198595, 44.317436587233793 ], [ -122.655122758028284, 44.318173213766151 ], [ -122.656468021881352, 44.317616469590064 ], [ -122.659373435290291, 44.318980000228358 ], [ -122.660356264782479, 44.318497743801331 ], [ -122.660509829109358, 44.317905880121131 ], [ -122.664496318831027, 44.317085975056578 ], [ -122.665792413200549, 44.317379667094698 ], [ -122.66641909219949, 44.31893163739592 ], [ -122.666885953880353, 44.319115750794317 ], [ -122.66869800389469, 44.318742993593709 ], [ -122.669269330215016, 44.31918575868719 ], [ -122.670823428454497, 44.319146187402211 ], [ -122.672224061394971, 44.319698476812384 ], [ -122.672433007404663, 44.320215792407303 ], [ -122.673729195943636, 44.320509409084607 ], [ -122.674460569846318, 44.322320009418505 ], [ -122.677101989890687, 44.322056649888502 ], [ -122.677777896686791, 44.322758036941892 ], [ -122.679074156947067, 44.323051603130658 ], [ -122.680168129051779, 44.324787598077229 ], [ -122.680530556352409, 44.324713011561911 ], [ -122.681317791063208, 44.327632797994774 ], [ -122.682718684726723, 44.32818498669787 ], [ -122.683345850918883, 44.329736911977072 ], [ -122.683708301174136, 44.329662316049024 ], [ -122.684697960737381, 44.331139642563336 ], [ -122.685889868750479, 44.331174493291172 ], [ -122.68537403662215, 44.331841004235976 ], [ -122.685583120355943, 44.332358312183267 ], [ -122.687813623790205, 44.333019900404658 ], [ -122.688231838936915, 44.334054511390718 ], [ -122.688594306893521, 44.333979901497344 ], [ -122.689277432635166, 44.336641042812786 ], [ -122.692797627421086, 44.335636217395255 ], [ -122.693006779487135, 44.336153517753075 ], [ -122.697572820665059, 44.33773506692993 ], [ -122.69830501701496, 44.339545600799617 ], [ -122.697942529993952, 44.339620237983389 ], [ -122.698151733597669, 44.340137534533447 ], [ -122.697635953817141, 44.340804105350259 ], [ -122.698360940393314, 44.340654831309912 ], [ -122.699399747561245, 44.341281497010357 ], [ -122.700124735358543, 44.341132213221243 ], [ -122.701526061048256, 44.341684219503897 ], [ -122.703088037146145, 44.343604092721336 ], [ -122.706148727189614, 44.344374730522929 ], [ -122.706462649706154, 44.345150663750317 ], [ -122.707396954060769, 44.345518628119024 ], [ -122.70858912647104, 44.345553276718157 ], [ -122.710207515416798, 44.348582326298789 ], [ -122.709482470160793, 44.348731667280525 ], [ -122.708966736402914, 44.349398293865974 ], [ -122.709232164078543, 44.351024833418748 ], [ -122.708716410415917, 44.351691462212109 ], [ -122.707008354742754, 44.352323437365733 ], [ -122.708417504194102, 44.354835252333373 ], [ -122.710181738887684, 44.355312515120495 ], [ -122.710962995434286, 44.356272429485955 ], [ -122.711792797382245, 44.356381724419109 ], [ -122.712211522599858, 44.357416310251054 ], [ -122.713146027197524, 44.357784243674267 ], [ -122.714353835378731, 44.361738625904003 ], [ -122.713322255617442, 44.363071951804898 ], [ -122.713950445239888, 44.364623845304777 ], [ -122.713072026482152, 44.365365193594947 ], [ -122.713958143143046, 44.366583761215921 ], [ -122.716608909100046, 44.368279516596132 ], [ -122.717237222231986, 44.369831411447322 ], [ -122.719259807685006, 44.369975225232849 ], [ -122.71951770349564, 44.369641877868183 ], [ -122.71920351810671, 44.36886593586916 ], [ -122.719719299304273, 44.368199242633168 ], [ -122.723240681502702, 44.367193546636564 ], [ -122.724175380751845, 44.367561410180777 ], [ -122.724803860456461, 44.369113267020062 ], [ -122.725843348210944, 44.369739763540736 ], [ -122.726262370406531, 44.370774333993978 ], [ -122.730251173153391, 44.369952370253984 ], [ -122.730146402455674, 44.369693731134795 ], [ -122.731492072153344, 44.369136169513979 ], [ -122.731645129975107, 44.368544161738328 ], [ -122.732732941269802, 44.368319958606826 ], [ -122.733514667078879, 44.36927976669611 ], [ -122.735069876015842, 44.369239441371306 ], [ -122.735698620700092, 44.370791252241403 ], [ -122.735336007784625, 44.370865996050284 ], [ -122.735650387118511, 44.371641903233609 ], [ -122.735287769599154, 44.371716647043897 ], [ -122.736174368669609, 44.372935083016344 ], [ -122.735811744809723, 44.373009828454428 ], [ -122.736021340492229, 44.373527101419157 ], [ -122.73638396688834, 44.373452355329945 ], [ -122.737585027497204, 44.375446697204794 ], [ -122.738415107093033, 44.375555830664382 ], [ -122.739664452755022, 44.37669950006994 ], [ -122.741687290689413, 44.376842975453826 ], [ -122.743050088350913, 44.380205220656862 ], [ -122.742687433176371, 44.380279985942742 ], [ -122.742848953469945, 44.381647927323485 ], [ -122.743316454708591, 44.38183179664459 ], [ -122.74538757287975, 44.381124545266815 ], [ -122.747047898948722, 44.381342712412369 ], [ -122.749376752730498, 44.380301991196774 ], [ -122.749949124944507, 44.380744466552393 ], [ -122.751867234873913, 44.380629159076108 ], [ -122.752439626110274, 44.381071624036828 ], [ -122.754615506006431, 44.380622857707976 ], [ -122.754672384969453, 44.381732159272474 ], [ -122.753641294209999, 44.383065852908651 ], [ -122.754060823145821, 44.384100364696266 ], [ -122.75369815927715, 44.384175160556907 ], [ -122.753907926011578, 44.384692417446864 ], [ -122.75473814512587, 44.384801451325913 ], [ -122.755052811242649, 44.385577335308156 ], [ -122.756971049270206, 44.385461953200974 ], [ -122.757906183525066, 44.385829594114419 ], [ -122.759003188399205, 44.387565167463407 ], [ -122.761179233315488, 44.38711628786217 ], [ -122.761074318047235, 44.386857663800171 ], [ -122.762420074029677, 44.386299769831048 ], [ -122.76257290042571, 44.385707705325018 ], [ -122.76495871648649, 44.385776009846538 ], [ -122.77103758028386, 44.388165200758429 ], [ -122.771772284312433, 44.389975520437645 ], [ -122.771514568211387, 44.390308983071208 ], [ -122.773537879713345, 44.390451979000609 ], [ -122.775045797593194, 44.391261884775624 ], [ -122.777794497700924, 44.391255105215151 ], [ -122.77883481487612, 44.39188121719414 ], [ -122.781373539512302, 44.391357138396003 ], [ -122.78225154772268, 44.390615299674657 ], [ -122.784427536514102, 44.390166037606896 ], [ -122.784942838005264, 44.389499062339148 ], [ -122.793646405296187, 44.387701631884397 ], [ -122.793751446170063, 44.387960230745279 ], [ -122.797272755392797, 44.386952536767744 ], [ -122.797377808943267, 44.387211132364591 ], [ -122.80100409154241, 44.386461936482668 ], [ -122.801576852785274, 44.386904195715623 ], [ -122.802302103149955, 44.386754341583647 ], [ -122.80308502674788, 44.387713778190374 ], [ -122.803447654995622, 44.387638847381048 ], [ -122.80376289193201, 44.388414620853055 ], [ -122.804125523180446, 44.388339688089232 ], [ -122.804545855393101, 44.389374052212858 ], [ -122.805481301613099, 44.389741362246944 ], [ -122.805901663214314, 44.390775725130858 ], [ -122.806264304732565, 44.390700786176716 ], [ -122.808366330596286, 44.395872607803653 ], [ -122.80919677418494, 44.395981304935674 ], [ -122.809512115753364, 44.396757078368573 ], [ -122.810552810419011, 44.397382949946348 ], [ -122.810142820552258, 44.398308626782949 ], [ -122.811441098532299, 44.398600950126678 ], [ -122.81165135070033, 44.399118131659783 ], [ -122.814142824596701, 44.399444148420585 ], [ -122.814926062485895, 44.400403540974317 ], [ -122.818200898517333, 44.401688873298497 ], [ -122.820271841327056, 44.400980428791414 ], [ -122.821149548279521, 44.400238318893919 ], [ -122.822705414983488, 44.400196967978808 ], [ -122.822600244638409, 44.399938385318549 ], [ -122.824050928153923, 44.399638436142801 ], [ -122.823945753540997, 44.399379854847325 ], [ -122.827209733081091, 44.398704915106357 ], [ -122.827104547862675, 44.398446336810068 ], [ -122.828192522789877, 44.39822134032746 ], [ -122.828765560873123, 44.398663493584664 ], [ -122.829958729468061, 44.398697059563652 ], [ -122.834415775718625, 44.398055499578263 ], [ -122.836907319991482, 44.398381090077109 ], [ -122.838252680024084, 44.397822417011646 ], [ -122.838404869746384, 44.397230251433676 ], [ -122.839855425301224, 44.396930131952828 ], [ -122.840007599013063, 44.39633796565316 ], [ -122.847727992555349, 44.395020635847587 ], [ -122.849026369574915, 44.395312591052758 ], [ -122.849552697629179, 44.396605388072096 ], [ -122.849915322032373, 44.39653032943184 ], [ -122.850699032672679, 44.397489505842522 ], [ -122.854910250008146, 44.399140921563131 ], [ -122.860197646490619, 44.398606906568212 ], [ -122.861601463104321, 44.399157293873117 ], [ -122.862326711721266, 44.399007109252288 ], [ -122.862853322237868, 44.400299863754412 ], [ -122.863683907358208, 44.400408222378729 ], [ -122.86442121920642, 44.402218076896226 ], [ -122.86478385717264, 44.40214297691918 ], [ -122.865205200982231, 44.403177179447653 ], [ -122.865567843212716, 44.403102077186411 ], [ -122.866878578049253, 44.405353927089521 ], [ -122.868645242144638, 44.40582914075808 ], [ -122.868855953374464, 44.406346239808244 ], [ -122.868130640670813, 44.406496462271029 ], [ -122.867464072350359, 44.407755993989838 ], [ -122.866738741468382, 44.407906209324054 ], [ -122.866949444606902, 44.408423313645081 ], [ -122.86581480858743, 44.409499396075475 ], [ -122.86602550962877, 44.410016503588928 ], [ -122.865042818938235, 44.410500369282197 ], [ -122.865253517200202, 44.411017479104309 ], [ -122.864890832251504, 44.411092581759675 ], [ -122.868600769315037, 44.415371033880469 ], [ -122.86989962630004, 44.415662798212779 ], [ -122.870110377691972, 44.416179905974815 ], [ -122.869338375385141, 44.417180918127833 ], [ -122.868612947744865, 44.417331146639192 ], [ -122.86882369450538, 44.417848258251738 ], [ -122.868460976943609, 44.417923371700162 ], [ -122.869362776287502, 44.421101166543593 ], [ -122.872382302696693, 44.422718897281108 ], [ -122.875237674317518, 44.422968663163182 ], [ -122.875448489191115, 44.423485770444572 ], [ -122.876384790744538, 44.42385260899097 ], [ -122.878046584533024, 44.424069163169371 ], [ -122.878257424275077, 44.424586267209015 ], [ -122.877637355653505, 44.424995099358298 ], [ -122.877801708044089, 44.426363004229827 ], [ -122.877287040780288, 44.427030389940569 ], [ -122.878235860357549, 44.429357379875981 ], [ -122.879535027050593, 44.429649058931339 ], [ -122.88042497868679, 44.430866681723813 ], [ -122.883023400015873, 44.431449986554227 ], [ -122.883234300731033, 44.431967090776752 ], [ -122.884170761697945, 44.432333881209374 ], [ -122.884487131246757, 44.433109536355602 ], [ -122.883035998749136, 44.433410164432729 ], [ -122.881420406742038, 44.43234285548629 ], [ -122.87851813449727, 44.432944028317316 ], [ -122.877944481630053, 44.432502057129334 ], [ -122.867891568259594, 44.43486419076077 ], [ -122.864567526536334, 44.43443079877062 ], [ -122.860681930470008, 44.43551546649028 ], [ -122.858294266793621, 44.43544886874794 ], [ -122.856585496677198, 44.436082872390664 ], [ -122.8567962099509, 44.436600023470788 ], [ -122.85591842243393, 44.437342424909019 ], [ -122.855871651704661, 44.438193237670646 ], [ -122.855145969122901, 44.438343399560083 ], [ -122.854736340890256, 44.439269293340978 ], [ -122.853390293470738, 44.439828181570036 ], [ -122.853600993997986, 44.440345341794199 ], [ -122.852465611026446, 44.441421383030388 ], [ -122.852781659867304, 44.442197128260005 ], [ -122.851751581391696, 44.443531750081775 ], [ -122.852594398844474, 44.445600418945226 ], [ -122.851611095794894, 44.446084221947928 ], [ -122.849913637515172, 44.44867839840223 ], [ -122.846132326409602, 44.450021263119396 ], [ -122.846343003220568, 44.450538445970849 ], [ -122.845359583800615, 44.451022207941243 ], [ -122.845570257823738, 44.451539393110515 ], [ -122.844797489581097, 44.452540337896799 ], [ -122.841999353353913, 44.453399335671371 ], [ -122.84122651109756, 44.454400263714717 ], [ -122.841437164061716, 44.454917459116629 ], [ -122.840816595382776, 44.455326146214126 ], [ -122.840722648358536, 44.457027827453132 ], [ -122.840207382532995, 44.457695113281588 ], [ -122.840418037963317, 44.458212313908739 ], [ -122.837713639617306, 44.45736954370642 ], [ -122.83765533643448, 44.456260101258501 ], [ -122.836355839682952, 44.455967997728813 ], [ -122.8356769607947, 44.455267221119826 ], [ -122.831110870878192, 44.455650294321288 ], [ -122.829822476671467, 44.457318409219369 ], [ -122.830033051601816, 44.45783562583086 ], [ -122.829517674281888, 44.458502871504848 ], [ -122.828791715597262, 44.458652896428831 ], [ -122.827503207114916, 44.46032099955513 ], [ -122.827819058148492, 44.461096834998074 ], [ -122.826835353026198, 44.461580471207625 ], [ -122.825289010525793, 44.463582183941206 ], [ -122.825499570304316, 44.464099414589128 ], [ -122.824621083075797, 44.464841653232781 ], [ -122.82457390001106, 44.465692504569169 ], [ -122.822137993514318, 44.466476107880126 ], [ -122.82156442470172, 44.466033862796117 ], [ -122.817571071052583, 44.466858726688052 ], [ -122.815556034417625, 44.468676706575394 ], [ -122.815871787514013, 44.469452584080074 ], [ -122.815356182179571, 44.470119791500103 ], [ -122.813540889557402, 44.470494663053813 ], [ -122.813130497736452, 44.471420492083652 ], [ -122.812404364218963, 44.47157043193414 ], [ -122.813714655941411, 44.473823130372814 ], [ -122.815798512007675, 44.475075004455334 ], [ -122.816172264720237, 44.476960389997686 ], [ -122.81940357109778, 44.47909677354928 ], [ -122.819040470516413, 44.479171762260208 ], [ -122.819356312510635, 44.479947648854782 ], [ -122.817961886982758, 44.481357105533938 ], [ -122.818488290718548, 44.482650260435911 ], [ -122.817246360219457, 44.483467466731554 ], [ -122.818299193290656, 44.486053795313225 ], [ -122.82053605803344, 44.48671337312387 ], [ -122.821414873944093, 44.485971126809389 ], [ -122.822609578132372, 44.486004764798047 ], [ -122.822925492927453, 44.48678065425019 ], [ -122.822409825124353, 44.487447913568175 ], [ -122.822936361217145, 44.488741067725108 ], [ -122.824341744362414, 44.489291952521548 ], [ -122.824973651599493, 44.490843734650774 ], [ -122.82435265407895, 44.491252376393163 ], [ -122.824516090224762, 44.492620539155318 ], [ -122.823531903283794, 44.493104183483688 ], [ -122.824316358344859, 44.494063711169851 ], [ -122.823542790155528, 44.495064623389233 ], [ -122.824432594377285, 44.496282788969758 ], [ -122.824795780790751, 44.496207782844721 ], [ -122.825217099054214, 44.497242317881202 ], [ -122.824127522143414, 44.497467337264752 ], [ -122.824443507852777, 44.498243242124623 ], [ -122.822943485048384, 44.499394170146182 ], [ -122.821853865931502, 44.499619172002205 ], [ -122.821338089729394, 44.500286445486552 ], [ -122.818795587875542, 44.500811406564452 ], [ -122.816921489993021, 44.500076794384739 ], [ -122.814636886641708, 44.500268047697013 ], [ -122.81395778827067, 44.499567094404547 ], [ -122.812246983766599, 44.500200616197525 ], [ -122.812094333503254, 44.500792881087726 ], [ -122.810278199973638, 44.501167732785042 ], [ -122.808872684697917, 44.500616685886335 ], [ -122.80586157702578, 44.500957715274396 ], [ -122.804924591183891, 44.500590321404182 ], [ -122.804398307098836, 44.499297063445226 ], [ -122.803671855109101, 44.499446964681809 ], [ -122.799560880543169, 44.498052233440575 ], [ -122.798719031239855, 44.49598299882333 ], [ -122.796482072809965, 44.495323042224499 ], [ -122.795860862175175, 44.495731555267049 ], [ -122.793413527428314, 44.494554236033451 ], [ -122.791960673401093, 44.494853911969734 ], [ -122.79055543842216, 44.494302679615735 ], [ -122.790239859644089, 44.493526701104443 ], [ -122.789408249467456, 44.493417863381637 ], [ -122.787199470925515, 44.487986016426859 ], [ -122.786836286994813, 44.48806091891155 ], [ -122.785736939330135, 44.486325206058282 ], [ -122.781999986585248, 44.48681548226908 ], [ -122.78157939381417, 44.485780833946698 ], [ -122.780642749899769, 44.485413281529418 ], [ -122.780021534628091, 44.48582171218861 ], [ -122.777995358226335, 44.485678785855356 ], [ -122.777259448801928, 44.483868134223933 ], [ -122.776322854814765, 44.483500552982825 ], [ -122.771811771944243, 44.484991153263074 ], [ -122.770196703844647, 44.483922380439203 ], [ -122.769107158627037, 44.484146944179415 ], [ -122.766765793780834, 44.483227835688069 ], [ -122.765514023683593, 44.482084163291674 ], [ -122.762398454243652, 44.482165525815361 ], [ -122.761930208115231, 44.481981684492695 ], [ -122.762188320510745, 44.481648175784471 ], [ -122.761873125934159, 44.480872151187718 ], [ -122.762236298904597, 44.480797317797354 ], [ -122.76202617065853, 44.48027996902028 ], [ -122.762800479329712, 44.479279445181994 ], [ -122.760621482067265, 44.479728438636577 ], [ -122.759330892657289, 44.481395957575081 ], [ -122.757878170262472, 44.481695254025105 ], [ -122.756941711611105, 44.481327538450969 ], [ -122.752115258722995, 44.482041426960976 ], [ -122.751073802964228, 44.48141498706142 ], [ -122.74868462960417, 44.481346420079127 ], [ -122.745407260553819, 44.480059163204025 ], [ -122.74451909200269, 44.478840513335726 ], [ -122.740773766743956, 44.477369247263141 ], [ -122.740047409349813, 44.47751879513126 ], [ -122.739474283511626, 44.477076186853196 ], [ -122.736100690880903, 44.477490396011305 ], [ -122.735164408724003, 44.477122530897041 ], [ -122.734954498793158, 44.476605143557407 ], [ -122.734123185525362, 44.476495965267041 ], [ -122.733130321737946, 44.475018555343489 ], [ -122.732194089911502, 44.474650671321434 ], [ -122.731419381859823, 44.475651007619597 ], [ -122.729498544383844, 44.475766043807738 ], [ -122.724882029797129, 44.476996334504598 ], [ -122.724309007549152, 44.476553661579153 ], [ -122.721661741902693, 44.47681804316403 ], [ -122.720725547523244, 44.476450077254043 ], [ -122.719740854740465, 44.476932939152306 ], [ -122.719692344939659, 44.47778377476596 ], [ -122.719329141141358, 44.477858491866833 ], [ -122.719538935524866, 44.478375905165024 ], [ -122.719175728380065, 44.478450621942528 ], [ -122.719490422151878, 44.479226743321199 ], [ -122.718973792590091, 44.479893591766491 ], [ -122.719183590564882, 44.480411007867573 ], [ -122.718303726335691, 44.481152571642099 ], [ -122.718989506052992, 44.483814383894391 ], [ -122.718626269118374, 44.483889100042482 ], [ -122.716753727939363, 44.483153108248132 ], [ -122.71410617468176, 44.483417343634507 ], [ -122.71379152316527, 44.482641202623512 ], [ -122.712750412946363, 44.482014462838812 ], [ -122.710207756978605, 44.482537334457319 ], [ -122.706155905381053, 44.4822493329265 ], [ -122.705317108278422, 44.480179579937328 ], [ -122.700950930740774, 44.479115265890584 ], [ -122.699958752606804, 44.477637600950679 ], [ -122.699595527819, 44.47771226430639 ], [ -122.699071434124534, 44.476418654971113 ], [ -122.698708214898716, 44.476493315717292 ], [ -122.697660100326303, 44.473906098298635 ], [ -122.696256068723272, 44.473353897891265 ], [ -122.695892862836544, 44.473428550485558 ], [ -122.696102464354553, 44.47394599573817 ], [ -122.695327231084264, 44.474946120886251 ], [ -122.691227031286317, 44.475508493250281 ], [ -122.690968592766453, 44.475841860228954 ], [ -122.690032578778769, 44.475473679729298 ], [ -122.688111676193088, 44.475588120001035 ], [ -122.687902130672498, 44.475070660386805 ], [ -122.684269851540904, 44.475816917656871 ], [ -122.683697104907765, 44.475374071457402 ], [ -122.681622458579142, 44.476080504346697 ], [ -122.681727208499922, 44.476339239611107 ], [ -122.678094793234862, 44.477085330779069 ], [ -122.677214522188251, 44.477826618269376 ], [ -122.67539825978956, 44.47819961581726 ], [ -122.67488120375161, 44.478866291999509 ], [ -122.674154684892699, 44.479015481575047 ], [ -122.673483793796223, 44.480274233866822 ], [ -122.67275725674574, 44.480423416280637 ], [ -122.671723048486257, 44.481756753437871 ], [ -122.671932491014346, 44.482274245829245 ], [ -122.671156805244763, 44.483274248245039 ], [ -122.670171659699349, 44.483756751250183 ], [ -122.670381096554877, 44.484274248284166 ], [ -122.669605364943777, 44.485274245946776 ], [ -122.668256876318949, 44.48583131888104 ], [ -122.667327208795058, 44.487423389215813 ], [ -122.666600581433329, 44.487572540378949 ], [ -122.665566142644138, 44.488905850146523 ], [ -122.665775560218634, 44.489423360096076 ], [ -122.665258323648104, 44.490090014944428 ], [ -122.663441666268056, 44.490462859478875 ], [ -122.662099233654516, 44.492980317806754 ], [ -122.66033790838533, 44.494462727331801 ], [ -122.660652001770771, 44.495239013870233 ], [ -122.65884129696579, 44.49757226070313 ], [ -122.65942633546149, 44.50193618472337 ], [ -122.657714026629179, 44.502567727902466 ], [ -122.654856106595872, 44.502313261057068 ], [ -122.65387056765482, 44.502795663326616 ], [ -122.65064924003002, 44.50261564811079 ], [ -122.647119731594969, 44.503619712403413 ], [ -122.645715496116438, 44.503066945119819 ], [ -122.645093304996919, 44.503474762578975 ], [ -122.643534957630919, 44.503514048754433 ], [ -122.638909449383362, 44.502780945239365 ], [ -122.637400677486823, 44.501969308303991 ], [ -122.634179433069122, 44.501788895880615 ], [ -122.632202716606713, 44.500792903374538 ], [ -122.626074109099491, 44.501208128625557 ], [ -122.624097528903619, 44.500212017310886 ], [ -122.619109026345996, 44.499552693026672 ], [ -122.618382162563691, 44.499701585455966 ], [ -122.617968924310247, 44.500626869842243 ], [ -122.61578828122947, 44.501073517793557 ], [ -122.615270463223055, 44.501739995388434 ], [ -122.614075587157657, 44.501704499858356 ], [ -122.612567137166479, 44.500892584076887 ], [ -122.60965954771541, 44.501487989508711 ], [ -122.608878052290962, 44.500527187175372 ], [ -122.606229399796163, 44.500789291587722 ], [ -122.604721064347984, 44.499977288716778 ], [ -122.603267261169748, 44.500274913203235 ], [ -122.602853812750453, 44.501200151910645 ], [ -122.602126895518168, 44.501348956328769 ], [ -122.601608940860288, 44.502015381303494 ], [ -122.601817909828497, 44.502533006018425 ], [ -122.600155080209731, 44.502312973185887 ], [ -122.597974265258571, 44.502759331668877 ], [ -122.597765324992508, 44.50224170068531 ], [ -122.594957740867713, 44.501135116852744 ], [ -122.593867338828261, 44.501358257469036 ], [ -122.592931500716219, 44.500989375826713 ], [ -122.592513711455368, 44.499954102240238 ], [ -122.589810741787986, 44.499106233239459 ], [ -122.587989363324596, 44.497517586071218 ], [ -122.584250368118049, 44.498002334667468 ], [ -122.58435477961909, 44.49826115835706 ], [ -122.582641863738601, 44.498891733201482 ], [ -122.579834665926057, 44.497784839169896 ], [ -122.578949247724083, 44.496565042811376 ], [ -122.57728663914466, 44.496344727871879 ], [ -122.576145927435277, 44.497418539929228 ], [ -122.576045266421602, 44.499120180734813 ], [ -122.574904488229777, 44.500193988555836 ], [ -122.574803791870195, 44.501895638530023 ], [ -122.574440299093595, 44.501969964944713 ], [ -122.57475344179133, 44.502746465812827 ], [ -122.573871705325928, 44.503487111624253 ], [ -122.573925723729118, 44.504596776811873 ], [ -122.572680440895709, 44.505411742258687 ], [ -122.573411108412543, 44.507223601472781 ], [ -122.572892825989811, 44.507889923354185 ], [ -122.571075182621016, 44.50826152439177 ], [ -122.571283937286864, 44.508779203815301 ], [ -122.570402084231006, 44.509519836275885 ], [ -122.570610837629204, 44.510037518148465 ], [ -122.569469789126785, 44.511111304622027 ], [ -122.570096052235755, 44.512664360658327 ], [ -122.568332199536215, 44.514145617572467 ], [ -122.568854085108512, 44.515439843653205 ], [ -122.568335694867315, 44.516106159578662 ], [ -122.568544452776152, 44.516623851997252 ], [ -122.568180873995217, 44.516698163709762 ], [ -122.568389632546072, 44.517215857028376 ], [ -122.568026050413735, 44.517290168413645 ], [ -122.568339190401034, 44.518066709835054 ], [ -122.568702776362471, 44.517992397472945 ], [ -122.570056270404251, 44.519396848475644 ], [ -122.569278653493768, 44.520396337461172 ], [ -122.568551456198918, 44.520544965111306 ], [ -122.568033023859641, 44.521211287165819 ], [ -122.568241795205338, 44.521728985733539 ], [ -122.567618965626153, 44.522136458189536 ], [ -122.56782773665833, 44.522654158434001 ], [ -122.567100511906759, 44.522802778901116 ], [ -122.565649470765067, 44.525060587875608 ], [ -122.564922215359815, 44.525209197245104 ], [ -122.564767343783032, 44.525801208994565 ], [ -122.563676444627589, 44.526024114727555 ], [ -122.56378082065747, 44.526282970064585 ], [ -122.561703362287091, 44.526987614415454 ], [ -122.559110514308415, 44.530319127251062 ], [ -122.556928525814996, 44.530764841789797 ], [ -122.55703288333747, 44.531023705042294 ], [ -122.553861105297671, 44.52999047083307 ], [ -122.550743082592078, 44.530066898783005 ], [ -122.54955069200507, 44.531991432743851 ], [ -122.545084959760089, 44.534584264197093 ], [ -122.545034211508906, 44.535435139953847 ], [ -122.544151723523015, 44.536175641369745 ], [ -122.54405019987658, 44.537877399549494 ], [ -122.543063353079972, 44.538359020036346 ], [ -122.542908260072124, 44.538951023172132 ], [ -122.542180805369213, 44.539099513091493 ], [ -122.5421300171962, 44.539950396023926 ], [ -122.54077938962763, 44.540506245348737 ], [ -122.540883700371126, 44.54076512665393 ], [ -122.53761002125583, 44.541433253430213 ], [ -122.537091123996703, 44.542099485240691 ], [ -122.536363622661014, 44.542247944474845 ], [ -122.535066314025798, 44.54391351283325 ], [ -122.535274903085167, 44.544431288237867 ], [ -122.53475595982222, 44.545097515283118 ], [ -122.529767398664617, 44.546395458472468 ], [ -122.529248386078081, 44.547061666937481 ], [ -122.527533720598626, 44.547691600428195 ], [ -122.526599890501899, 44.549282899884879 ], [ -122.524831894167249, 44.548803009339913 ], [ -122.521298110191893, 44.549803844760838 ], [ -122.520361997813168, 44.549434415874572 ], [ -122.518906760718338, 44.549731152828038 ], [ -122.519011001958958, 44.549990056368543 ], [ -122.516568530455984, 44.550768216496088 ], [ -122.51667276434361, 44.551027122441823 ], [ -122.516204711043386, 44.550842392082338 ], [ -122.514126002746181, 44.551546333258457 ], [ -122.512723745538082, 44.552952808788021 ], [ -122.512932191406193, 44.553470629189405 ], [ -122.512049116581906, 44.554210947197582 ], [ -122.511997937922445, 44.555061846389165 ], [ -122.509555202542714, 44.5558398867732 ], [ -122.509867849496402, 44.556616629737839 ], [ -122.509088915048807, 44.557615848072047 ], [ -122.509765432353475, 44.558318436850037 ], [ -122.508622603062307, 44.559391814566759 ], [ -122.507530977093083, 44.559614277591677 ], [ -122.506856185059803, 44.560872407897143 ], [ -122.502593716162934, 44.562021075291831 ], [ -122.502021430383493, 44.561577367843682 ], [ -122.500825557203854, 44.561540853702319 ], [ -122.494275331630988, 44.562875123436378 ], [ -122.493964176131016, 44.564059079506222 ], [ -122.493236343907384, 44.564207310791467 ], [ -122.493080755358051, 44.56479928903547 ], [ -122.490273523040841, 44.565651107093473 ], [ -122.489598349653235, 44.566909166634375 ], [ -122.487778662486747, 44.567279680310541 ], [ -122.487259075900795, 44.567945755604349 ], [ -122.483983551355124, 44.568612606719235 ], [ -122.485390009321648, 44.573088713861061 ], [ -122.485753982238094, 44.573014618660139 ], [ -122.486378895241202, 44.574568274367905 ], [ -122.486742875039099, 44.574494176234545 ], [ -122.487471985470307, 44.576306775209062 ], [ -122.487107996712908, 44.576380875620607 ], [ -122.487316318600008, 44.576898762272066 ], [ -122.484508511237507, 44.577750481522607 ], [ -122.48357325320481, 44.579341583525562 ], [ -122.476812707821551, 44.580157151621151 ], [ -122.474213637366873, 44.583487397269842 ], [ -122.474421882367082, 44.584005312022228 ], [ -122.4736937925463, 44.584153443224743 ], [ -122.473537986947591, 44.584745424319507 ], [ -122.47254995376656, 44.585226572340218 ], [ -122.473851112013591, 44.587483146153026 ], [ -122.473487048146808, 44.587557211249276 ], [ -122.474215944007398, 44.589369934027488 ], [ -122.473591924561461, 44.589777027143477 ], [ -122.474216712976869, 44.591330796347535 ], [ -122.473436851466104, 44.59232988195275 ], [ -122.472708669816583, 44.592478010470224 ], [ -122.472032901515306, 44.593736054523987 ], [ -122.471304701640136, 44.593884175843655 ], [ -122.471617084950495, 44.594661072450542 ], [ -122.469537198079564, 44.597325274311515 ], [ -122.466467759364875, 44.596548783855305 ], [ -122.465375394607591, 44.59677092023032 ], [ -122.463034271210788, 44.595846262154531 ], [ -122.459497113165654, 44.596845564004276 ], [ -122.458300639053874, 44.596808666283039 ], [ -122.458404720705786, 44.597067643535922 ], [ -122.45621991425088, 44.59751177612943 ], [ -122.456323989012816, 44.597770755399949 ], [ -122.455491639051999, 44.597659812484217 ], [ -122.453775002890723, 44.598288867762747 ], [ -122.450445610661248, 44.597845001138744 ], [ -122.448885011513312, 44.599842920769674 ], [ -122.449301217278958, 44.600878866358322 ], [ -122.447896587608057, 44.602284811475748 ], [ -122.448104688839521, 44.602802788438211 ], [ -122.44737633885255, 44.602950782269872 ], [ -122.445555387463543, 44.605281671721016 ], [ -122.445763479978993, 44.605799655717576 ], [ -122.442069412194044, 44.607390495615547 ], [ -122.442745730797398, 44.608093499772792 ], [ -122.441861173433068, 44.608833441303858 ], [ -122.442381367254598, 44.610128426213215 ], [ -122.441600818170016, 44.611127366908583 ], [ -122.441496599014215, 44.612829322980382 ], [ -122.440872165846741, 44.613236284081871 ], [ -122.441392374608625, 44.614531285304146 ], [ -122.441756618963922, 44.61445730331473 ], [ -122.442276854075786, 44.615752304552501 ], [ -122.44264110404437, 44.615678319954945 ], [ -122.443473531957707, 44.617750322750304 ], [ -122.443837791386457, 44.617676334567911 ], [ -122.444514138642234, 44.620340332165895 ], [ -122.444149865592721, 44.62041432262302 ], [ -122.444357993938041, 44.620932325947322 ], [ -122.443577349268509, 44.621931301798121 ], [ -122.442120213871434, 44.622227248560328 ], [ -122.441443578487096, 44.623485219586485 ], [ -122.43780060891919, 44.624225001429409 ], [ -122.437644396415038, 44.624816992403737 ], [ -122.436187172800231, 44.625112876356781 ], [ -122.435250482758448, 44.624742790356379 ], [ -122.429421476201696, 44.625926127412363 ], [ -122.427287846404809, 44.625518815593928 ], [ -122.420990316498205, 44.626516712951819 ], [ -122.420833951405868, 44.627108687244423 ], [ -122.419844923474642, 44.627589489891797 ], [ -122.420364839688119, 44.62888461363459 ], [ -122.420000494134584, 44.628958539657361 ], [ -122.419948099381159, 44.629809541692254 ], [ -122.418126336420357, 44.630179157065541 ], [ -122.418230315465138, 44.630438184489606 ], [ -122.41375402399153, 44.631066133886669 ], [ -122.413805513675356, 44.632176169259111 ], [ -122.41328469868273, 44.632842050841163 ], [ -122.4125559486003, 44.632989864592759 ], [ -122.412399494619578, 44.633581837422 ], [ -122.409848820671172, 44.634099152331572 ], [ -122.409692340400127, 44.63469112343369 ], [ -122.407870389701088, 44.635060602993974 ], [ -122.407713889866841, 44.635652573029745 ], [ -122.406985097278749, 44.635800357323966 ], [ -122.405943266690912, 44.637132076879141 ], [ -122.401728238243422, 44.635465642991008 ], [ -122.401103356317194, 44.635872438424627 ], [ -122.400999434579518, 44.635613394593207 ], [ -122.397355368443101, 44.636352093724874 ], [ -122.395584500083515, 44.637831462642289 ], [ -122.395531790866073, 44.638682471653865 ], [ -122.389961438337849, 44.639531212811285 ], [ -122.388452608886865, 44.638716522702438 ], [ -122.388140978474084, 44.637939357057761 ], [ -122.386475515811753, 44.637716597094489 ], [ -122.385435059161765, 44.637087095775463 ], [ -122.384706202380883, 44.637234759076598 ], [ -122.384498481265297, 44.636716644445073 ], [ -122.381220539517884, 44.635420015492329 ], [ -122.378565721747435, 44.635677676258254 ], [ -122.378669557559192, 44.635936737558183 ], [ -122.376951233885194, 44.636564858295849 ], [ -122.373934057697909, 44.634935179484891 ], [ -122.371904286394695, 44.634786039874442 ], [ -122.369094901842004, 44.633674388358187 ], [ -122.367272756705958, 44.634043313766234 ], [ -122.36721969380929, 44.63489430449804 ], [ -122.36591643687585, 44.636558562450162 ], [ -122.365187543149318, 44.636706119162689 ], [ -122.365030665496931, 44.637298041310359 ], [ -122.363572855032984, 44.637593141629438 ], [ -122.363676636292126, 44.637852215661262 ], [ -122.362740167130582, 44.637481611284635 ], [ -122.357587154341317, 44.637404234424672 ], [ -122.3555041319742, 44.638105837882264 ], [ -122.35394251730267, 44.638141753021792 ], [ -122.354150008435354, 44.638659916726176 ], [ -122.353421066340076, 44.638807409964862 ], [ -122.353264080707106, 44.639399321032798 ], [ -122.349097779873745, 44.640802368001268 ], [ -122.34857626063301, 44.641468009938649 ], [ -122.348783720819171, 44.641986185758711 ], [ -122.347479872859338, 44.643650289882196 ], [ -122.346386355900563, 44.64387147614012 ], [ -122.345814403640048, 44.643427020591623 ], [ -122.341701092527657, 44.643978848685201 ], [ -122.338734700475413, 44.643458439313704 ], [ -122.337430576539333, 44.645122450813638 ], [ -122.337584517079122, 44.646491648707503 ], [ -122.336437461058253, 44.647563757579 ], [ -122.336644846841722, 44.648081959179343 ], [ -122.334664964869134, 44.649042355693858 ], [ -122.333621504400185, 44.650373550022124 ], [ -122.332266955435827, 44.65092742214869 ], [ -122.331066207151039, 44.652850505790582 ], [ -122.327992364390624, 44.654031870535277 ], [ -122.327938790847398, 44.654882883016683 ], [ -122.327574204043955, 44.654956561296309 ], [ -122.327781544521955, 44.655474785079612 ], [ -122.327156032247032, 44.65588125263411 ], [ -122.327309789008225, 44.65725049479245 ], [ -122.326162387154511, 44.658322540915684 ], [ -122.326369727132985, 44.658840770733747 ], [ -122.324911282834648, 44.659135463418259 ], [ -122.324128430190058, 44.660133824673764 ], [ -122.321054134574368, 44.661315048892448 ], [ -122.320532180525774, 44.661980611473915 ], [ -122.316417532908503, 44.662531684231936 ], [ -122.315845619877777, 44.662087082224808 ], [ -122.314751700831465, 44.662308018707655 ], [ -122.314958965481836, 44.662826270771269 ], [ -122.313968661221026, 44.663306327469293 ], [ -122.313811272836972, 44.663898224094694 ], [ -122.311101285228148, 44.665005586915939 ], [ -122.310840246182835, 44.665338351624769 ], [ -122.311151113275216, 44.66611574411553 ], [ -122.31062902452031, 44.666781275094309 ], [ -122.308440993056109, 44.667223058451782 ], [ -122.308283547092856, 44.667814953690048 ], [ -122.302448602679348, 44.668992864407379 ], [ -122.30104375936817, 44.668436274088172 ], [ -122.299850399138123, 44.666436760093809 ], [ -122.298913884084072, 44.666065685345487 ], [ -122.298134910671479, 44.665102724013252 ], [ -122.294857250752756, 44.663803896815615 ], [ -122.294650137368706, 44.663285612490441 ], [ -122.291057463209228, 44.663170442268772 ], [ -122.288977564990219, 44.661909877192194 ], [ -122.287883560961177, 44.662130593797514 ], [ -122.286010792095311, 44.661388277512323 ], [ -122.28471448968574, 44.659129513073417 ], [ -122.280708070181021, 44.657977477039353 ], [ -122.279618983822189, 44.656236977460132 ], [ -122.279150851311741, 44.656051374212247 ], [ -122.277431091241681, 44.656678243186001 ], [ -122.277224133435908, 44.656159940028587 ], [ -122.275090469190616, 44.655750172118154 ], [ -122.274883532190728, 44.65523186639868 ], [ -122.274518885683165, 44.655305400066162 ], [ -122.274780064881838, 44.654972713640888 ], [ -122.27457313264604, 44.654454408329137 ], [ -122.274208489997989, 44.654527941024192 ], [ -122.273484261188287, 44.65271387230397 ], [ -122.274632403692578, 44.651642291589603 ], [ -122.274115107398586, 44.650346537755027 ], [ -122.274479727574757, 44.650273005991941 ], [ -122.274011650521501, 44.650087387191604 ], [ -122.272198735918991, 44.64653281234262 ], [ -122.268035529337311, 44.645972252636717 ], [ -122.267828676425168, 44.645453947160789 ], [ -122.264606916334444, 44.643303466750815 ], [ -122.26387772893851, 44.643450473194051 ], [ -122.262370333927208, 44.642634353809342 ], [ -122.260705171740497, 44.642410024911733 ], [ -122.256019875548603, 44.642514394527034 ], [ -122.255236197580601, 44.64351231568601 ], [ -122.255442947923612, 44.644030638425797 ], [ -122.254713732738082, 44.644177595123217 ], [ -122.253668772178585, 44.645508150792971 ], [ -122.252210299014266, 44.645802041859803 ], [ -122.251791152341582, 44.646726478586999 ], [ -122.247780225796589, 44.647534587034812 ], [ -122.246692156303524, 44.645793859425176 ], [ -122.244510286455949, 44.644273482716613 ], [ -122.243319026596964, 44.642273571143193 ], [ -122.242486480218176, 44.642161290724665 ], [ -122.241708586929519, 44.641198051625594 ], [ -122.240408135452299, 44.640900028773586 ], [ -122.239320362785222, 44.63915926657436 ], [ -122.237552063323022, 44.638675480069189 ], [ -122.236774280532046, 44.637712219640434 ], [ -122.235473917927791, 44.637414151076186 ], [ -122.234696179290566, 44.636450881226416 ], [ -122.232356845338259, 44.635522103571574 ], [ -122.232047025763038, 44.634744580574072 ], [ -122.231682443248417, 44.634817994111614 ], [ -122.23106283321053, 44.633262948003697 ], [ -122.232108049546667, 44.631932604842831 ], [ -122.231694984129632, 44.630895915046871 ], [ -122.230862597279796, 44.630783565052496 ], [ -122.23044955799854, 44.629746874021556 ], [ -122.230814114487671, 44.62967346466332 ], [ -122.230401082736876, 44.628636776006758 ], [ -122.230765633288769, 44.628563366959462 ], [ -122.230455863935049, 44.627785852146161 ], [ -122.230820409836085, 44.627712443086466 ], [ -122.230352609068149, 44.627526680676787 ], [ -122.229423350912498, 44.625194140489427 ], [ -122.230049166681383, 44.624788157705382 ], [ -122.229326442234353, 44.622973968556927 ], [ -122.229690963400998, 44.622900563351465 ], [ -122.229277990283478, 44.621863886613738 ], [ -122.229642505514036, 44.621790481718897 ], [ -122.229332780133987, 44.621012975842611 ], [ -122.229697290714611, 44.620939570935143 ], [ -122.229077853622172, 44.619384562939715 ], [ -122.229861638037676, 44.618386847960942 ], [ -122.229655162378734, 44.617868514843643 ], [ -122.23028090890945, 44.61746253748737 ], [ -122.229867959975692, 44.616425874913951 ], [ -122.226071446557526, 44.615790640138059 ], [ -122.221800758454151, 44.616930477608101 ], [ -122.221078339494028, 44.615116275078584 ], [ -122.220246164673071, 44.615003862863155 ], [ -122.21946890102457, 44.614040551754705 ], [ -122.219104416549655, 44.614113927659766 ], [ -122.21724042219968, 44.611409775867457 ], [ -122.215308134234363, 44.613478390357436 ], [ -122.2118214062194, 44.613620279363687 ], [ -122.208183416331238, 44.612392830303101 ], [ -122.206835591597994, 44.61098443658895 ], [ -122.202723124864775, 44.611531949409979 ], [ -122.199917494406975, 44.610416801114596 ], [ -122.198459545057503, 44.610710083230657 ], [ -122.197572281526391, 44.611448409605494 ], [ -122.19736607474087, 44.610930034503269 ], [ -122.196066401400984, 44.610631600165334 ], [ -122.195392625845045, 44.609927346081463 ], [ -122.193934667419953, 44.610220578520419 ], [ -122.193721122279257, 44.611663141559106 ], [ -122.19132795037909, 44.61158457347927 ], [ -122.191431031215842, 44.611843766025316 ], [ -122.189608508038248, 44.61221025162903 ], [ -122.189711583234356, 44.612469445855808 ], [ -122.185440492072757, 44.613608113135349 ], [ -122.181850647451128, 44.613490022026284 ], [ -122.177753493645469, 44.610114874137111 ], [ -122.17681843019156, 44.609742990713059 ], [ -122.174892869294382, 44.609850071122516 ], [ -122.173537833628956, 44.610402285390293 ], [ -122.172602789398084, 44.610030372237041 ], [ -122.17239677847904, 44.609511960232595 ], [ -122.171097242724557, 44.609213284006572 ], [ -122.170423741538443, 44.608508906245561 ], [ -122.171049757103447, 44.608103214579366 ], [ -122.171105268919021, 44.607252353444103 ], [ -122.167832858527973, 44.605950579500529 ], [ -122.167103864033734, 44.606097046075952 ], [ -122.165757021052727, 44.604688257583177 ], [ -122.165392528759412, 44.604761485498308 ], [ -122.165186589209, 44.604243068346314 ], [ -122.165551078929511, 44.604169841075745 ], [ -122.164465825662589, 44.602428610434615 ], [ -122.163530941673059, 44.602056640287003 ], [ -122.162548727267648, 44.600574609702015 ], [ -122.160679041971719, 44.599830639353534 ], [ -122.16037021059762, 44.599053011197846 ], [ -122.158706461560087, 44.59882743357992 ], [ -122.157677142209906, 44.596235332553796 ], [ -122.157209760441305, 44.596049327025405 ], [ -122.151481291995466, 44.597479675901205 ], [ -122.149088671640115, 44.597400353903573 ], [ -122.146078745947065, 44.59576567726414 ], [ -122.145349814180875, 44.59591202191347 ], [ -122.144573837696882, 44.594948315703334 ], [ -122.140723450841151, 44.595161512733085 ], [ -122.139788798052905, 44.594789382390374 ], [ -122.138807209841602, 44.593307200822956 ], [ -122.137610980256795, 44.593267432068764 ], [ -122.132611280810011, 44.594550661225007 ], [ -122.131480206307828, 44.591699156033883 ], [ -122.130648469147616, 44.591586191761166 ], [ -122.129667127877326, 44.590103953393928 ], [ -122.128732605894044, 44.589731749814817 ], [ -122.128115777562968, 44.588176380751015 ], [ -122.128844663211623, 44.58803013258531 ], [ -122.129526756925927, 44.586773848035193 ], [ -122.130255624398885, 44.586627592618242 ], [ -122.130517247853675, 44.586295238335609 ], [ -122.130208825287781, 44.585517563436511 ], [ -122.130834869222028, 44.585112080509361 ], [ -122.130423643036679, 44.584075184423902 ], [ -122.130059223636181, 44.584148312675929 ], [ -122.129750816134447, 44.583370640350559 ], [ -122.128816386771106, 44.582998442809199 ], [ -122.128610794010243, 44.582479993908741 ], [ -122.12923681939958, 44.58207452114803 ], [ -122.129348851333987, 44.580372931833395 ], [ -122.129974852784855, 44.579967457471021 ], [ -122.129460877628858, 44.578671348716355 ], [ -122.128629304120196, 44.578558375074785 ], [ -122.128218151625759, 44.577521486969744 ], [ -122.127181029540012, 44.576890061070806 ], [ -122.124163163119391, 44.577215754815583 ], [ -122.121668531208215, 44.57687672058568 ], [ -122.121463011877054, 44.576358267582492 ], [ -122.121098624381887, 44.57643137016634 ], [ -122.119660095322104, 44.572802202129779 ], [ -122.121070929242293, 44.571399805565434 ], [ -122.120557189899699, 44.570103686665604 ], [ -122.120192835133153, 44.570176785786487 ], [ -122.11988460483937, 44.569399114282945 ], [ -122.118950422877745, 44.569026859028902 ], [ -122.118744948248747, 44.568508410674696 ], [ -122.117343707035033, 44.567950014579068 ], [ -122.116615012977533, 44.568096193624953 ], [ -122.115269978970431, 44.566687012984687 ], [ -122.114905636899735, 44.566760097142087 ], [ -122.113925001026516, 44.565277823104338 ], [ -122.111169226266639, 44.565270907967268 ], [ -122.109562723597008, 44.564193978690106 ], [ -122.109254642831715, 44.563416292746133 ], [ -122.108058959468863, 44.563376262014764 ], [ -122.108002690418019, 44.564227015576016 ], [ -122.107274016292138, 44.56437314248268 ], [ -122.106489049970307, 44.565370020490306 ], [ -122.104667319778656, 44.565735310649721 ], [ -122.103733272224787, 44.565362951931846 ], [ -122.097800966081877, 44.566272434711841 ], [ -122.096856774788975, 44.567860776615198 ], [ -122.095501943772632, 44.568412149074781 ], [ -122.095342864580658, 44.569003664209113 ], [ -122.092530471512745, 44.56984712301562 ], [ -122.091755547080112, 44.568883164831 ], [ -122.090457148844521, 44.568583731036867 ], [ -122.090251894050596, 44.568065239373063 ], [ -122.089056139751634, 44.568025038121469 ], [ -122.088850897397137, 44.567506544932812 ], [ -122.088019529128218, 44.567393321254059 ], [ -122.087814296640303, 44.566874827182581 ], [ -122.086880326170373, 44.566502349696329 ], [ -122.085422834469085, 44.566794370542816 ], [ -122.08402190405171, 44.566235626991819 ], [ -122.083247142311379, 44.56527162699593 ], [ -122.079921833402508, 44.564818564082096 ], [ -122.078418413915898, 44.564000512622989 ], [ -122.077689678332931, 44.564146478051626 ], [ -122.076288866681324, 44.563587656600326 ], [ -122.074102650052779, 44.564025505847972 ], [ -122.071301114208424, 44.562907773984243 ], [ -122.070424030654507, 44.561684449717156 ], [ -122.069490227681953, 44.561311854827132 ], [ -122.068464899377631, 44.558719278991958 ], [ -122.068829248273445, 44.558646322791994 ], [ -122.068419133820129, 44.557609295609517 ], [ -122.068783476784745, 44.557536339709621 ], [ -122.068270844975359, 44.556240058835577 ], [ -122.066710975265451, 44.556272612871325 ], [ -122.062406871844928, 44.554336530168442 ], [ -122.060687693959807, 44.554960471417928 ], [ -122.059287213102905, 44.554401482775077 ], [ -122.058467340901217, 44.552327389927576 ], [ -122.056964458651166, 44.551509119115785 ], [ -122.054812680390299, 44.546064631080363 ], [ -122.05517697583727, 44.545991714119815 ], [ -122.054869603365177, 44.545213933470727 ], [ -122.055393267988791, 44.544549579705397 ], [ -122.054880991240353, 44.54325328382032 ], [ -122.055245271471321, 44.543180367115838 ], [ -122.054937910990006, 44.542402591342665 ], [ -122.055302186577862, 44.542329674616731 ], [ -122.054585030610241, 44.540514869044593 ], [ -122.049804055322753, 44.540352732355473 ], [ -122.047208737354822, 44.539753073825487 ], [ -122.041482714676533, 44.54117853189603 ], [ -122.040913636764969, 44.540732873976019 ], [ -122.039718395145186, 44.54069223344937 ], [ -122.036804104652944, 44.541275197572091 ], [ -122.032239888556717, 44.539670342269218 ], [ -122.032035167780464, 44.53915179365854 ], [ -122.029235357548174, 44.538033239667044 ], [ -122.028506795692053, 44.538178928556377 ], [ -122.027733146583529, 44.537214665179981 ], [ -122.031661914789979, 44.532232869297601 ], [ -122.031252530253838, 44.531195787187251 ], [ -122.031616771012395, 44.531122936838642 ], [ -122.030184005981894, 44.527493162274837 ], [ -122.031231535400423, 44.526164698021766 ], [ -122.032688385465704, 44.525873294117545 ], [ -122.034157208145132, 44.523621309568711 ], [ -122.035249796340949, 44.523402735364193 ], [ -122.035671136083181, 44.522479227579218 ], [ -122.036763700943169, 44.522260641520774 ], [ -122.036923182322511, 44.521669255933588 ], [ -122.047643562604961, 44.518964396790018 ], [ -122.047700552917021, 44.518113751872676 ], [ -122.048064705531772, 44.518040858701866 ], [ -122.047757541795988, 44.517263108484762 ], [ -122.050215684033319, 44.514533059740423 ], [ -122.049703733729501, 44.513236827715673 ], [ -122.050329591086353, 44.512831785420609 ], [ -122.050124812887077, 44.512313294480855 ], [ -122.054596590649481, 44.511697684755035 ], [ -122.057498147605003, 44.51307488374345 ], [ -122.05780540429194, 44.513852604551637 ], [ -122.06003570267201, 44.514524949982466 ], [ -122.060240563514057, 44.515043428174408 ], [ -122.062368484968957, 44.515456496842667 ], [ -122.069184214337014, 44.513811374712233 ], [ -122.071676257865704, 44.514151342738984 ], [ -122.072666094720404, 44.513673237038006 ], [ -122.074133321904824, 44.511420871852565 ], [ -122.074861497328726, 44.511274942413806 ], [ -122.075646301997836, 44.510278366538806 ], [ -122.075497970644264, 44.50890927734671 ], [ -122.075862043762939, 44.508836309788727 ], [ -122.07555460232544, 44.508058638923991 ], [ -122.075918670806232, 44.507985671344564 ], [ -122.075098851247006, 44.505911887806185 ], [ -122.075826965306234, 44.505765954823303 ], [ -122.075622013131323, 44.505247510871683 ], [ -122.076350118913496, 44.505101575242456 ], [ -122.077657957988706, 44.503440621455077 ], [ -122.077452998828704, 44.502922182896974 ], [ -122.077976114486887, 44.502257800988545 ], [ -122.077668678642183, 44.501480145951241 ], [ -122.078191781035642, 44.500815765248262 ], [ -122.077940943525476, 44.49918748983233 ], [ -122.078304961708412, 44.499114517129925 ], [ -122.07774671271585, 44.496708600934596 ], [ -122.078633778382894, 44.495971253598768 ], [ -122.079725776436675, 44.495752328383702 ], [ -122.07978234396991, 44.494901712124388 ], [ -122.082022829362117, 44.493613220199734 ], [ -122.083330307222042, 44.49195225164879 ], [ -122.085616628973185, 44.491773526018882 ], [ -122.08551413618531, 44.491514319287269 ], [ -122.086970006459396, 44.491222344752394 ], [ -122.086867509322943, 44.490963139365519 ], [ -122.088687323083761, 44.490598150716657 ], [ -122.090097085187935, 44.489196329434364 ], [ -122.089892073884755, 44.488677925772556 ], [ -122.090256022656092, 44.488604922112209 ], [ -122.087591128113985, 44.481865706361184 ], [ -122.087955042738685, 44.48179271003773 ], [ -122.087237652813386, 44.479978315494812 ], [ -122.089067556012751, 44.477652953719975 ], [ -122.090682018799299, 44.476769556152547 ], [ -122.090477040651521, 44.476251167128005 ], [ -122.092306731824308, 44.47392577939042 ], [ -122.093762194539238, 44.473633741704894 ], [ -122.092260632732291, 44.472816006198912 ], [ -122.091133291121423, 44.469964907084709 ], [ -122.091497137953894, 44.469891902950735 ], [ -122.090984734926224, 44.468595952974908 ], [ -122.091348574561508, 44.46852294945873 ], [ -122.090426287004618, 44.466190246421107 ], [ -122.090062458911248, 44.466263247059821 ], [ -122.089345177060423, 44.464448923826879 ], [ -122.089708996177208, 44.464375925425976 ], [ -122.089504063001968, 44.463857548575326 ], [ -122.088105228654072, 44.463298971244726 ], [ -122.08790031101789, 44.462780593116584 ], [ -122.086603964377957, 44.462481190045622 ], [ -122.08920704930209, 44.461119676090647 ], [ -122.089888599875493, 44.459863936643885 ], [ -122.091605094249829, 44.459239746738106 ], [ -122.093434286996356, 44.456914427634082 ], [ -122.093229347884517, 44.456396064720096 ], [ -122.094797121416278, 44.454402927828639 ], [ -122.094648525292854, 44.4530340230463 ], [ -122.095012277360311, 44.452961011950727 ], [ -122.094704869697324, 44.452183477832364 ], [ -122.095227424141186, 44.451519100134405 ], [ -122.094817554260018, 44.450482391934045 ], [ -122.095181292438326, 44.450409380772477 ], [ -122.094156659823611, 44.447817617921267 ], [ -122.093121841515824, 44.44718610334084 ], [ -122.09281448177363, 44.446408574380627 ], [ -122.093178200229687, 44.446335569311977 ], [ -122.092870843700766, 44.44555804188213 ], [ -122.09323455752785, 44.445485036791254 ], [ -122.092619857954134, 44.443929985563329 ], [ -122.089822984155703, 44.442812929456942 ], [ -122.086969770509796, 44.442546340409777 ], [ -122.08370693545308, 44.441242968417079 ], [ -122.080490109079633, 44.441049220034657 ], [ -122.079819222320126, 44.440344640760799 ], [ -122.077432237113854, 44.440264062848591 ], [ -122.075567912289273, 44.439519158445222 ], [ -122.07536316256359, 44.439000787191553 ], [ -122.076931059171059, 44.437007933753527 ], [ -122.076680488270881, 44.435379876905003 ], [ -122.077044164885791, 44.435306917540565 ], [ -122.076998342144861, 44.434197229983013 ], [ -122.079191015491404, 44.431799269823337 ], [ -122.079145159950727, 44.430689591225409 ], [ -122.0798724567194, 44.430543659518143 ], [ -122.079826590864627, 44.429433984096192 ], [ -122.080451493813158, 44.42902887283082 ], [ -122.080144361905411, 44.428251344525279 ], [ -122.082495588000853, 44.425262044152838 ], [ -122.085824536311449, 44.423754755540735 ], [ -122.085517366644041, 44.422977248262626 ], [ -122.085880967152519, 44.422904266708464 ], [ -122.084959488930409, 44.420571751145573 ], [ -122.085584279429341, 44.420166623396668 ], [ -122.085379511552787, 44.419648288699086 ], [ -122.0861066763471, 44.419502326386421 ], [ -122.086629063019316, 44.418838028258911 ], [ -122.08881051383068, 44.41840010985895 ], [ -122.090730769150781, 44.418294313306923 ], [ -122.091662717731211, 44.418666645946757 ], [ -122.092753427631365, 44.418447650055612 ], [ -122.092651018472182, 44.418188489120112 ], [ -122.098206871344857, 44.41735253826829 ], [ -122.102252175044484, 44.417658953671072 ], [ -122.102149730739271, 44.417399800463812 ], [ -122.103501487987685, 44.416848538500801 ], [ -122.10532912787248, 44.414523264655422 ], [ -122.106680801852306, 44.41397197379424 ], [ -122.106373437191735, 44.413194530604372 ], [ -122.107939824363896, 44.411201421154715 ], [ -122.107530003879916, 44.41016484027196 ], [ -122.108881572995926, 44.409613532151162 ], [ -122.109403660100753, 44.408949158631536 ], [ -122.110494156196538, 44.408730022084328 ], [ -122.110391693867015, 44.408470880079868 ], [ -122.111482179068702, 44.408251735670355 ], [ -122.111379713683405, 44.407992594685879 ], [ -122.113560655243802, 44.407554281322859 ], [ -122.114343689434321, 44.406557697451426 ], [ -122.115434131059303, 44.406338521594058 ], [ -122.11600257015867, 44.406783734372652 ], [ -122.118024942124293, 44.406936684001224 ], [ -122.118695895319803, 44.407641021397069 ], [ -122.120354817087048, 44.407867004670024 ], [ -122.122535696528786, 44.407428544583432 ], [ -122.123104191438472, 44.407873728096597 ], [ -122.123831148529703, 44.40772756365822 ], [ -122.124502169917747, 44.408431872998378 ], [ -122.126524610259082, 44.408584694202361 ], [ -122.126729659459187, 44.409102953589027 ], [ -122.127559150253418, 44.409215898149569 ], [ -122.128230225137784, 44.409920190926499 ], [ -122.130150178380049, 44.409813828503324 ], [ -122.131184770921479, 44.410445005943672 ], [ -122.133524037295714, 44.409415006737923 ], [ -122.13342148584448, 44.409155882069705 ], [ -122.136226700456092, 44.40831185211588 ], [ -122.137009409975519, 44.407315133541431 ], [ -122.138099790435263, 44.407095771926166 ], [ -122.138779891425145, 44.405839926161583 ], [ -122.146728690985753, 44.403121377681344 ], [ -122.147669418226045, 44.401533241751586 ], [ -122.148657073668375, 44.401054687071579 ], [ -122.147361639729809, 44.400755913459498 ], [ -122.147053868295302, 44.399978585725044 ], [ -122.145395050676328, 44.399752938467749 ], [ -122.144313588428986, 44.398012305889019 ], [ -122.14348420686963, 44.397899468241327 ], [ -122.142561086110547, 44.395567473828223 ], [ -122.141731737393499, 44.395454625854121 ], [ -122.14142405461935, 44.394677293765923 ], [ -122.140492162676864, 44.394305327777964 ], [ -122.137667696118001, 44.388159797146301 ], [ -122.135748368151354, 44.388266263008838 ], [ -122.134714071693978, 44.387635150359962 ], [ -122.133987353607353, 44.38778136798485 ], [ -122.132589722999484, 44.387223346736128 ], [ -122.130409558830891, 44.387661952725324 ], [ -122.127465274359054, 44.385177149001819 ], [ -122.125443530416277, 44.385024349576391 ], [ -122.124772731003731, 44.384320079549227 ], [ -122.121977787323075, 44.38320383786543 ], [ -122.120887739085774, 44.383423056620451 ], [ -122.120319463828793, 44.382977886479047 ], [ -122.119126956734704, 44.382937970150785 ], [ -122.118670667184944, 44.380791936540525 ], [ -122.122304016734461, 44.380061237546599 ], [ -122.122462417323604, 44.379469928256363 ], [ -122.124074106306495, 44.378586309752713 ], [ -122.128247413454773, 44.373271159982558 ], [ -122.12763256562296, 44.37171650627014 ], [ -122.127269284668373, 44.371789593832084 ], [ -122.126859406895434, 44.370753157974548 ], [ -122.126496130270226, 44.370826243281542 ], [ -122.125834767299423, 44.368162072620343 ], [ -122.124903325421812, 44.367790018266327 ], [ -122.124754311292236, 44.366421396402444 ], [ -122.125378364856928, 44.366016128199036 ], [ -122.125490136612285, 44.364315324569986 ], [ -122.126896511932571, 44.36291348811902 ], [ -122.12669160116252, 44.362395279085717 ], [ -122.128200370055367, 44.361252538207907 ], [ -122.128051303734637, 44.359883938677484 ], [ -122.1287777355777, 44.359737761938327 ], [ -122.129299243626093, 44.359073379845505 ], [ -122.12909432609689, 44.358555178652288 ], [ -122.129457534166448, 44.358482088130771 ], [ -122.128274687306288, 44.356482376317039 ], [ -122.12444713458477, 44.354735123925984 ], [ -122.124242267254473, 44.354216919948151 ], [ -122.124763777280378, 44.35355256324339 ], [ -122.124456479189078, 44.352775260010127 ], [ -122.124819661294239, 44.352702183012248 ], [ -122.124512366416582, 44.351924881282372 ], [ -122.124875543906242, 44.351851804261337 ], [ -122.124670682013956, 44.351333604049387 ], [ -122.125452903656637, 44.350337072029298 ], [ -122.134010492515415, 44.349174182700558 ], [ -122.134168718859968, 44.34858289756243 ], [ -122.135621310877895, 44.348290480328195 ], [ -122.137343531004177, 44.345706012391524 ], [ -122.139885426994539, 44.345194214423721 ], [ -122.140919124208295, 44.345825231096143 ], [ -122.142371628031995, 44.345532741923527 ], [ -122.143777264765149, 44.344130782064916 ], [ -122.146942767943941, 44.343213513019407 ], [ -122.146737763514707, 44.342695356056417 ], [ -122.147622064490292, 44.341957789673593 ], [ -122.151253021147937, 44.341226360515513 ], [ -122.151150505077382, 44.340967286389457 ], [ -122.151876684455459, 44.340820989450435 ], [ -122.151932217968152, 44.339970620365627 ], [ -122.153645106488241, 44.339345789444259 ], [ -122.154789836549043, 44.338275955616993 ], [ -122.156865722481371, 44.337577928073273 ], [ -122.157796924684163, 44.337949735598201 ], [ -122.162414178651034, 44.336739442747145 ], [ -122.163819218738055, 44.335337296985173 ], [ -122.165634442242606, 44.334971378890231 ], [ -122.166415873141759, 44.333974640258702 ], [ -122.167504979303274, 44.333755071722095 ], [ -122.169272877098763, 44.332279685839517 ], [ -122.170361946789185, 44.332060094709782 ], [ -122.173013605127565, 44.329846959657743 ], [ -122.174828632060624, 44.329480920408614 ], [ -122.174726043688651, 44.329221870741847 ], [ -122.176178046024773, 44.328929023006772 ], [ -122.176075453333297, 44.328669974675471 ], [ -122.178561229059795, 44.329007815067406 ], [ -122.178971644552774, 44.33004400181558 ], [ -122.1808340946031, 44.330787289892825 ], [ -122.18150494654121, 44.331491199163089 ], [ -122.184566721596028, 44.330314014944577 ], [ -122.184464094766909, 44.330054972334317 ], [ -122.194209710596766, 44.328927591944208 ], [ -122.194004388255237, 44.32840952313542 ], [ -122.194627678111928, 44.328003962696577 ], [ -122.194422355373817, 44.327485895522429 ], [ -122.194785326572173, 44.327412631631184 ], [ -122.194580004420075, 44.326894565333951 ], [ -122.195100615245551, 44.326229971110898 ], [ -122.194689976421984, 44.325193842262131 ], [ -122.195052935064666, 44.325120577988869 ], [ -122.194902599284077, 44.323752156208407 ], [ -122.195888788823794, 44.323273329200767 ], [ -122.195683470773858, 44.322755269039739 ], [ -122.196669640305714, 44.322276437235743 ], [ -122.197347806470532, 44.321020514907033 ], [ -122.198436604434477, 44.320800699316052 ], [ -122.198128610572951, 44.320023619027786 ], [ -122.198388873506659, 44.319691319840203 ], [ -122.20264124532963, 44.318552950586607 ], [ -122.202538567270366, 44.318293928209272 ], [ -122.205907447746029, 44.317893350917679 ], [ -122.205804758212409, 44.317634331412037 ], [ -122.207256378240032, 44.31734115185094 ], [ -122.207153684391287, 44.317082133680998 ], [ -122.208502588606819, 44.316529922913794 ], [ -122.209796683091866, 44.316828049965352 ], [ -122.211974056660026, 44.316388210207279 ], [ -122.212590335658959, 44.317942295580423 ], [ -122.2122274343767, 44.31801560656664 ], [ -122.212432864435783, 44.318533636137104 ], [ -122.212795768267654, 44.318460324512564 ], [ -122.213412084921785, 44.320014412732846 ], [ -122.21444608209714, 44.320644825715561 ], [ -122.214856995171274, 44.32168088387494 ], [ -122.215685563268693, 44.321793259530153 ], [ -122.216664901831621, 44.323274022177372 ], [ -122.218527578905508, 44.324016772633783 ], [ -122.219616356297195, 44.323796782499976 ], [ -122.220698567206199, 44.32553653455512 ], [ -122.221890124157355, 44.325575537266459 ], [ -122.224321400702095, 44.326762894541595 ], [ -122.22597869517196, 44.326987525295202 ], [ -122.228416430756127, 44.326215049328745 ], [ -122.229710797553935, 44.326512988787684 ], [ -122.23307992565023, 44.326111717196277 ], [ -122.232977119900156, 44.325852714258403 ], [ -122.234428798305714, 44.325559233484725 ], [ -122.235106298025087, 44.324303110423969 ], [ -122.236195026221168, 44.324082984607742 ], [ -122.237434938471367, 44.325231224099461 ], [ -122.238160762947615, 44.325084461558816 ], [ -122.240592306699895, 44.326271520541042 ], [ -122.243132693672607, 44.32575777319564 ], [ -122.244064206113904, 44.326128968309739 ], [ -122.244269903917044, 44.326646957418106 ], [ -122.24649589063641, 44.327315922056087 ], [ -122.24855898696751, 44.330536018482533 ], [ -122.250888025520013, 44.331463908859426 ], [ -122.252702674779655, 44.331096807120232 ], [ -122.253537031754647, 44.329249173962296 ], [ -122.254262864376017, 44.329102322435283 ], [ -122.25494003211621, 44.327846089283213 ], [ -122.255665846683229, 44.327699230535671 ], [ -122.255460058651607, 44.327181257906645 ], [ -122.256185864977553, 44.327034396526756 ], [ -122.2568629764516, 44.32577815897141 ], [ -122.257588764724048, 44.325631290371383 ], [ -122.258265836205183, 44.324375049328488 ], [ -122.259354490355676, 44.324154734131973 ], [ -122.261954163223152, 44.32083050527396 ], [ -122.265116978368823, 44.319910472740496 ], [ -122.267445878535256, 44.320838053135745 ], [ -122.269260153863584, 44.320470733854961 ], [ -122.269157218514309, 44.320211761888039 ], [ -122.272216961847889, 44.319032590469519 ], [ -122.272114017391871, 44.318773621557874 ], [ -122.275016719679357, 44.318185799717803 ], [ -122.275796349379959, 44.317188454570967 ], [ -122.275590439520158, 44.316670524314162 ], [ -122.276213133478478, 44.316264592011009 ], [ -122.276007223240825, 44.315746663386619 ], [ -122.276889766531426, 44.315008280609469 ], [ -122.276683854940998, 44.314490354374584 ], [ -122.277046667616162, 44.31441686826318 ], [ -122.276325992896801, 44.312604130531199 ], [ -122.276585844210459, 44.312271683702612 ], [ -122.275188597946581, 44.311715245900729 ], [ -122.274776823879051, 44.310679395441852 ], [ -122.276438840135469, 44.30894369659719 ], [ -122.28333158795283, 44.30754732200311 ] ] ] } }
]
}
