{
"type": "FeatureCollection",
"name": "basin",
"crs": { "type": "name", "properties": { "name": "urn:ogc:def:crs:OGC:1.3:CRS84" } },
"features": [
{ "type": "Feature", "properties": { }, "geometry": { "type": "Polygon", "coordinates": [ [ [ -122.393987724757025, 44.878551573027508 ], [ -122.392212029073264, 44.878069573651231 ], [ -122.388711977986702, 44.878216164385577 ], [ -122.385996395437175, 44.877363454376628 ], [ -122.382130635064954, 44.87758374664962 ], [ -122.380878079776352, 44.876435472840427 ], [ -122.378632599672315, 44.875767955728641 ], [ -122.377275938874376, 44.874360452839035 ], [ -122.375970385545585, 44.874063593469621 ], [ -122.37508371598318, 44.872841428396903 ], [ -122.373674019917701, 44.872285345959384 ], [ -122.37346565863858, 44.871766940661814 ], [ -122.37252588257293, 44.871396210177892 ], [ -122.369757562750934, 44.871394629357532 ], [ -122.367042495228645, 44.870541548874847 ], [ -122.365945358115582, 44.870763007966303 ], [ -122.365371349640725, 44.870318409542222 ], [ -122.364274210668057, 44.870539854845916 ], [ -122.361924959187789, 44.869612858437833 ], [ -122.360357979316817, 44.869648867259158 ], [ -122.358948471652909, 44.869092634084161 ], [ -122.357645724642254, 44.866833522100627 ], [ -122.356810212028265, 44.866721897414074 ], [ -122.356601997742558, 44.866203472533549 ], [ -122.355870598027664, 44.866351054490181 ], [ -122.355189898357807, 44.867609276647372 ], [ -122.353831157314431, 44.868163637811584 ], [ -122.353673640612655, 44.868755854224879 ], [ -122.35294220676748, 44.868903421070073 ], [ -122.352418959007679, 44.869569419059182 ], [ -122.352627151502517, 44.870087854436534 ], [ -122.352261426602126, 44.870161635722553 ], [ -122.352573717473206, 44.870939290321829 ], [ -122.352050450254396, 44.871605289982945 ], [ -122.351318981910495, 44.871752848937497 ], [ -122.349853185062045, 44.874010056098314 ], [ -122.347762762700683, 44.874711911873938 ], [ -122.347081827066631, 44.875970116995973 ], [ -122.345095393228505, 44.876931160366738 ], [ -122.345199472266259, 44.877190388083662 ], [ -122.341384072574272, 44.878520181269735 ], [ -122.341175940560561, 44.878001718403446 ], [ -122.337625360093767, 44.877036299371738 ], [ -122.335276248899746, 44.876108822252462 ], [ -122.334598361068387, 44.875404852145039 ], [ -122.332091627230469, 44.875069525093949 ], [ -122.331779553700457, 44.874291815436685 ], [ -122.331413783144583, 44.874365540566984 ], [ -122.329541516586346, 44.869699290624226 ], [ -122.329803255355998, 44.869366336308282 ], [ -122.329437509383496, 44.869440055214433 ], [ -122.329125492578328, 44.868662349425719 ], [ -122.327088775851593, 44.868512450831211 ], [ -122.326307057799809, 44.867549214891902 ], [ -122.325105848048779, 44.867511101498991 ], [ -122.322287527868042, 44.866397885408553 ], [ -122.321297964424232, 44.864916148005292 ], [ -122.320512666111895, 44.865914950177739 ], [ -122.318318229718344, 44.866357093275695 ], [ -122.317794659443379, 44.867022952211016 ], [ -122.316435622578126, 44.867576933619922 ], [ -122.315858127557959, 44.869094204652527 ], [ -122.311938666440255, 44.870163888807745 ], [ -122.311153168162321, 44.871162648172138 ], [ -122.31005583736858, 44.871383650217403 ], [ -122.309636080961212, 44.872308736957116 ], [ -122.30853872651825, 44.872529727167539 ], [ -122.308642658054197, 44.872788980620193 ], [ -122.305508492419676, 44.872859735038766 ], [ -122.301222846226565, 44.874002768584916 ], [ -122.300649237503308, 44.873557889876885 ], [ -122.298612436213816, 44.873407557029545 ], [ -122.296263988983867, 44.872479404268411 ], [ -122.296056222960217, 44.871960878619731 ], [ -122.294904664971085, 44.873033174349651 ], [ -122.293441443951451, 44.873327665727523 ], [ -122.293545318606533, 44.873586931353934 ], [ -122.289783335426264, 44.874063825183953 ], [ -122.2898871971354, 44.874323094082136 ], [ -122.288423926157577, 44.874617531577421 ], [ -122.28836967691899, 44.875468950532508 ], [ -122.288003852491897, 44.875542557438216 ], [ -122.288315426308856, 44.876320371129978 ], [ -122.287949597198008, 44.876393978031572 ], [ -122.288468896411345, 44.877690337298944 ], [ -122.28810306002697, 44.877763944850827 ], [ -122.288464257199308, 44.879652462078582 ], [ -122.28663501396467, 44.880020491576929 ], [ -122.284128347475999, 44.879684264350985 ], [ -122.284232196082669, 44.879943540975724 ], [ -122.280677464021863, 44.880938740329867 ], [ -122.280781301277571, 44.881198020374377 ], [ -122.279683707361428, 44.881418778930659 ], [ -122.278793767618666, 44.882158092852293 ], [ -122.278947057329759, 44.883528088289466 ], [ -122.276642964267907, 44.885672435557801 ], [ -122.276954453730085, 44.886450293751984 ], [ -122.276588557174861, 44.886523871370869 ], [ -122.277419220558158, 44.888598165774845 ], [ -122.277053312840408, 44.888671745025398 ], [ -122.277468658540556, 44.889708895320076 ], [ -122.276682421056364, 44.890707497529952 ], [ -122.277147208590847, 44.892855391544373 ], [ -122.276098831421493, 44.894186867778551 ], [ -122.275366951562646, 44.894334019982317 ], [ -122.275208683569019, 44.894926179631497 ], [ -122.272122807112126, 44.896106903973909 ], [ -122.270915966923383, 44.898030509726382 ], [ -122.267780586967291, 44.898100386339721 ], [ -122.265584755654501, 44.89854169892152 ], [ -122.265688561935875, 44.898801001156926 ], [ -122.263022916078341, 44.899056518732479 ], [ -122.260045892775892, 44.898534063706208 ], [ -122.258215981323417, 44.898901721500529 ], [ -122.257691563679103, 44.899567395404119 ], [ -122.25439763498953, 44.900229105442371 ], [ -122.253354357219607, 44.899598204053319 ], [ -122.252256373473855, 44.899818747453359 ], [ -122.249541650678736, 44.898963232376936 ], [ -122.247973928746546, 44.898997930092861 ], [ -122.247192988877444, 44.898034165669138 ], [ -122.245887551291744, 44.897736023776993 ], [ -122.245106655920381, 44.896772250009818 ], [ -122.2447406684946, 44.896845742478526 ], [ -122.242239572638894, 44.894546520053467 ], [ -122.240934224600267, 44.894248332348099 ], [ -122.240049741123684, 44.893025218798144 ], [ -122.236603504730041, 44.892316410056196 ], [ -122.23618877238502, 44.891279127072067 ], [ -122.235822805082989, 44.891352594276519 ], [ -122.233895513503057, 44.889498417132586 ], [ -122.233529553376599, 44.889571877778131 ], [ -122.233218551108536, 44.888793913214968 ], [ -122.232852594072128, 44.888867371894129 ], [ -122.23259656812904, 44.887237986103791 ], [ -122.232962516590263, 44.887164528398714 ], [ -122.23228558741711, 44.886460023555472 ], [ -122.230248549055489, 44.886308647795538 ], [ -122.227900594787286, 44.885379270365064 ], [ -122.225497653296216, 44.885301266382534 ], [ -122.224558504087568, 44.884929487695217 ], [ -122.223778062456788, 44.883965618194964 ], [ -122.222942560018865, 44.883853154973238 ], [ -122.221802798735624, 44.881000569049185 ], [ -122.220863729895171, 44.880628768163433 ], [ -122.218302230149874, 44.881142712560269 ], [ -122.217777556336557, 44.881808203140743 ], [ -122.218295546391545, 44.883104849944949 ], [ -122.216624583978174, 44.882879850455964 ], [ -122.214794861030171, 44.883246902586791 ], [ -122.212916748457829, 44.88250319256835 ], [ -122.212240075843056, 44.881798594111125 ], [ -122.208269939412887, 44.881754542450771 ], [ -122.205818898817299, 44.88056545227446 ], [ -122.203519693807365, 44.880746393014221 ], [ -122.202007718375881, 44.879929157354724 ], [ -122.201275831799208, 44.880075900394324 ], [ -122.19986742177872, 44.87951798229809 ], [ -122.20212556068951, 44.876264259670727 ], [ -122.204321081040831, 44.875824008659244 ], [ -122.204845841189538, 44.875158579882445 ], [ -122.206309488730312, 44.874865054204783 ], [ -122.206205947946899, 44.874605720346359 ], [ -122.208504936121173, 44.874424736103528 ], [ -122.208297839799343, 44.873906072376066 ], [ -122.208663742314982, 44.873832683226873 ], [ -122.207476484401425, 44.869869334404903 ], [ -122.207842365883607, 44.869795948176829 ], [ -122.207531751596477, 44.86901795942476 ], [ -122.207897628393923, 44.86894457318914 ], [ -122.207690553597075, 44.868425915044831 ], [ -122.208056427005644, 44.868352528475519 ], [ -122.207849352806136, 44.867833871280581 ], [ -122.208215222825942, 44.867760484377555 ], [ -122.20800814922373, 44.867241828131874 ], [ -122.208636343491946, 44.866835725313194 ], [ -122.20832573368493, 44.866057743680862 ], [ -122.208691593538774, 44.865984355776696 ], [ -122.208277453107243, 44.864947049276729 ], [ -122.207338682717676, 44.86457516738043 ], [ -122.202009637964323, 44.865083790363954 ], [ -122.201436760720625, 44.864638496583986 ], [ -122.196784003008844, 44.865851537970428 ], [ -122.193753523987766, 44.866179015002878 ], [ -122.19171718568478, 44.866027061051724 ], [ -122.190778491683375, 44.865655062285185 ], [ -122.189998756735704, 44.864691038916995 ], [ -122.187175201712336, 44.86553704779503 ], [ -122.185870659765953, 44.865238344135726 ], [ -122.184041248531301, 44.865604961788151 ], [ -122.184144690146681, 44.8658643074004 ], [ -122.181583471892054, 44.866377532975243 ], [ -122.180064289351066, 44.867522142099517 ], [ -122.177868881131531, 44.867961987551453 ], [ -122.175522289384503, 44.867031732401131 ], [ -122.17322346506144, 44.867212148073456 ], [ -122.17071784309779, 44.866873811043575 ], [ -122.170145157520267, 44.866428381753259 ], [ -122.168681535820497, 44.866721506983573 ], [ -122.167639580174225, 44.866089987803932 ], [ -122.165603303553439, 44.865937637265723 ], [ -122.15995540552683, 44.86762857441078 ], [ -122.155310211962302, 44.866878114864562 ], [ -122.150919085742714, 44.867756958264799 ], [ -122.150139896981983, 44.866792698523454 ], [ -122.147793729011511, 44.865861960599759 ], [ -122.145232234085682, 44.86637449171581 ], [ -122.143824574950685, 44.865816002658512 ], [ -122.14079384056113, 44.866142282560915 ], [ -122.134947901822954, 44.865351344943242 ], [ -122.134534900976618, 44.864313812473306 ], [ -122.134065722591103, 44.864127614459662 ], [ -122.134431652752866, 44.864054429542449 ], [ -122.133708937449597, 44.862238751115925 ], [ -122.134074857738455, 44.862165567489178 ], [ -122.133661889869558, 44.861128039901928 ], [ -122.134027804176284, 44.861054856589767 ], [ -122.131644251238598, 44.857051118601056 ], [ -122.13274193191782, 44.856831584274943 ], [ -122.133633138751193, 44.856093283360948 ], [ -122.136194331001903, 44.855580985915047 ], [ -122.136719606212409, 44.854915854779875 ], [ -122.138914857754742, 44.854476696281957 ], [ -122.139074228409839, 44.853884753038145 ], [ -122.141166173509504, 44.853186185726102 ], [ -122.141062916809148, 44.852926814508905 ], [ -122.142788955091248, 44.852301424437741 ], [ -122.143314139627506, 44.85163627245278 ], [ -122.142797834608032, 44.850339429977275 ], [ -122.14316368039664, 44.850266223536934 ], [ -122.140319847163923, 44.844114611902953 ], [ -122.140685661846476, 44.844041413266424 ], [ -122.14037594172045, 44.843263314983176 ], [ -122.141004319881091, 44.842857551406098 ], [ -122.140797840176887, 44.842338821035781 ], [ -122.141585526101466, 44.841341127069498 ], [ -122.142682918468523, 44.841121519228864 ], [ -122.143208016915821, 44.840456384642053 ], [ -122.142898284141765, 44.839678298552691 ], [ -122.143264071939257, 44.839605093620186 ], [ -122.142072365047184, 44.837603405565908 ], [ -122.142438142478724, 44.837530203233847 ], [ -122.14223166806093, 44.837011481375939 ], [ -122.142756738935461, 44.836346354791452 ], [ -122.141978030151449, 44.835382116856181 ], [ -122.142343795628335, 44.835308915152268 ], [ -122.141827634374209, 44.834012117263555 ], [ -122.142352685866541, 44.833346996808586 ], [ -122.141733312572356, 44.831790846560523 ], [ -122.142099058823177, 44.831717646123487 ], [ -122.141789379016359, 44.830939572969321 ], [ -122.14215512058621, 44.830866372521228 ], [ -122.141535774652326, 44.829310230151549 ], [ -122.140597869156309, 44.828937911328829 ], [ -122.140185004475853, 44.827900482544756 ], [ -122.140550731295264, 44.827827286981616 ], [ -122.14013787414423, 44.826789860674715 ], [ -122.139668941499806, 44.826603698220659 ], [ -122.141243955653238, 44.824608392733886 ], [ -122.142969267039717, 44.823983040721949 ], [ -122.142762830036105, 44.823464335683617 ], [ -122.144440900342985, 44.821728358174965 ], [ -122.14423445891957, 44.821209658063019 ], [ -122.14633410880073, 44.818549209735949 ], [ -122.146127662545226, 44.818030516288459 ], [ -122.146858995372199, 44.817884095026741 ], [ -122.147908737438456, 44.816553862455031 ], [ -122.150158614421514, 44.815263312410714 ], [ -122.149435998647334, 44.813447920798829 ], [ -122.149960814888487, 44.812782801644218 ], [ -122.149651131327246, 44.812004780152456 ], [ -122.148816644677325, 44.811891873698322 ], [ -122.1475692875959, 44.81074159649836 ], [ -122.146472405715301, 44.810961229166367 ], [ -122.144493857069449, 44.809957342231968 ], [ -122.137809295054637, 44.811015502799542 ], [ -122.136140388729345, 44.810789537722499 ], [ -122.13248396130821, 44.811521300299752 ], [ -122.128621162246404, 44.811734251308344 ], [ -122.128358654227199, 44.812066768423719 ], [ -122.1286680923007, 44.812844839220453 ], [ -122.127777402877626, 44.813583034367724 ], [ -122.127983694300355, 44.814101750839093 ], [ -122.12640853314241, 44.816096852808862 ], [ -122.125311495187958, 44.81631631489811 ], [ -122.125152092502844, 44.816908191092601 ], [ -122.123689350581259, 44.817200792062842 ], [ -122.123792485701273, 44.817460155539464 ], [ -122.118775888615218, 44.818743507351108 ], [ -122.116328718934156, 44.817552953417206 ], [ -122.115597323415955, 44.817699207926452 ], [ -122.114190926375144, 44.817140469822604 ], [ -122.11341284813858, 44.816176108100464 ], [ -122.111687462457823, 44.816801068448456 ], [ -122.110749895941382, 44.816428551341957 ], [ -122.106727181856556, 44.817232732795816 ], [ -122.105377381806989, 44.815822673155182 ], [ -122.10313665826385, 44.815150638378199 ], [ -122.100829314045868, 44.817291626684991 ], [ -122.10103540941968, 44.817810388995404 ], [ -122.100510071296625, 44.818475324011615 ], [ -122.093823974763353, 44.819531310396584 ], [ -122.092417720029772, 44.818972341444969 ], [ -122.091423538268288, 44.819450916201419 ], [ -122.090486046911067, 44.819078255067986 ], [ -122.089023107501106, 44.819370479018708 ], [ -122.087936366705307, 44.817627792386503 ], [ -122.08757063814906, 44.817700842653359 ], [ -122.087055665581744, 44.816403885989708 ], [ -122.085752518891269, 44.816104241916356 ], [ -122.085546546358927, 44.815585458116239 ], [ -122.084243422200487, 44.815285799922727 ], [ -122.08299710456761, 44.814134912955438 ], [ -122.080653696927854, 44.8132031122841 ], [ -122.080241851247905, 44.81216553613762 ], [ -122.080607557712653, 44.812092506792659 ], [ -122.07952115181584, 44.810349780713842 ], [ -122.077589705543915, 44.810455506349555 ], [ -122.076013138260052, 44.81244999908931 ], [ -122.074024720113556, 44.813406884126252 ], [ -122.074127658315504, 44.81366628356038 ], [ -122.073030489869723, 44.813885316357826 ], [ -122.073179442444996, 44.815255330073306 ], [ -122.072391049080466, 44.816252562549671 ], [ -122.072596922394212, 44.8167713673541 ], [ -122.070505397403764, 44.817468806548227 ], [ -122.068985432103588, 44.818612028667047 ], [ -122.069191286409861, 44.8191308414847 ], [ -122.068299862667146, 44.81986865163379 ], [ -122.068608643156153, 44.820646874773239 ], [ -122.068082963040652, 44.821311686901545 ], [ -122.068391747636383, 44.822089913093514 ], [ -122.065625474338063, 44.822082053921072 ], [ -122.063625444257454, 44.825000672133378 ], [ -122.060801968343128, 44.825843942413861 ], [ -122.061476495264017, 44.82654921388152 ], [ -122.061110689626702, 44.826622193403992 ], [ -122.061419418040401, 44.827400445061102 ], [ -122.061053607720879, 44.827473424569156 ], [ -122.061773992672357, 44.829289349965251 ], [ -122.061408172483624, 44.829362330754954 ], [ -122.06161400129271, 44.829881167897959 ], [ -122.061979824074982, 44.829808186460177 ], [ -122.062963167069682, 44.831291713357103 ], [ -122.062174434909281, 44.832288922082668 ], [ -122.060814002242424, 44.83284026666 ], [ -122.059236414720871, 44.83483466347154 ], [ -122.05474322829221, 44.835450868519032 ], [ -122.054846125940543, 44.835710295769218 ], [ -122.0533826709934, 44.836002141630281 ], [ -122.053222589978219, 44.836593958592957 ], [ -122.049872507367184, 44.838101798019629 ], [ -122.049083501770085, 44.839098945167819 ], [ -122.048248848563219, 44.83898540540963 ], [ -122.046670745268955, 44.840979682230461 ], [ -122.045573042860028, 44.841198503781371 ], [ -122.044360722669637, 44.843119823610799 ], [ -122.04133052921334, 44.843443838133638 ], [ -122.040541334649603, 44.84444094714457 ], [ -122.040952766179402, 44.845478721479068 ], [ -122.040323761389473, 44.845884018195861 ], [ -122.040529478300485, 44.846402907257279 ], [ -122.038230998693521, 44.84658099978715 ], [ -122.036721796856853, 44.845761965824792 ], [ -122.034423329053013, 44.845939992801249 ], [ -122.031507904661467, 44.844561276472319 ], [ -122.029003839390072, 44.84422030909478 ], [ -122.023617497801837, 44.845573069689856 ], [ -122.02256485044488, 44.84690241522317 ], [ -122.019957963162639, 44.846301818586859 ], [ -122.01886008733473, 44.846520424009391 ], [ -122.017017737036127, 44.848846715563219 ], [ -122.015451066156032, 44.848878691723911 ], [ -122.015553833004844, 44.849138157069817 ], [ -122.01419267875643, 44.849689049499148 ], [ -122.013987154653506, 44.849170116142083 ], [ -122.01127750619797, 44.848309881364848 ], [ -122.01107200875478, 44.847790945173585 ], [ -122.011701207279188, 44.847385783980428 ], [ -122.010821502351646, 44.846161293907272 ], [ -122.011187468494185, 44.846088448427189 ], [ -122.010981978519581, 44.845569514730805 ], [ -122.012343075797773, 44.845018660088307 ], [ -122.012137580185666, 44.844499729431178 ], [ -122.012503535880683, 44.844426880634224 ], [ -122.011578833112637, 44.842091699298393 ], [ -122.01257391571157, 44.84161369247682 ], [ -122.014050295948095, 44.839360353577604 ], [ -122.015148070721253, 44.839141791122621 ], [ -122.014942571430126, 44.838622871724901 ], [ -122.015571661076621, 44.83821770084198 ], [ -122.015160664771642, 44.837179865831409 ], [ -122.014223348835344, 44.836806656187171 ], [ -122.013240998516721, 44.8353227532101 ], [ -122.011045553909199, 44.835759834192096 ], [ -122.009639647713641, 44.83519997603053 ], [ -122.009331481620933, 44.834421591373498 ], [ -122.008394236335093, 44.834048343309703 ], [ -122.006282285573789, 44.829710331502909 ], [ -122.004042089724081, 44.829036618629104 ], [ -122.003265450882793, 44.828071591824852 ], [ -122.001391214505887, 44.827325015416193 ], [ -122.000659464034555, 44.827470645666395 ], [ -122.000454111889397, 44.826951717857831 ], [ -121.996237278583962, 44.825271801677545 ], [ -121.995505539269971, 44.825417403104353 ], [ -121.995300233064796, 44.824898469823083 ], [ -121.995929312675784, 44.824493403806869 ], [ -121.99562135388129, 44.823715006606605 ], [ -121.995987214566753, 44.823642206352339 ], [ -121.994755434950008, 44.820528628130397 ], [ -121.993349981790445, 44.819968618507843 ], [ -121.991783970966424, 44.820000315963796 ], [ -121.990744396657263, 44.819367490614638 ], [ -121.990012709579275, 44.819513060092994 ], [ -121.98850469990704, 44.818693533870736 ], [ -121.986104420377103, 44.818611253155268 ], [ -121.981085121364245, 44.819889451958304 ], [ -121.980045649223896, 44.81925654376834 ], [ -121.979737897794607, 44.818478119343332 ], [ -121.97833261218419, 44.817917954823677 ], [ -121.974205671618961, 44.818458683739443 ], [ -121.970502746450933, 44.818075380834706 ], [ -121.969258320251697, 44.816923429412959 ], [ -121.964413713197857, 44.815647482497106 ], [ -121.955998931962853, 44.817319625475797 ], [ -121.956101421829629, 44.817579117692823 ], [ -121.955003806995379, 44.817797185774033 ], [ -121.954316121263744, 44.819053222330695 ], [ -121.947993578039501, 44.820029245323262 ], [ -121.948096041205105, 44.820288745260328 ], [ -121.945373773728946, 44.82138907436542 ], [ -121.94458341826477, 44.822385567810265 ], [ -121.94411505740031, 44.822198723317946 ], [ -121.94350036478626, 44.820641699793455 ], [ -121.943134463751917, 44.820714356238071 ], [ -121.941802744057938, 44.817340810303598 ], [ -121.941436859112926, 44.817413461567689 ], [ -121.940924701217313, 44.816115945648512 ], [ -121.940558821974861, 44.816188594312869 ], [ -121.939007680660552, 44.814257859350327 ], [ -121.938173521013965, 44.814143640634065 ], [ -121.937397996940291, 44.81317826501499 ], [ -121.934017716102858, 44.811610666766427 ], [ -121.933710531138289, 44.81083215023429 ], [ -121.933344672801496, 44.810904778327874 ], [ -121.933037498826863, 44.810126261499491 ], [ -121.932101014061701, 44.809752500655662 ], [ -121.931896243699555, 44.80923348881808 ], [ -121.930491548542335, 44.808672834386357 ], [ -121.929393995921785, 44.808890688268711 ], [ -121.926584684885029, 44.807769313793827 ], [ -121.925018926461576, 44.807800230100661 ], [ -121.923673118505377, 44.806388372774016 ], [ -121.923146120869617, 44.807052594035952 ], [ -121.916663039065213, 44.808618735300669 ], [ -121.914790303416169, 44.807870981046335 ], [ -121.908365944135696, 44.80858559073976 ], [ -121.908468237350931, 44.808845114213682 ], [ -121.907004733682243, 44.809135343631404 ], [ -121.907107022491033, 44.809394868468175 ], [ -121.90381408147438, 44.810047829803104 ], [ -121.903652749210025, 44.810639432464725 ], [ -121.901457399449541, 44.811074693535112 ], [ -121.901296044043818, 44.81166629473708 ], [ -121.899891552780815, 44.81110531640951 ], [ -121.895602994823875, 44.812235215956754 ], [ -121.891900859818819, 44.811849746440288 ], [ -121.890028309162702, 44.811101640600768 ], [ -121.888198767160802, 44.811464174966517 ], [ -121.884921921439485, 44.810154884007275 ], [ -121.880896899184918, 44.810952271909777 ], [ -121.879228861784881, 44.810723107515699 ], [ -121.877620220187026, 44.809642803890966 ], [ -121.873390820209224, 44.809920869538516 ], [ -121.871416377148222, 44.808912956431733 ], [ -121.864727660273857, 44.809957485597209 ], [ -121.863246934459212, 44.812209026237369 ], [ -121.861783163215051, 44.812498763856389 ], [ -121.861885283004156, 44.812758325170265 ], [ -121.858591740002453, 44.813410179933143 ], [ -121.856617416049716, 44.812402040763104 ], [ -121.853953661052728, 44.812649377328825 ], [ -121.853162056939084, 44.813645311319945 ], [ -121.853366234380829, 44.814164448513523 ], [ -121.852370429432753, 44.814641242885664 ], [ -121.849460087593542, 44.813258667901302 ], [ -121.844702518436435, 44.814199770091925 ], [ -121.843400495972503, 44.813897771451508 ], [ -121.841936602779739, 44.814187293349974 ], [ -121.840064541989165, 44.813438485335503 ], [ -121.839332594788161, 44.813583229885374 ], [ -121.837826551640575, 44.812762019970137 ], [ -121.835162713526515, 44.813008983146098 ], [ -121.834226731922058, 44.812634535929057 ], [ -121.832396848515899, 44.812996309505913 ], [ -121.831094904442836, 44.812694192112062 ], [ -121.831358880030507, 44.812362258569095 ], [ -121.831052877477958, 44.811583505793479 ], [ -121.832210749782064, 44.810515356276319 ], [ -121.831802746006758, 44.809477026337859 ], [ -121.832168705790124, 44.809404675798632 ], [ -121.831964706016379, 44.808885511923023 ], [ -121.832492616196831, 44.808221646876078 ], [ -121.831838593407653, 44.805553490927757 ], [ -121.82689543697775, 44.80401302693862 ], [ -121.82581572367539, 44.802268281801616 ], [ -121.82404613040994, 44.801778852474548 ], [ -121.82327238335148, 44.800812844056836 ], [ -121.821502846754257, 44.800323382748019 ], [ -121.820405078604935, 44.800540339534948 ], [ -121.820669059233353, 44.800208436200371 ], [ -121.819853544509868, 44.798131755753829 ], [ -121.820381489736292, 44.797467954607164 ], [ -121.819769880488536, 44.795910452170851 ], [ -121.820135779542809, 44.795838136722537 ], [ -121.819931913474164, 44.795318970484793 ], [ -121.819566017018786, 44.795391285291338 ], [ -121.818852519598835, 44.793574203571517 ], [ -121.816513486044869, 44.792637830269484 ], [ -121.818625164040199, 44.789982704831019 ], [ -121.819356899483381, 44.789838081139173 ], [ -121.818643466461097, 44.788021021118929 ], [ -121.818277608226381, 44.788093331212991 ], [ -121.817300281381677, 44.786608159365834 ], [ -121.814655818961413, 44.784893030542733 ], [ -121.8143501339582, 44.784114288054191 ], [ -121.812479214449368, 44.783365145640971 ], [ -121.812071678764696, 44.782326819430267 ], [ -121.812701460626471, 44.781922653315362 ], [ -121.812497693863179, 44.78140349208919 ], [ -121.810038748842487, 44.782169099760132 ], [ -121.809469168722643, 44.781722219188168 ], [ -121.807639991397423, 44.782083629345301 ], [ -121.806236896037575, 44.781521707144236 ], [ -121.806764845253738, 44.780857984583996 ], [ -121.806255556533458, 44.779560062618032 ], [ -121.804384853307866, 44.778810814836916 ], [ -121.804181159974519, 44.778291644604394 ], [ -121.80005525516404, 44.778826960793907 ], [ -121.799444284423998, 44.777269431180635 ], [ -121.796842082791585, 44.776664592476891 ], [ -121.796536640794841, 44.775885823803094 ], [ -121.796902456104746, 44.775813575086147 ], [ -121.795416747159535, 44.773030344401384 ], [ -121.79318054574388, 44.772353195235389 ], [ -121.79161554995089, 44.772382550083684 ], [ -121.791453323742275, 44.772973966865308 ], [ -121.790457689514611, 44.773450256617664 ], [ -121.788953137852502, 44.772628572022384 ], [ -121.787489906958427, 44.772917472034386 ], [ -121.787286361487503, 44.772398283011121 ], [ -121.786087170221819, 44.772355350369331 ], [ -121.785050262674147, 44.77172099904756 ], [ -121.78368879227186, 44.772269452882668 ], [ -121.783119470380115, 44.771822470245418 ], [ -121.780660541311804, 44.772587521976625 ], [ -121.780762288436222, 44.772847121596534 ], [ -121.779928910117931, 44.772731928639374 ], [ -121.778201556455414, 44.773352529875183 ], [ -121.777937471981588, 44.773684329363306 ], [ -121.778344429869165, 44.774722739131938 ], [ -121.776210075598996, 44.774304906243444 ], [ -121.774116812924248, 44.77499764903898 ], [ -121.772896167164745, 44.771882382845867 ], [ -121.772530347472838, 44.771954565346363 ], [ -121.772123495809694, 44.770916144388011 ], [ -121.770558524239576, 44.770945253059857 ], [ -121.770355115066678, 44.770426040616627 ], [ -121.769521784446525, 44.770310783523747 ], [ -121.769785897112357, 44.769979003153772 ], [ -121.769175705575904, 44.76842136658663 ], [ -121.768342401740938, 44.768306102674671 ], [ -121.767935636566804, 44.767267677524416 ], [ -121.766533180339778, 44.766705358200582 ], [ -121.763606771053972, 44.767282644766823 ], [ -121.763098415399256, 44.765984598525428 ], [ -121.762265152058788, 44.765869297427699 ], [ -121.761960158201603, 44.765090468880501 ], [ -121.761594363646552, 44.765162620403125 ], [ -121.76139104092006, 44.764643401104124 ], [ -121.762122624050704, 44.764499098350733 ], [ -121.761817638035268, 44.763720271879542 ], [ -121.759744564513127, 44.762451210988537 ], [ -121.761898387011072, 44.760907739414264 ], [ -121.76139011227761, 44.759609705298125 ], [ -121.761755876937315, 44.759537555234402 ], [ -121.761552569923381, 44.759018342747588 ], [ -121.761918331202594, 44.758946192335991 ], [ -121.761715024720587, 44.758426980785835 ], [ -121.762243231187639, 44.757763468305306 ], [ -121.763706241436424, 44.757474854001124 ], [ -121.764600167304025, 44.756739177704816 ], [ -121.766164811857067, 44.756710139594894 ], [ -121.768034477508223, 44.757459883883584 ], [ -121.768806936148891, 44.758426116685634 ], [ -121.770371618019738, 44.758397029304554 ], [ -121.770981746488388, 44.759954625300772 ], [ -121.772444766864908, 44.759665914091528 ], [ -121.772505432762713, 44.758814940287074 ], [ -121.773135232117269, 44.758410981646342 ], [ -121.772830146478455, 44.757632190922379 ], [ -121.77392736922188, 44.75741564497924 ], [ -121.774719482949223, 44.756420305851371 ], [ -121.774678419189812, 44.755309743145773 ], [ -121.775572196695535, 44.754573997176131 ], [ -121.775165403034308, 44.75353562604495 ], [ -121.775531120021526, 44.753463439336336 ], [ -121.775652361263951, 44.751761514238659 ], [ -121.777480887676589, 44.751400565609565 ], [ -121.777379185526428, 44.751140976014668 ], [ -121.779735660410424, 44.750116434218889 ], [ -121.779633951519727, 44.74985684708485 ], [ -121.783392560783099, 44.749394403409056 ], [ -121.783290838909295, 44.749134819473838 ], [ -121.786581970627097, 44.748484910220355 ], [ -121.786480237852132, 44.748225329238181 ], [ -121.789405624644601, 44.747647567557593 ], [ -121.78930388226749, 44.747387989208669 ], [ -121.790766551680264, 44.747099085957394 ], [ -121.790664804893822, 44.74683950896204 ], [ -121.792025705390841, 44.746291015555279 ], [ -121.792086112275783, 44.745440058443045 ], [ -121.792451767266371, 44.745367826826886 ], [ -121.79224826673034, 44.744848677486409 ], [ -121.79261391834207, 44.744776445523115 ], [ -121.792410418342115, 44.744257297117223 ], [ -121.793405607972474, 44.74378102409198 ], [ -121.79356774687318, 44.743189643735896 ], [ -121.794299028504696, 44.743045172151248 ], [ -121.795354549249097, 44.741717934890943 ], [ -121.795151037385907, 44.741198794208934 ], [ -121.795780536695233, 44.740794745028786 ], [ -121.795577024338954, 44.740275606067797 ], [ -121.796572132883071, 44.739799313750495 ], [ -121.797363705712598, 44.738803880009947 ], [ -121.797424038569943, 44.73795293476276 ], [ -121.798784704870712, 44.737404383566748 ], [ -121.798581179626098, 44.73688525311362 ], [ -121.800367705693176, 44.735413498129013 ], [ -121.799960645987454, 44.734375246955437 ], [ -121.800326232584084, 44.734302995621157 ], [ -121.799715658729667, 44.732745622980133 ], [ -121.799248321645891, 44.732558310224988 ], [ -121.799775956509208, 44.731894688206992 ], [ -121.801238245229584, 44.731605680570127 ], [ -121.801927887852642, 44.730350678634593 ], [ -121.803552152325494, 44.729470274196338 ], [ -121.802881293446035, 44.728763861722101 ], [ -121.802150184962571, 44.72890837557145 ], [ -121.800179176639503, 44.727899596899597 ], [ -121.799448071733522, 44.728044095709613 ], [ -121.797477129052155, 44.72703527919424 ], [ -121.79627873743182, 44.726992442172033 ], [ -121.796075262868982, 44.726473319994135 ], [ -121.794775150685652, 44.726170908608239 ], [ -121.794571690167075, 44.725651785097085 ], [ -121.795728665418508, 44.724584157467376 ], [ -121.79552520234887, 44.724065037245154 ], [ -121.795890737838135, 44.723992799689888 ], [ -121.795687275304658, 44.723473680399451 ], [ -121.796214874155751, 44.722810085888334 ], [ -121.795095874856443, 44.719954943653462 ], [ -121.795725176338848, 44.719550913919086 ], [ -121.795683789369377, 44.718440449322806 ], [ -121.79631307320966, 44.718036418188731 ], [ -121.795601019516425, 44.716219528341867 ], [ -121.795966512431278, 44.716147291843981 ], [ -121.795763072967205, 44.715628181754305 ], [ -121.797345652167408, 44.713637428868957 ], [ -121.798442081012524, 44.713420703368115 ], [ -121.799964253067799, 44.712280824615 ], [ -121.803984346094936, 44.711486044771625 ], [ -121.804553297206212, 44.711932878298398 ], [ -121.805547924529392, 44.711456549408922 ], [ -121.803818282652117, 44.707044292858207 ], [ -121.804183717087412, 44.706972035394401 ], [ -121.803878505753076, 44.706193405021992 ], [ -121.801584182969705, 44.7063673840265 ], [ -121.800363510764299, 44.703252846926894 ], [ -121.799327530530832, 44.702618704245339 ], [ -121.798818975053123, 44.701320981427067 ], [ -121.797417631719753, 44.700759068483627 ], [ -121.796909126969879, 44.699461343771112 ], [ -121.796543725408853, 44.699533580160654 ], [ -121.796197253166426, 44.697644532214319 ], [ -121.794430617031523, 44.697154826639945 ], [ -121.793251772770674, 44.695150693128483 ], [ -121.793880854067666, 44.694746694369897 ], [ -121.793839512641497, 44.693636290496691 ], [ -121.795259634158143, 44.692236972362508 ], [ -121.795056272181895, 44.691717888804803 ], [ -121.797165637521644, 44.689063701694771 ], [ -121.798525320634184, 44.688515212880731 ], [ -121.79921457353548, 44.687260345324724 ], [ -121.800310568021374, 44.6870436172197 ], [ -121.800837836753331, 44.686380058263431 ], [ -121.80043106543701, 44.685341921883214 ], [ -121.800796386031521, 44.685269677152725 ], [ -121.800389622042516, 44.684231543201427 ], [ -121.800754936673187, 44.684159298761926 ], [ -121.800246492800113, 44.68286163453817 ], [ -121.800611800171708, 44.682789390708827 ], [ -121.800306739342901, 44.682010793995453 ], [ -121.800672042046486, 44.681938550137758 ], [ -121.800487469861054, 44.679458281824893 ], [ -121.80127827761433, 44.678462958657761 ], [ -121.800811311887799, 44.678275673979321 ], [ -121.800302911235377, 44.676978026877421 ], [ -121.799937634974086, 44.677050268933641 ], [ -121.799143082571419, 44.67301285807801 ], [ -121.800988134511471, 44.670690485154289 ], [ -121.800479787567738, 44.669392860493929 ], [ -121.800845021828394, 44.669320618180528 ], [ -121.800600249224743, 44.667691231478841 ], [ -121.801127364011535, 44.667027699799092 ], [ -121.800110739451924, 44.664432474324919 ], [ -121.800739493579215, 44.664028470794626 ], [ -121.800231201559797, 44.662730864283247 ], [ -121.801387009490099, 44.661663336859682 ], [ -121.801183692482269, 44.661144297734772 ], [ -121.801710750438318, 44.660480773345782 ], [ -121.800999158335216, 44.658664144118461 ], [ -121.801364334020988, 44.658591902097911 ], [ -121.800957721971429, 44.657553831097282 ], [ -121.801322891698092, 44.65748158936676 ], [ -121.801119587771666, 44.656962554931695 ], [ -121.800754420633893, 44.657034796024384 ], [ -121.800712989293075, 44.655924486916092 ], [ -121.799414214283416, 44.655622167916064 ], [ -121.799109289962942, 44.654843615208868 ], [ -121.798744132131418, 44.654915850474417 ], [ -121.798439218723829, 44.654137297451136 ], [ -121.799067887010452, 44.653733310953157 ], [ -121.798924849201001, 44.652363493180971 ], [ -121.799289993040304, 44.652291257828132 ], [ -121.797645025410532, 44.650100081898081 ], [ -121.798010158382567, 44.650027850400285 ], [ -121.797705275500448, 44.649249304085743 ], [ -121.79807040380895, 44.649177072558722 ], [ -121.797562274819626, 44.647879498382089 ], [ -121.798352755977348, 44.646884261884054 ], [ -121.799082984860021, 44.646739795060228 ], [ -121.799609951057747, 44.646076300009028 ], [ -121.799406694619989, 44.645557276007509 ], [ -121.799771801152019, 44.645485040421271 ], [ -121.799425515852661, 44.643596226540026 ], [ -121.798390459282885, 44.642962160253646 ], [ -121.798755552875178, 44.642889927854796 ], [ -121.798002848531937, 44.639963082335079 ], [ -121.800091682608013, 44.63927017451087 ], [ -121.801408908260186, 44.63761145210708 ], [ -121.802869149365435, 44.63732248702722 ], [ -121.802767521405201, 44.637062982462318 ], [ -121.804126112489428, 44.636514499671513 ], [ -121.803922850123982, 44.635995493444447 ], [ -121.804287900150726, 44.635923247044275 ], [ -121.803678124031677, 44.634366231969928 ], [ -121.805928493346229, 44.633081993071364 ], [ -121.805725227461821, 44.632562993495867 ], [ -121.807042184032298, 44.630904240017649 ], [ -121.80673728337193, 44.63012574702023 ], [ -121.807730691062488, 44.629649488031902 ], [ -121.807527421660936, 44.629130495105237 ], [ -121.808419172519251, 44.628394735953272 ], [ -121.808114267317663, 44.62761625038133 ], [ -121.808479267588908, 44.627543993864528 ], [ -121.8076662110565, 44.625468037983822 ], [ -121.808031200201881, 44.625395783030697 ], [ -121.80762468549905, 44.624357808052309 ], [ -121.807989668691405, 44.62428555338839 ], [ -121.807421432831333, 44.623838820984815 ], [ -121.80778641343764, 44.623766566958025 ], [ -121.807583161306226, 44.623247580808751 ], [ -121.80867809068323, 44.623030814728949 ], [ -121.809569748509688, 44.622295057737432 ], [ -121.809426564363193, 44.620925345796771 ], [ -121.809791527087867, 44.620853086756043 ], [ -121.809588268319629, 44.620334106967555 ], [ -121.809953227677966, 44.620261847578824 ], [ -121.809749969446301, 44.619742868708038 ], [ -121.810276620368953, 44.619079370933513 ], [ -121.809971735802051, 44.618300905485285 ], [ -121.811551617295464, 44.616310412487614 ], [ -121.8110850525795, 44.616123189286292 ], [ -121.810272053409889, 44.614047301170579 ], [ -121.806682869320028, 44.613919133713303 ], [ -121.80647965528243, 44.613400157072007 ], [ -121.805648199210864, 44.613285164873126 ], [ -121.804835401197678, 44.611209256572103 ], [ -121.803334286265112, 44.610388029275839 ], [ -121.802604459262938, 44.610532507801217 ], [ -121.801893369049409, 44.608716082525007 ], [ -121.802156691404122, 44.608384357255936 ], [ -121.801791787853659, 44.60845659347946 ], [ -121.800411127394426, 44.60593393892205 ], [ -121.799579773506025, 44.605818910846459 ], [ -121.799071941516573, 44.604521465733846 ], [ -121.7998017111575, 44.604377008396476 ], [ -121.800226772335094, 44.603454084708268 ], [ -121.800956527982066, 44.603309621400967 ], [ -121.80071199174391, 44.601680471059105 ], [ -121.801076859863471, 44.601608238852592 ], [ -121.800670595031363, 44.600570296712434 ], [ -121.800305732081014, 44.600642527646066 ], [ -121.800001045522478, 44.599864070817972 ], [ -121.798703350903239, 44.599561782066523 ], [ -121.797932280382483, 44.598596061474105 ], [ -121.795701823898625, 44.597919216110284 ], [ -121.794381849128911, 44.594545882260057 ], [ -121.794017011979051, 44.594618095073884 ], [ -121.793813953215846, 44.594099121042959 ], [ -121.795758566955598, 44.592036708051758 ], [ -121.795717257502531, 44.590926555506485 ], [ -121.797033648479399, 44.589268051566066 ], [ -121.796729050870979, 44.588489606570057 ], [ -121.797093852046672, 44.588417387314884 ], [ -121.796950992433395, 44.587047763315709 ], [ -121.79757904572179, 44.586643843154043 ], [ -121.797375983566056, 44.586124883546297 ], [ -121.797902494027923, 44.58546148320314 ], [ -121.797496374971345, 44.584423567917327 ], [ -121.798124400620623, 44.584019647497477 ], [ -121.797921342160947, 44.583500691680506 ], [ -121.798447826832771, 44.582837292973998 ], [ -121.798143241915326, 44.582058862090726 ], [ -121.800230285505492, 44.581366039768881 ], [ -121.799316510109819, 44.579030768645104 ], [ -121.798850236547935, 44.578843517953402 ], [ -121.799741418554405, 44.578107897435146 ], [ -121.799436840049637, 44.577329477500378 ], [ -121.800226468790441, 44.576334383406184 ], [ -121.799718845854045, 44.575037024032845 ], [ -121.799354119679478, 44.575109248354941 ], [ -121.799617323604608, 44.574777552365163 ], [ -121.799008206471939, 44.573220723807481 ], [ -121.800993444616395, 44.57226843206417 ], [ -121.800790399428124, 44.571749493852984 ], [ -121.801418287673684, 44.571345569068079 ], [ -121.800158692529521, 44.567121860283166 ], [ -121.800888056210908, 44.566977408763925 ], [ -121.801576026532729, 44.565722863355475 ], [ -121.803196341683147, 44.564842782138179 ], [ -121.801978149649898, 44.561729227206527 ], [ -121.802342800853594, 44.561656997815369 ], [ -121.802038266501498, 44.560878611579852 ], [ -121.802402913053953, 44.560806382157573 ], [ -121.802199891466117, 44.560287458978948 ], [ -121.80282766486431, 44.559883537601465 ], [ -121.802624642787663, 44.559364616105078 ], [ -121.803150893409224, 44.558701233596466 ], [ -121.802804958103366, 44.556812786028964 ], [ -121.803169581912925, 44.556740555149034 ], [ -121.802865060184502, 44.55596217908014 ], [ -121.803229679343474, 44.555889948169032 ], [ -121.803188269332949, 44.554779885014732 ], [ -121.805860664341836, 44.552573037422412 ], [ -121.806954455064442, 44.552356318789258 ], [ -121.806751423919778, 44.5518374120144 ], [ -121.807379091694344, 44.551433476626052 ], [ -121.806788587291095, 44.547916120611987 ], [ -121.807840818366728, 44.546589354496085 ], [ -121.811283370027724, 44.545347987279705 ], [ -121.812335472976159, 44.544021193103802 ], [ -121.814056657995764, 44.543400465678559 ], [ -121.814319666428148, 44.543068763487042 ], [ -121.81381202284507, 44.541771551073431 ], [ -121.814804083162443, 44.541295331046904 ], [ -121.81585605400987, 44.539968520733098 ], [ -121.815652991761027, 44.53944964136965 ], [ -121.816280491421395, 44.539045674947204 ], [ -121.816077428687137, 44.538526797261561 ], [ -121.816603385252051, 44.537863391610216 ], [ -121.816257180961458, 44.53597506387343 ], [ -121.816621678079116, 44.535902799518233 ], [ -121.815809473103911, 44.533827306536303 ], [ -121.815444986302396, 44.533899568351124 ], [ -121.815038907662981, 44.53286182221661 ], [ -121.814674425240625, 44.532934081777569 ], [ -121.813802374155614, 44.531709156035859 ], [ -121.814166850909402, 44.531636899046113 ], [ -121.813516223726438, 44.528970283862208 ], [ -121.814042131107712, 44.528306901952938 ], [ -121.813230096467322, 44.526231427216103 ], [ -121.813857487989466, 44.525827483677737 ], [ -121.810549819457478, 44.518376190388821 ], [ -121.809516574094772, 44.517742382725757 ], [ -121.809110683356266, 44.51670465461482 ], [ -121.813220536537557, 44.516169368592756 ], [ -121.813746347319096, 44.515506006096757 ], [ -121.81483951357238, 44.515289240185901 ], [ -121.815365301640952, 44.514625872565638 ], [ -121.814493474010561, 44.51340099953709 ], [ -121.815545017277003, 44.512074271270642 ], [ -121.817205478691051, 44.512304077020964 ], [ -121.818441715538981, 44.51345666361658 ], [ -121.819433328126635, 44.512980438201595 ], [ -121.820383261220627, 44.511394251818125 ], [ -121.821476339779153, 44.511177433467168 ], [ -121.822527711569947, 44.509850656520797 ], [ -121.823620758320558, 44.509633821326069 ], [ -121.825358997005665, 44.507052522635156 ], [ -121.826451989483445, 44.506835665555109 ], [ -121.826613272108361, 44.50624455223214 ], [ -121.827341923158286, 44.506099975231429 ], [ -121.828918674541171, 44.504109760478123 ], [ -121.832460218417125, 44.503127369902209 ], [ -121.834036750007343, 44.501137107354296 ], [ -121.833994868217204, 44.500027184555812 ], [ -121.834783086925512, 44.499032052088658 ], [ -121.836138647879977, 44.498483408176597 ], [ -121.836299825990309, 44.497892293720668 ], [ -121.837028366414074, 44.497747666423976 ], [ -121.837452250342167, 44.496824837030857 ], [ -121.843823225023712, 44.493043793721974 ], [ -121.84513653358627, 44.491385166229371 ], [ -121.846957656475496, 44.49102347504617 ], [ -121.847076632634028, 44.489322463670582 ], [ -121.848652412863032, 44.487332087232481 ], [ -121.848449257138938, 44.486813316359573 ], [ -121.84907607307575, 44.486409241461558 ], [ -121.848932377123631, 44.485039974274741 ], [ -121.849296565057315, 44.484967628623522 ], [ -121.84842450548696, 44.483743054998307 ], [ -121.845265846983111, 44.482693121661427 ], [ -121.843683034049533, 44.479652830757935 ], [ -121.843318868711833, 44.479725160267677 ], [ -121.842912687787987, 44.478687619381169 ], [ -121.843539461530341, 44.478283577493919 ], [ -121.843234828621931, 44.477505424624042 ], [ -121.843861589495276, 44.477101382241244 ], [ -121.84365850118958, 44.476582615392175 ], [ -121.844708900933711, 44.475255761854072 ], [ -121.843752999449976, 44.471811475196809 ], [ -121.844117121753413, 44.471739145721294 ], [ -121.843914047576035, 44.471220385183884 ], [ -121.847191090132966, 44.47056938139098 ], [ -121.847089542632062, 44.470310004074662 ], [ -121.849071086829028, 44.469357208599 ], [ -121.849232082683656, 44.468766115253636 ], [ -121.852144861449887, 44.468187336052303 ], [ -121.85204329854281, 44.46792796382131 ], [ -121.853499664103325, 44.467638551906994 ], [ -121.855260739140206, 44.468127233551009 ], [ -121.859993850904218, 44.467186472796392 ], [ -121.860095443158613, 44.467445838564544 ], [ -121.861551763919408, 44.467156339042326 ], [ -121.86207672046443, 44.466492855721825 ], [ -121.866911239147001, 44.465811216087801 ], [ -121.868308296635306, 44.466372114435309 ], [ -121.869485378608985, 44.468374589967766 ], [ -121.871610665213325, 44.4687906572793 ], [ -121.872584595891965, 44.470274398144269 ], [ -121.873617706974656, 44.470907653242264 ], [ -121.874345877227043, 44.470762830571111 ], [ -121.875379012238952, 44.471396072687561 ], [ -121.87564144047397, 44.471064300973666 ], [ -121.877199435741531, 44.471033984230765 ], [ -121.878596686247491, 44.47159478105776 ], [ -121.882237490039046, 44.47087049146387 ], [ -121.884100547001694, 44.471618146846815 ], [ -121.885556854813132, 44.471328382702829 ], [ -121.885091084687303, 44.471141476384389 ], [ -121.884582624666081, 44.469844733228243 ], [ -121.886156848784267, 44.467853996670506 ], [ -121.88724901348202, 44.467636659941597 ], [ -121.887773721891691, 44.466973074844802 ], [ -121.887468631495807, 44.466195041787152 ], [ -121.887832676849669, 44.466122593868896 ], [ -121.887629284576676, 44.465603906126027 ], [ -121.888153973504885, 44.464940322401198 ], [ -121.890134782449167, 44.463986927955105 ], [ -121.892361769844484, 44.464662002054119 ], [ -121.894181921421435, 44.464299687055025 ], [ -121.894749390526087, 44.46474589678644 ], [ -121.896467804199148, 44.464124212860689 ], [ -121.898330832639687, 44.464871658784524 ], [ -121.902961366225455, 44.46367004545472 ], [ -121.90446043585591, 44.464489893990127 ], [ -121.905916503164192, 44.464199911998428 ], [ -121.908143654893337, 44.464874722924101 ], [ -121.909963727703257, 44.464512192428515 ], [ -121.910997100398575, 44.465145150254564 ], [ -121.914010989571011, 44.464824350272899 ], [ -121.916704059782973, 44.465685822269613 ], [ -121.918160100356317, 44.465395705899915 ], [ -121.922818434640376, 44.467263521737294 ], [ -121.923022101491128, 44.467782157621727 ], [ -121.923750132341851, 44.467637066274072 ], [ -121.924783681621605, 44.468269921499484 ], [ -121.925875728932056, 44.468052268358676 ], [ -121.927273320925266, 44.468612551745231 ], [ -121.927477025963043, 44.469131182315657 ], [ -121.929238673291664, 44.469618888764536 ], [ -121.930417613820907, 44.471620840076099 ], [ -121.93015545192425, 44.4719527198788 ], [ -121.93248497800802, 44.472886450778141 ], [ -121.932790615918947, 44.473664391868127 ], [ -121.935120237252391, 44.474598080154784 ], [ -121.935848315469897, 44.474452920678367 ], [ -121.937348022106377, 44.475272418382879 ], [ -121.938440141974624, 44.475054659145911 ], [ -121.939007992917908, 44.475500690758921 ], [ -121.940566061557291, 44.475469633706702 ], [ -121.941599887624633, 44.476102369185121 ], [ -121.943623933211811, 44.476257987336751 ], [ -121.944555869501428, 44.476631393702753 ], [ -121.944759731082314, 44.477150006726518 ], [ -121.945851857396278, 44.476932185947611 ], [ -121.947977881372964, 44.477347044062242 ], [ -121.949798076028699, 44.476983960463301 ], [ -121.952856123591459, 44.477772105033537 ], [ -121.962408788970379, 44.478103105665006 ], [ -121.965933079111636, 44.47907759177086 ], [ -121.969311353300156, 44.478682868917872 ], [ -121.971539613059036, 44.479356642029593 ], [ -121.9722097588823, 44.480061823991932 ], [ -121.974131944420691, 44.479957693355914 ], [ -121.978996964116348, 44.482342178538794 ], [ -121.979725031457079, 44.482196777230243 ], [ -121.980759326245561, 44.482829218280976 ], [ -121.983613817931897, 44.483098102511917 ], [ -121.986308500383615, 44.483958202567337 ], [ -121.989322869328731, 44.48363568823153 ], [ -121.992745708249174, 44.484350200947461 ], [ -121.996283835241826, 44.483363506268851 ], [ -121.998352789214323, 44.484628127609511 ], [ -121.998659237150989, 44.485405937075676 ], [ -121.999023266563128, 44.485333182793077 ], [ -121.999227571669763, 44.485851722125453 ], [ -121.998863539688344, 44.485924477045963 ], [ -121.999987259601909, 44.488776451548681 ], [ -122.000351305714901, 44.488703693119476 ], [ -122.001270794922348, 44.491037129810145 ], [ -122.001998907925881, 44.490891604263759 ], [ -122.001794566372453, 44.490373063595683 ], [ -122.002944250831519, 44.489304196588698 ], [ -122.003001777919053, 44.48845362487144 ], [ -122.006016267476269, 44.488130730315575 ], [ -122.006686859353479, 44.488835752258872 ], [ -122.008551784045181, 44.489581697605608 ], [ -122.00927986573366, 44.489436132784064 ], [ -122.012077335868369, 44.490554988549299 ], [ -122.012895038201606, 44.492629090597134 ], [ -122.01362314333123, 44.492483501129897 ], [ -122.01559047214262, 44.49348861673996 ], [ -122.015999388600704, 44.494525662977374 ], [ -122.017034210732064, 44.495157839430689 ], [ -122.01821619298569, 44.497159123021682 ], [ -122.017852120601077, 44.497231931504253 ], [ -122.018158849727484, 44.498009717111124 ], [ -122.015961868376635, 44.500407010540975 ], [ -122.016779808823884, 44.502481132477904 ], [ -122.017712509686149, 44.502854048608363 ], [ -122.018121515260873, 44.503891109119998 ], [ -122.020817464192021, 44.504750550392842 ], [ -122.022101998440291, 44.507011105467456 ], [ -122.02339891250395, 44.507311163816269 ], [ -122.024172157959214, 44.508275390336557 ], [ -122.026982843378875, 44.507433482802625 ], [ -122.028746204211373, 44.507919914749806 ], [ -122.030930901453033, 44.507482860805581 ], [ -122.033058406133705, 44.507896389995523 ], [ -122.03384378720601, 44.506900067223782 ], [ -122.037382493630375, 44.505912235221132 ], [ -122.037906025784125, 44.505248006178519 ], [ -122.04263918568148, 44.504300691867584 ], [ -122.04274153358692, 44.50455993859385 ], [ -122.044823676319695, 44.503863413912967 ], [ -122.046120630769124, 44.50416324944505 ], [ -122.04757694304098, 44.503871696833166 ], [ -122.047474577651755, 44.503612454197309 ], [ -122.049556642510424, 44.502915857091928 ], [ -122.049715966503015, 44.502324480764401 ], [ -122.053356585993228, 44.501595474575765 ], [ -122.056928946883858, 44.503677462430609 ], [ -122.060046269556423, 44.503612572023144 ], [ -122.064506280153097, 44.504957122199457 ], [ -122.067987714491352, 44.504819109176843 ], [ -122.06902317958739, 44.505450896304602 ], [ -122.070115361710606, 44.505232045292146 ], [ -122.072709558598305, 44.505831214123347 ], [ -122.074632320412164, 44.505725629856606 ], [ -122.075098851247006, 44.505911887806185 ], [ -122.075918670806232, 44.507985671344564 ], [ -122.07555460232544, 44.508058638923991 ], [ -122.075862043762939, 44.508836309788727 ], [ -122.075497970644264, 44.50890927734671 ], [ -122.075646301997836, 44.510278366538806 ], [ -122.074861497328726, 44.511274942413806 ], [ -122.074133321904824, 44.511420871852565 ], [ -122.072040363312922, 44.514078384785414 ], [ -122.069184214337014, 44.513811374712233 ], [ -122.062368484968957, 44.515456496842667 ], [ -122.060240563514057, 44.515043428174408 ], [ -122.06003570267201, 44.514524949982466 ], [ -122.05780540429194, 44.513852604551637 ], [ -122.057498147605003, 44.51307488374345 ], [ -122.054596590649481, 44.511697684755035 ], [ -122.050124812887077, 44.512313294480855 ], [ -122.050329591086353, 44.512831785420609 ], [ -122.049703733729501, 44.513236827715673 ], [ -122.050215684033319, 44.514533059740423 ], [ -122.047757541795988, 44.517263108484762 ], [ -122.048064705531772, 44.518040858701866 ], [ -122.047700552917021, 44.518113751872676 ], [ -122.047643562604961, 44.518964396790018 ], [ -122.036923182322511, 44.521669255933588 ], [ -122.036763700943169, 44.522260641520774 ], [ -122.035671136083181, 44.522479227579218 ], [ -122.035249796340949, 44.523402735364193 ], [ -122.034157208145132, 44.523621309568711 ], [ -122.032688385465704, 44.525873294117545 ], [ -122.031231535400423, 44.526164698021766 ], [ -122.030184005981894, 44.527493162274837 ], [ -122.031616771012395, 44.531122936838642 ], [ -122.031252530253838, 44.531195787187251 ], [ -122.031661914789979, 44.532232869297601 ], [ -122.027892742177428, 44.536623271353371 ], [ -122.027937828516102, 44.537733218220801 ], [ -122.036804104652944, 44.541275197572091 ], [ -122.039718395145186, 44.54069223344937 ], [ -122.040913636764969, 44.540732873976019 ], [ -122.041482714676533, 44.54117853189603 ], [ -122.047208737354822, 44.539753073825487 ], [ -122.049804055322753, 44.540352732355473 ], [ -122.054585030610241, 44.540514869044593 ], [ -122.055302186577862, 44.542329674616731 ], [ -122.054937910990006, 44.542402591342665 ], [ -122.055245271471321, 44.543180367115838 ], [ -122.054880991240353, 44.54325328382032 ], [ -122.055393267988791, 44.544549579705397 ], [ -122.054869603365177, 44.545213933470727 ], [ -122.05517697583727, 44.545991714119815 ], [ -122.054812680390299, 44.546064631080363 ], [ -122.056964458651166, 44.551509119115785 ], [ -122.058467340901217, 44.552327389927576 ], [ -122.059287213102905, 44.554401482775077 ], [ -122.060687693959807, 44.554960471417928 ], [ -122.062406871844928, 44.554336530168442 ], [ -122.066710975265451, 44.556272612871325 ], [ -122.068270844975359, 44.556240058835577 ], [ -122.068783476784745, 44.557536339709621 ], [ -122.068419133820129, 44.557609295609517 ], [ -122.068829248273445, 44.558646322791994 ], [ -122.068464899377631, 44.558719278991958 ], [ -122.069490227681953, 44.561311854827132 ], [ -122.070424030654507, 44.561684449717156 ], [ -122.071301114208424, 44.562907773984243 ], [ -122.074102650052779, 44.564025505847972 ], [ -122.076288866681324, 44.563587656600326 ], [ -122.077689678332931, 44.564146478051626 ], [ -122.078418413915898, 44.564000512622989 ], [ -122.079921833402508, 44.564818564082096 ], [ -122.083247142311379, 44.56527162699593 ], [ -122.08402190405171, 44.566235626991819 ], [ -122.085422834469085, 44.566794370542816 ], [ -122.086880326170373, 44.566502349696329 ], [ -122.087814296640303, 44.566874827182581 ], [ -122.088019529128218, 44.567393321254059 ], [ -122.088850897397137, 44.567506544932812 ], [ -122.089056139751634, 44.568025038121469 ], [ -122.090251894050596, 44.568065239373063 ], [ -122.090457148844521, 44.568583731036867 ], [ -122.091755547080112, 44.568883164831 ], [ -122.092530471512745, 44.56984712301562 ], [ -122.095342864580658, 44.569003664209113 ], [ -122.095501943772632, 44.568412149074781 ], [ -122.096856774788975, 44.567860776615198 ], [ -122.097800966081877, 44.566272434711841 ], [ -122.103733272224787, 44.565362951931846 ], [ -122.104667319778656, 44.565735310649721 ], [ -122.106489049970307, 44.565370020490306 ], [ -122.107274016292138, 44.56437314248268 ], [ -122.108002690418019, 44.564227015576016 ], [ -122.108058959468863, 44.563376262014764 ], [ -122.109254642831715, 44.563416292746133 ], [ -122.109562723597008, 44.564193978690106 ], [ -122.111169226266639, 44.565270907967268 ], [ -122.113925001026516, 44.565277823104338 ], [ -122.114905636899735, 44.566760097142087 ], [ -122.115269978970431, 44.566687012984687 ], [ -122.116615012977533, 44.568096193624953 ], [ -122.117343707035033, 44.567950014579068 ], [ -122.118744948248747, 44.568508410674696 ], [ -122.118950422877745, 44.569026859028902 ], [ -122.11988460483937, 44.569399114282945 ], [ -122.120192835133153, 44.570176785786487 ], [ -122.120557189899699, 44.570103686665604 ], [ -122.121070929242293, 44.571399805565434 ], [ -122.119660095322104, 44.572802202129779 ], [ -122.121098624381887, 44.57643137016634 ], [ -122.121463011877054, 44.576358267582492 ], [ -122.121668531208215, 44.57687672058568 ], [ -122.124163163119391, 44.577215754815583 ], [ -122.127181029540012, 44.576890061070806 ], [ -122.128218151625759, 44.577521486969744 ], [ -122.128629304120196, 44.578558375074785 ], [ -122.129460877628858, 44.578671348716355 ], [ -122.129974852784855, 44.579967457471021 ], [ -122.129348851333987, 44.580372931833395 ], [ -122.12923681939958, 44.58207452114803 ], [ -122.128610794010243, 44.582479993908741 ], [ -122.128816386771106, 44.582998442809199 ], [ -122.129750816134447, 44.583370640350559 ], [ -122.130059223636181, 44.584148312675929 ], [ -122.130423643036679, 44.584075184423902 ], [ -122.130834869222028, 44.585112080509361 ], [ -122.130208825287781, 44.585517563436511 ], [ -122.130517247853675, 44.586295238335609 ], [ -122.130255624398885, 44.586627592618242 ], [ -122.129526756925927, 44.586773848035193 ], [ -122.128844663211623, 44.58803013258531 ], [ -122.128115777562968, 44.588176380751015 ], [ -122.128732605894044, 44.589731749814817 ], [ -122.129667127877326, 44.590103953393928 ], [ -122.130648469147616, 44.591586191761166 ], [ -122.131480206307828, 44.591699156033883 ], [ -122.132611280810011, 44.594550661225007 ], [ -122.137610980256795, 44.593267432068764 ], [ -122.138807209841602, 44.593307200822956 ], [ -122.139788798052905, 44.594789382390374 ], [ -122.140723450841151, 44.595161512733085 ], [ -122.144573837696882, 44.594948315703334 ], [ -122.145349814180875, 44.59591202191347 ], [ -122.146078745947065, 44.59576567726414 ], [ -122.149088671640115, 44.597400353903573 ], [ -122.151481291995466, 44.597479675901205 ], [ -122.157209760441305, 44.596049327025405 ], [ -122.157677142209906, 44.596235332553796 ], [ -122.158706461560087, 44.59882743357992 ], [ -122.16037021059762, 44.599053011197846 ], [ -122.160679041971719, 44.599830639353534 ], [ -122.162548727267648, 44.600574609702015 ], [ -122.163530941673059, 44.602056640287003 ], [ -122.164465825662589, 44.602428610434615 ], [ -122.165551078929511, 44.604169841075745 ], [ -122.165186589209, 44.604243068346314 ], [ -122.165392528759412, 44.604761485498308 ], [ -122.165757021052727, 44.604688257583177 ], [ -122.167103864033734, 44.606097046075952 ], [ -122.167832858527973, 44.605950579500529 ], [ -122.171105268919021, 44.607252353444103 ], [ -122.171049757103447, 44.608103214579366 ], [ -122.170423741538443, 44.608508906245561 ], [ -122.171097242724557, 44.609213284006572 ], [ -122.17239677847904, 44.609511960232595 ], [ -122.172602789398084, 44.610030372237041 ], [ -122.173537833628956, 44.610402285390293 ], [ -122.174892869294382, 44.609850071122516 ], [ -122.17681843019156, 44.609742990713059 ], [ -122.177753493645469, 44.610114874137111 ], [ -122.181850647451128, 44.613490022026284 ], [ -122.185440492072757, 44.613608113135349 ], [ -122.189711583234356, 44.612469445855808 ], [ -122.189608508038248, 44.61221025162903 ], [ -122.191431031215842, 44.611843766025316 ], [ -122.19132795037909, 44.61158457347927 ], [ -122.193721122279257, 44.611663141559106 ], [ -122.193934667419953, 44.610220578520419 ], [ -122.195392625845045, 44.609927346081463 ], [ -122.196066401400984, 44.610631600165334 ], [ -122.19736607474087, 44.610930034503269 ], [ -122.197572281526391, 44.611448409605494 ], [ -122.198459545057503, 44.610710083230657 ], [ -122.199917494406975, 44.610416801114596 ], [ -122.202723124864775, 44.611531949409979 ], [ -122.206835591597994, 44.61098443658895 ], [ -122.208183416331238, 44.612392830303101 ], [ -122.2118214062194, 44.613620279363687 ], [ -122.215308134234363, 44.613478390357436 ], [ -122.21724042219968, 44.611409775867457 ], [ -122.219104416549655, 44.614113927659766 ], [ -122.21946890102457, 44.614040551754705 ], [ -122.220246164673071, 44.615003862863155 ], [ -122.221078339494028, 44.615116275078584 ], [ -122.221800758454151, 44.616930477608101 ], [ -122.226071446557526, 44.615790640138059 ], [ -122.229867959975692, 44.616425874913951 ], [ -122.23028090890945, 44.61746253748737 ], [ -122.229655162378734, 44.617868514843643 ], [ -122.229861638037676, 44.618386847960942 ], [ -122.229077853622172, 44.619384562939715 ], [ -122.229697290714611, 44.620939570935143 ], [ -122.229332780133987, 44.621012975842611 ], [ -122.229642505514036, 44.621790481718897 ], [ -122.229277990283478, 44.621863886613738 ], [ -122.229690963400998, 44.622900563351465 ], [ -122.229326442234353, 44.622973968556927 ], [ -122.230049166681383, 44.624788157705382 ], [ -122.229423350912498, 44.625194140489427 ], [ -122.230352609068149, 44.627526680676787 ], [ -122.230820409836085, 44.627712443086466 ], [ -122.230455863935049, 44.627785852146161 ], [ -122.230765633288769, 44.628563366959462 ], [ -122.230401082736876, 44.628636776006758 ], [ -122.230814114487671, 44.62967346466332 ], [ -122.23044955799854, 44.629746874021556 ], [ -122.230862597279796, 44.630783565052496 ], [ -122.231694984129632, 44.630895915046871 ], [ -122.232108049546667, 44.631932604842831 ], [ -122.23106283321053, 44.633262948003697 ], [ -122.231682443248417, 44.634817994111614 ], [ -122.232047025763038, 44.634744580574072 ], [ -122.232356845338259, 44.635522103571574 ], [ -122.234696179290566, 44.636450881226416 ], [ -122.235473917927791, 44.637414151076186 ], [ -122.236774280532046, 44.637712219640434 ], [ -122.237552063323022, 44.638675480069189 ], [ -122.239320362785222, 44.63915926657436 ], [ -122.240408135452299, 44.640900028773586 ], [ -122.241708586929519, 44.641198051625594 ], [ -122.242486480218176, 44.642161290724665 ], [ -122.243319026596964, 44.642273571143193 ], [ -122.244510286455949, 44.644273482716613 ], [ -122.246692156303524, 44.645793859425176 ], [ -122.247780225796589, 44.647534587034812 ], [ -122.251791152341582, 44.646726478586999 ], [ -122.252210299014266, 44.645802041859803 ], [ -122.253668772178585, 44.645508150792971 ], [ -122.254713732738082, 44.644177595123217 ], [ -122.255442947923612, 44.644030638425797 ], [ -122.255236197580601, 44.64351231568601 ], [ -122.256019875548603, 44.642514394527034 ], [ -122.260705171740497, 44.642410024911733 ], [ -122.262370333927208, 44.642634353809342 ], [ -122.26387772893851, 44.643450473194051 ], [ -122.264606916334444, 44.643303466750815 ], [ -122.267828676425168, 44.645453947160789 ], [ -122.268035529337311, 44.645972252636717 ], [ -122.272198735918991, 44.64653281234262 ], [ -122.274011650521501, 44.650087387191604 ], [ -122.274479727574757, 44.650273005991941 ], [ -122.274115107398586, 44.650346537755027 ], [ -122.274632403692578, 44.651642291589603 ], [ -122.273484261188287, 44.65271387230397 ], [ -122.274208489997989, 44.654527941024192 ], [ -122.27457313264604, 44.654454408329137 ], [ -122.274780064881838, 44.654972713640888 ], [ -122.274518885683165, 44.655305400066162 ], [ -122.274883532190728, 44.65523186639868 ], [ -122.275090469190616, 44.655750172118154 ], [ -122.277224133435908, 44.656159940028587 ], [ -122.277431091241681, 44.656678243186001 ], [ -122.279150851311741, 44.656051374212247 ], [ -122.279618983822189, 44.656236977460132 ], [ -122.280708070181021, 44.657977477039353 ], [ -122.28471448968574, 44.659129513073417 ], [ -122.286010792095311, 44.661388277512323 ], [ -122.287883560961177, 44.662130593797514 ], [ -122.288977564990219, 44.661909877192194 ], [ -122.291057463209228, 44.663170442268772 ], [ -122.294650137368706, 44.663285612490441 ], [ -122.294857250752756, 44.663803896815615 ], [ -122.298134910671479, 44.665102724013252 ], [ -122.298913884084072, 44.666065685345487 ], [ -122.299850399138123, 44.666436760093809 ], [ -122.30104375936817, 44.668436274088172 ], [ -122.302448602679348, 44.668992864407379 ], [ -122.308283547092856, 44.667814953690048 ], [ -122.308440993056109, 44.667223058451782 ], [ -122.309170340058444, 44.667075801262207 ], [ -122.309481195925073, 44.667853200617785 ], [ -122.310886096643486, 44.668409701588956 ], [ -122.311196978402833, 44.669187099247374 ], [ -122.312029972024405, 44.669298958428428 ], [ -122.312340871046487, 44.670076354955455 ], [ -122.313745841584364, 44.670632828619709 ], [ -122.314367698578437, 44.67218761889302 ], [ -122.316452199588397, 44.671486603789617 ], [ -122.316974267329201, 44.670821043159641 ], [ -122.318432998650565, 44.670526429436812 ], [ -122.322233456759477, 44.671159116395764 ], [ -122.32410689468044, 44.67190094136258 ], [ -122.327596393757517, 44.671756104459568 ], [ -122.330045415515826, 44.670981197216221 ], [ -122.330617497365239, 44.671425747223964 ], [ -122.332337138989573, 44.670798173895449 ], [ -122.333641884313266, 44.669134117879253 ], [ -122.33437119697453, 44.668986722638806 ], [ -122.335154000811286, 44.667988281913146 ], [ -122.334946565334121, 44.667470055253958 ], [ -122.335936781500308, 44.666989838808171 ], [ -122.335729343083059, 44.666471614506051 ], [ -122.336354901847031, 44.666065097350206 ], [ -122.336043744862977, 44.665287763559178 ], [ -122.336304659512095, 44.664954949704395 ], [ -122.337763179760657, 44.664660128975711 ], [ -122.339536018027601, 44.663181438881885 ], [ -122.340368984473045, 44.663293120070904 ], [ -122.340265253538661, 44.663034013438505 ], [ -122.341359100835419, 44.662812867907483 ], [ -122.343025033418144, 44.663036202232391 ], [ -122.34292129268789, 44.66277709780725 ], [ -122.343754259743747, 44.662888757810919 ], [ -122.34365051644221, 44.662629654035761 ], [ -122.346463626826335, 44.661780738558839 ], [ -122.347607858310184, 44.662669678030461 ], [ -122.348805438060651, 44.662707572372362 ], [ -122.350000181706434, 44.664706632802933 ], [ -122.352706760350287, 44.66555966312518 ], [ -122.354218473303177, 44.664413620679397 ], [ -122.355312297240928, 44.664192360347556 ], [ -122.356459336025978, 44.663120050270471 ], [ -122.360938284215379, 44.662493975344489 ], [ -122.36187509033887, 44.662864612753644 ], [ -122.36317404487842, 44.665122647076579 ], [ -122.363538647699897, 44.66504887008324 ], [ -122.364890818265494, 44.666455848609878 ], [ -122.368223029717186, 44.666901913901476 ], [ -122.369418422378232, 44.668900819328677 ], [ -122.369783038776049, 44.668827024695538 ], [ -122.370563076660787, 44.669789576339227 ], [ -122.374779478364701, 44.671457118831796 ], [ -122.377800337366651, 44.671125696069993 ], [ -122.379205868843627, 44.671681483240484 ], [ -122.382955946597903, 44.671202299453341 ], [ -122.385506421484038, 44.672646667254277 ], [ -122.38837052526118, 44.672906997310051 ], [ -122.389150875229333, 44.67386944920527 ], [ -122.392432441406143, 44.673204770705297 ], [ -122.39331838367184, 44.672465051786581 ], [ -122.394776816937096, 44.67216960441251 ], [ -122.396443156771824, 44.672392277861022 ], [ -122.396651079294799, 44.67291041466418 ], [ -122.399932525022919, 44.672245553558803 ], [ -122.401338261936587, 44.672801109501528 ], [ -122.402432067203947, 44.672579459690951 ], [ -122.402640036257608, 44.67309758739723 ], [ -122.403369240919943, 44.672949814644461 ], [ -122.404981769665397, 44.675984686980719 ], [ -122.406491631370898, 44.676799257460452 ], [ -122.406907660968372, 44.67783551019113 ], [ -122.408313571650908, 44.678390999689597 ], [ -122.409666942325472, 44.679797566840065 ], [ -122.410396203966414, 44.679649753585018 ], [ -122.411437549244056, 44.680279119687953 ], [ -122.414823249548277, 44.679872943258012 ], [ -122.417791827046514, 44.680391705938121 ], [ -122.421542114390405, 44.679911431025928 ], [ -122.42294818868271, 44.680466769247317 ], [ -122.42315633946852, 44.680984874083066 ], [ -122.425448148962246, 44.680800251303047 ], [ -122.426489652278008, 44.681429501818471 ], [ -122.42898966569382, 44.681762918395378 ], [ -122.430812761078926, 44.681393112922478 ], [ -122.431802037029385, 44.682873428712135 ], [ -122.432635398656913, 44.682984539994628 ], [ -122.43341649604163, 44.68394675498682 ], [ -122.43435399746734, 44.684316902124785 ], [ -122.43555165624737, 44.68631529297447 ], [ -122.439093606326438, 44.687277704314333 ], [ -122.439822655221718, 44.689091011830222 ], [ -122.440187303604745, 44.689017021968517 ], [ -122.440395613052573, 44.689535109787009 ], [ -122.443677318556041, 44.690830442197552 ], [ -122.444562839098069, 44.692051651588912 ], [ -122.446334016225435, 44.692532755546161 ], [ -122.44711541933907, 44.693494910910644 ], [ -122.448417793617821, 44.693790956792085 ], [ -122.448626180962876, 44.694309037280888 ], [ -122.45123098560633, 44.694901088214756 ], [ -122.451856232289956, 44.696455321179663 ], [ -122.454044454213388, 44.697972485532318 ], [ -122.457326552325057, 44.697306179406418 ], [ -122.45946263249752, 44.697713076154542 ], [ -122.463734404446143, 44.696565443731885 ], [ -122.46561010047526, 44.697305327446948 ], [ -122.465818630615672, 44.697823385190986 ], [ -122.469309161696913, 44.697674842583936 ], [ -122.470351334140503, 44.698303775058555 ], [ -122.47201856790214, 44.698525519700887 ], [ -122.472331443741112, 44.699302593540715 ], [ -122.473842639422671, 44.700116445624353 ], [ -122.475301317136982, 44.699820102121485 ], [ -122.476239268617036, 44.700189968702766 ], [ -122.477803126891672, 44.702113960199604 ], [ -122.480721480320156, 44.703482514715752 ], [ -122.480878460849425, 44.704851722828145 ], [ -122.483796995004539, 44.706220218597302 ], [ -122.484214392755945, 44.707256298180596 ], [ -122.484579090574613, 44.707182184331621 ], [ -122.484996506280567, 44.708218263693333 ], [ -122.485361208438277, 44.708144147553945 ], [ -122.485674282482776, 44.708921206807268 ], [ -122.48504922670314, 44.70932846060871 ], [ -122.485831376139032, 44.71029042567924 ], [ -122.489218133144433, 44.709882339131731 ], [ -122.489895970025771, 44.71058526346544 ], [ -122.491772342421001, 44.711324803427125 ], [ -122.492501764624635, 44.711176532205251 ], [ -122.494847292781216, 44.71210090877841 ], [ -122.496410542124849, 44.712063341627925 ], [ -122.499591505961646, 44.715059749636396 ], [ -122.503863693066705, 44.713910791684398 ], [ -122.505375596028841, 44.714724314009651 ], [ -122.506105025080458, 44.714575967513447 ], [ -122.507512516929495, 44.715130459290428 ], [ -122.50829505377844, 44.716092305462965 ], [ -122.510743604999362, 44.715314014250445 ], [ -122.511628802498308, 44.71457344299094 ], [ -122.512097978987711, 44.71475825578451 ], [ -122.515640538014452, 44.713757301474409 ], [ -122.516214204000804, 44.714201098899423 ], [ -122.516943603568578, 44.714052693497329 ], [ -122.517724227484891, 44.713053086049804 ], [ -122.520277056891004, 44.712533622485587 ], [ -122.521268751319113, 44.714013378327969 ], [ -122.521633444931737, 44.713939162373492 ], [ -122.522051471258891, 44.714975141653149 ], [ -122.522885377511116, 44.715085698512361 ], [ -122.5230944022302, 44.715603687384615 ], [ -122.524293017836214, 44.715640014415634 ], [ -122.526118784015793, 44.717230287977607 ], [ -122.52836044556544, 44.71789509595132 ], [ -122.529454563526286, 44.717672385235296 ], [ -122.530235043993883, 44.716672696748141 ], [ -122.531693831664711, 44.716375727538043 ], [ -122.532632322145645, 44.71674521233308 ], [ -122.532841426815423, 44.717263187894204 ], [ -122.534300215780192, 44.716966189881049 ], [ -122.534195657906011, 44.716707203377823 ], [ -122.535289737349956, 44.716484445544779 ], [ -122.535445305276241, 44.715892220790266 ], [ -122.536904053147353, 44.715595195300715 ], [ -122.537842561297452, 44.715964642912994 ], [ -122.538936616665126, 44.715741855633254 ], [ -122.539875137981241, 44.716111289111431 ], [ -122.54008429627568, 44.71662925262163 ], [ -122.54128293922102, 44.716665427557558 ], [ -122.541441179132377, 44.718034604535084 ], [ -122.540296148705593, 44.719108630060667 ], [ -122.540505319521245, 44.719626596374965 ], [ -122.539204702534363, 44.721292853363451 ], [ -122.540719900269139, 44.724067425074828 ], [ -122.540355172918012, 44.724141694722064 ], [ -122.540564359787879, 44.724659666762086 ], [ -122.541503014046043, 44.725029096174097 ], [ -122.543541442867678, 44.729098595804032 ], [ -122.543906193504696, 44.729024316651106 ], [ -122.545263405221419, 44.730429668696374 ], [ -122.546097540480858, 44.73054008471302 ], [ -122.546306791268535, 44.731058055180668 ], [ -122.548653747306872, 44.731981529449612 ], [ -122.55110240936051, 44.731202472217248 ], [ -122.550997764934678, 44.730943490614735 ], [ -122.552092019726643, 44.73072058833224 ], [ -122.553030821407077, 44.73108994189338 ], [ -122.553290919423034, 44.730756656848079 ], [ -122.557407779826292, 44.730198212978053 ], [ -122.557617116374288, 44.730716165364001 ], [ -122.558920693079514, 44.731011159767604 ], [ -122.559130043763091, 44.731529110728495 ], [ -122.559859536179701, 44.731380465670867 ], [ -122.560068895215892, 44.731898415590912 ], [ -122.560903072849527, 44.732008739699133 ], [ -122.561321814056043, 44.733044638002198 ], [ -122.565600941990112, 44.735816627277842 ], [ -122.568258980754607, 44.735555194677033 ], [ -122.570501666148942, 44.736219323874117 ], [ -122.573419719127983, 44.735624465938336 ], [ -122.574095017361927, 44.734365515533852 ], [ -122.576178732739635, 44.733660357591752 ], [ -122.578421433095897, 44.734324351278694 ], [ -122.579205203229776, 44.735285823736149 ], [ -122.580404198488949, 44.735321649753963 ], [ -122.581917503662723, 44.736134345890356 ], [ -122.584105969961271, 44.73568802176591 ], [ -122.584785054381626, 44.736390505543831 ], [ -122.588071807550918, 44.737682429235697 ], [ -122.589530794631713, 44.737384815634613 ], [ -122.59010514740055, 44.737828319563413 ], [ -122.590834639642495, 44.737679503596013 ], [ -122.591304193621397, 44.737864048147379 ], [ -122.591828251013098, 44.739158819204576 ], [ -122.59078847554963, 44.740492282359639 ], [ -122.591312543459395, 44.741787063055703 ], [ -122.590947776060744, 44.741861473516757 ], [ -122.591367039733854, 44.742897300615198 ], [ -122.591002266392522, 44.742971711409808 ], [ -122.591995959383411, 44.744451043308146 ], [ -122.591631178334765, 44.744525456075522 ], [ -122.592155293749244, 44.745820245172794 ], [ -122.592884867887761, 44.745671415368079 ], [ -122.594868180579184, 44.746668524917105 ], [ -122.596432174380851, 44.746629786322416 ], [ -122.598310716146585, 44.747367891356724 ], [ -122.599405080880587, 44.74714459408392 ], [ -122.600344370055851, 44.747513629310852 ], [ -122.600554089986758, 44.748031534567126 ], [ -122.605720410113648, 44.750061110232409 ], [ -122.606504752158301, 44.751022456692432 ], [ -122.608853226446612, 44.751944916461916 ], [ -122.61041733453105, 44.751906014023163 ], [ -122.611361509049956, 44.754236541770489 ], [ -122.612770692903496, 44.754789975221009 ], [ -122.612980530863965, 44.755307869462584 ], [ -122.615429296149642, 44.754527594803449 ], [ -122.623045283823529, 44.755776209828042 ], [ -122.623934903288458, 44.756996406654949 ], [ -122.624299716120689, 44.756921903782185 ], [ -122.624039868155904, 44.757255346274214 ], [ -122.624564704581573, 44.758550045395651 ], [ -122.624929525120976, 44.75847554054679 ], [ -122.625714238778244, 44.759436792609108 ], [ -122.627958283557774, 44.76009999454471 ], [ -122.628538341320976, 44.762504957781431 ], [ -122.629373009279902, 44.762614862680081 ], [ -122.627659032750643, 44.765207994982902 ], [ -122.626929324063354, 44.765357020828979 ], [ -122.625629961055935, 44.767024287880886 ], [ -122.62641998205838, 44.769947188886405 ], [ -122.624910536096138, 44.771096574020675 ], [ -122.625330503170758, 44.772132362701178 ], [ -122.624290881848722, 44.77346618478601 ], [ -122.623196172409976, 44.77368969870578 ], [ -122.623406149243436, 44.774207598622276 ], [ -122.622261470964233, 44.775282460418545 ], [ -122.622896500566284, 44.778797844791193 ], [ -122.621126845334416, 44.780280667256903 ], [ -122.620032014781998, 44.780504158745501 ], [ -122.617432299651099, 44.783838666447785 ], [ -122.618432141627565, 44.787279649609566 ], [ -122.617912151100441, 44.78794655717028 ], [ -122.618227123276796, 44.788723444566791 ], [ -122.617707119587223, 44.789390353507109 ], [ -122.61791710315309, 44.789908280380018 ], [ -122.617137075454551, 44.790908644283718 ], [ -122.615677052035366, 44.79120659463414 ], [ -122.615522015220435, 44.791799012607555 ], [ -122.613331935627102, 44.792245906733505 ], [ -122.611511613144401, 44.794580035656928 ], [ -122.611826542555917, 44.795356949754307 ], [ -122.611306424389383, 44.796023843847067 ], [ -122.611621358180741, 44.796800760964757 ], [ -122.610216034211547, 44.798209023314193 ], [ -122.610425987694057, 44.798726972260354 ], [ -122.609385661362296, 44.800060758729586 ], [ -122.608030376369086, 44.800617608248928 ], [ -122.605689411942578, 44.803618593095813 ], [ -122.606004316478575, 44.804395536779403 ], [ -122.603083574141394, 44.804991197243908 ], [ -122.601312795467777, 44.806473845685687 ], [ -122.600217473827584, 44.806697188423762 ], [ -122.595206517417708, 44.806036525170768 ], [ -122.592545803968804, 44.806298534439968 ], [ -122.591240624179022, 44.806003817589904 ], [ -122.585188900173392, 44.80667643812982 ], [ -122.58529379354465, 44.806935437139622 ], [ -122.58383328233613, 44.807233051177356 ], [ -122.583938171365062, 44.807492051575387 ], [ -122.58247764211221, 44.807789651210356 ], [ -122.580807343306319, 44.807569229125427 ], [ -122.579762451326289, 44.806941003418601 ], [ -122.577831913936492, 44.807053938147895 ], [ -122.572354797281349, 44.808169604974054 ], [ -122.57245964366426, 44.808428614906788 ], [ -122.568703285463428, 44.808913260027197 ], [ -122.567763313980663, 44.808543951684484 ], [ -122.564737236013841, 44.808879767669616 ], [ -122.562752538700494, 44.80788207182804 ], [ -122.559726465490456, 44.808217774132601 ], [ -122.558681759946225, 44.807589383104229 ], [ -122.556490790902046, 44.808035363742718 ], [ -122.555188863172503, 44.809702107508002 ], [ -122.555398429590269, 44.810220156103277 ], [ -122.554877638541399, 44.810886853429395 ], [ -122.55352168580319, 44.811443165054328 ], [ -122.555560314871002, 44.813551434658116 ], [ -122.553476992307267, 44.816218240548743 ], [ -122.552016139550091, 44.816515513980924 ], [ -122.550453489197565, 44.818515592052812 ], [ -122.548732114197165, 44.819146176913819 ], [ -122.546908828247737, 44.821479569705517 ], [ -122.544507809059496, 44.821407292796366 ], [ -122.54294482247154, 44.823407305530552 ], [ -122.540127446274013, 44.824260661245503 ], [ -122.539450612596482, 44.825519695500908 ], [ -122.537989496365782, 44.825816822284942 ], [ -122.535744149771276, 44.825152013994114 ], [ -122.532091314122354, 44.825894699804344 ], [ -122.531049018344333, 44.827227959686788 ], [ -122.52739601844111, 44.827970521017299 ], [ -122.526979516622887, 44.828896193896298 ], [ -122.525257656874643, 44.829526492053446 ], [ -122.525362355452287, 44.829785551383011 ], [ -122.522805123070555, 44.830305249151365 ], [ -122.522909813430147, 44.830564310856246 ], [ -122.519361221281599, 44.831565721016247 ], [ -122.519465900360132, 44.831824786154975 ], [ -122.511898369177658, 44.833642476705485 ], [ -122.511376966776268, 44.834309040368616 ], [ -122.507358001855664, 44.835125275685215 ], [ -122.506313367682182, 44.834496437933993 ], [ -122.502450462588982, 44.834720176748597 ], [ -122.499789773510869, 44.836942296171252 ], [ -122.496971285182312, 44.83779477073233 ], [ -122.496293509251743, 44.839053625684208 ], [ -122.495197310570347, 44.83927612616236 ], [ -122.49467569937255, 44.839942633399403 ], [ -122.491282437432972, 44.840350977684167 ], [ -122.491126193881868, 44.840943317277258 ], [ -122.486845734117523, 44.842092197519342 ], [ -122.486950304525536, 44.842351294258535 ], [ -122.486219449878163, 44.84249957906448 ], [ -122.484339485088881, 44.84175974245003 ], [ -122.484130366991408, 44.841241545669135 ], [ -122.483399518175574, 44.841389814723087 ], [ -122.482355010509181, 44.840760781261068 ], [ -122.480893312277757, 44.841057295747326 ], [ -122.480371545808353, 44.84172375001652 ], [ -122.478909817959448, 44.842020243522995 ], [ -122.479014357739871, 44.842279346410216 ], [ -122.476090853129691, 44.842872288831273 ], [ -122.474785475264966, 44.842576413069061 ], [ -122.473323704341496, 44.842872846231231 ], [ -122.473167297068656, 44.843465168287238 ], [ -122.469930812610443, 44.845242625522516 ], [ -122.468886987664533, 44.846575460415501 ], [ -122.464449295827023, 44.848315963584653 ], [ -122.462622301975827, 44.850648363641618 ], [ -122.462831283835058, 44.851166605099351 ], [ -122.461421717011433, 44.852573478744993 ], [ -122.461578652625136, 44.853943169976034 ], [ -122.460691073397655, 44.854683643027975 ], [ -122.46063901731074, 44.855535091384006 ], [ -122.45912449438228, 44.854720804835964 ], [ -122.458706568857338, 44.853684302229127 ], [ -122.456252138071704, 44.852499869807495 ], [ -122.456043202685208, 44.851981616514621 ], [ -122.453693336767017, 44.851056267761543 ], [ -122.451604709506327, 44.851759705012839 ], [ -122.450664868977455, 44.853351548551899 ], [ -122.449568287082784, 44.853573683065363 ], [ -122.448680580724798, 44.854314075963771 ], [ -122.449098355901768, 44.855350611315238 ], [ -122.448053962202593, 44.856683314732237 ], [ -122.4489417425916, 44.857904951671671 ], [ -122.448576189496819, 44.857978993566356 ], [ -122.448889535515619, 44.858756401734432 ], [ -122.447583965769113, 44.860422291320042 ], [ -122.445390544232524, 44.860866508269126 ], [ -122.441682651853128, 44.860496195428546 ], [ -122.439802674180626, 44.859755703757422 ], [ -122.439071527015955, 44.859903737348134 ], [ -122.43719159457936, 44.859163210066136 ], [ -122.436982785165185, 44.858644919174957 ], [ -122.435781672375029, 44.858607798128659 ], [ -122.434267380879049, 44.857793225050536 ], [ -122.425702877327609, 44.85812526845762 ], [ -122.423143801723697, 44.858643097720162 ], [ -122.422986916634585, 44.859235382487043 ], [ -122.422255738177512, 44.85938332419002 ], [ -122.422047042993285, 44.858865009780629 ], [ -122.421211522687969, 44.858753788479298 ], [ -122.420898496092164, 44.857976315656018 ], [ -122.419227484076899, 44.85775385401071 ], [ -122.416303696918717, 44.856383481600524 ], [ -122.414737054067544, 44.856420124828986 ], [ -122.411447837756995, 44.855123598833323 ], [ -122.411030643290786, 44.854086946766159 ], [ -122.409621043044424, 44.853531266170862 ], [ -122.403980327760181, 44.855232428827598 ], [ -122.403457690788329, 44.855898605039741 ], [ -122.403666233760163, 44.856416944858793 ], [ -122.400480113290683, 44.857341345986043 ], [ -122.402408427918814, 44.863117086622601 ], [ -122.401885714227689, 44.863783268730764 ], [ -122.402094269513128, 44.864301620352393 ], [ -122.401728630256656, 44.864375535577366 ], [ -122.401884379529932, 44.865745333428869 ], [ -122.401100266749111, 44.866744609161628 ], [ -122.401621668792544, 44.868040500611812 ], [ -122.401098909113557, 44.868706687169784 ], [ -122.399374855158698, 44.869335424558805 ], [ -122.398852063208267, 44.870001604334632 ], [ -122.399060614401378, 44.870519968064492 ], [ -122.397440766147355, 44.871407865547319 ], [ -122.397649310833401, 44.871926233144599 ], [ -122.397022209943572, 44.872333225513636 ], [ -122.397073608220239, 44.873443868570327 ], [ -122.396707913824656, 44.873517771652068 ], [ -122.397020733396431, 44.874295328632172 ], [ -122.396497879663059, 44.874961506810294 ], [ -122.396706428095527, 44.875479880101942 ], [ -122.396340722242414, 44.875553782527632 ], [ -122.396549271299207, 44.876072156768586 ], [ -122.395660685676603, 44.876812236610604 ], [ -122.395607790345935, 44.877663702700225 ], [ -122.393987724757025, 44.878551573027508 ] ] ] } }
]
}
