{
"type": "FeatureCollection",
"name": "basin",
"crs": { "type": "name", "properties": { "name": "urn:ogc:def:crs:OGC:1.3:CRS84" } },
"features": [
{ "type": "Feature", "properties": { }, "geometry": { "type": "Polygon", "coordinates": [ [ [ -122.237416315388501, 44.782633701929022 ], [ -122.237781690984747, 44.782560248585575 ], [ -122.237678170912815, 44.782300993522476 ], [ -122.238043544421089, 44.782227539519837 ], [ -122.23794002385317, 44.781968284853804 ], [ -122.237678170912815, 44.782300993522476 ], [ -122.237312796608549, 44.78237444654053 ], [ -122.237416315388501, 44.782633701929022 ], [ -122.230163547524413, 44.783251343883066 ], [ -122.229591179580567, 44.782806253269342 ], [ -122.227764242373723, 44.783173398621798 ], [ -122.227191890928651, 44.78272829783306 ], [ -122.225364942771378, 44.783095410392953 ], [ -122.224427217595945, 44.782723717352383 ], [ -122.222600254512471, 44.783090792196042 ], [ -122.221662544641148, 44.782719079802796 ], [ -122.218477417415144, 44.783638999516711 ], [ -122.218580865716305, 44.783898270198399 ], [ -122.214561380661962, 44.784705629047941 ], [ -122.21232060446647, 44.784035467846515 ], [ -122.21085895444638, 44.784328998441907 ], [ -122.208880229150751, 44.783326123011726 ], [ -122.206949761477361, 44.783433706811479 ], [ -122.206170746057239, 44.782469957750145 ], [ -122.20304067231946, 44.782538302894586 ], [ -122.201316978682769, 44.783164369426537 ], [ -122.19850422906481, 44.78204876630415 ], [ -122.197718077888766, 44.78304666031125 ], [ -122.197924813825438, 44.783565233109066 ], [ -122.197138636394428, 44.784563127131044 ], [ -122.196407774220845, 44.784709811730139 ], [ -122.196249070314849, 44.785301729969767 ], [ -122.194787322906379, 44.78559508600916 ], [ -122.194890683114096, 44.785854376125776 ], [ -122.191498344735564, 44.786255079479552 ], [ -122.191442942963576, 44.787106287477002 ], [ -122.190553280942297, 44.787844856727304 ], [ -122.190759976485737, 44.788363446202418 ], [ -122.188980584814516, 44.789840575148666 ], [ -122.18902849378722, 44.790951086626343 ], [ -122.185214899504487, 44.792276174009807 ], [ -122.18469059068002, 44.792941400303825 ], [ -122.183331954825263, 44.793493938768748 ], [ -122.18264877240118, 44.794751074283433 ], [ -122.176903957202285, 44.796183145228596 ], [ -122.175131987037076, 44.79569836352421 ], [ -122.171270229579278, 44.795912536423138 ], [ -122.17121456447606, 44.796763754619022 ], [ -122.170849039466674, 44.796837028697929 ], [ -122.170999942001359, 44.798206880001118 ], [ -122.170475446795322, 44.798872059572197 ], [ -122.170682021696024, 44.799390692953793 ], [ -122.169791970135435, 44.800129144803407 ], [ -122.16973628288541, 44.800980370509848 ], [ -122.16613648635726, 44.800861808016663 ], [ -122.165095572363384, 44.800230363818343 ], [ -122.164364470659081, 44.800376878746732 ], [ -122.163323580749861, 44.79974542147319 ], [ -122.162592480453696, 44.799891926569991 ], [ -122.161186065582626, 44.799333704347042 ], [ -122.159453166023837, 44.801921026549905 ], [ -122.157831815819378, 44.802805888101958 ], [ -122.155733110039492, 44.805466421525836 ], [ -122.155939591723381, 44.805985085382758 ], [ -122.155208407710262, 44.806131552251117 ], [ -122.155414887394357, 44.806650217698738 ], [ -122.154786933471712, 44.807056015406978 ], [ -122.154834291347882, 44.808166582325782 ], [ -122.154468686706508, 44.808239813598696 ], [ -122.154778408573463, 44.809017817308792 ], [ -122.154412799254587, 44.809091048570558 ], [ -122.155032256670367, 44.810647059910401 ], [ -122.154141885041113, 44.811385426608894 ], [ -122.149857586240429, 44.812523461073859 ], [ -122.149651131327246, 44.812004780152456 ], [ -122.147775722620949, 44.811260279140818 ], [ -122.1475692875959, 44.81074159649836 ], [ -122.146472405715301, 44.810961229166367 ], [ -122.144493857069449, 44.809957342231968 ], [ -122.143293778526356, 44.809917605237501 ], [ -122.137809295054637, 44.811015502799542 ], [ -122.136140388729345, 44.810789537722499 ], [ -122.13248396130821, 44.811521300299752 ], [ -122.128621162246404, 44.811734251308344 ], [ -122.128358654227199, 44.812066768423719 ], [ -122.1286680923007, 44.812844839220453 ], [ -122.127777402877626, 44.813583034367724 ], [ -122.127983694300355, 44.814101750839093 ], [ -122.12640853314241, 44.816096852808862 ], [ -122.125311495187958, 44.81631631489811 ], [ -122.125152092502844, 44.816908191092601 ], [ -122.123689350581259, 44.817200792062842 ], [ -122.123792485701273, 44.817460155539464 ], [ -122.118775888615218, 44.818743507351108 ], [ -122.116328718934156, 44.817552953417206 ], [ -122.115597323415955, 44.817699207926452 ], [ -122.114190926375144, 44.817140469822604 ], [ -122.11341284813858, 44.816176108100464 ], [ -122.111687462457823, 44.816801068448456 ], [ -122.110749895941382, 44.816428551341957 ], [ -122.106727181856556, 44.817232732795816 ], [ -122.105377381806989, 44.815822673155182 ], [ -122.10313665826385, 44.815150638378199 ], [ -122.100829314045868, 44.817291626684991 ], [ -122.10103540941968, 44.817810388995404 ], [ -122.100510071296625, 44.818475324011615 ], [ -122.095755655619314, 44.819425348544584 ], [ -122.093823974763353, 44.819531310396584 ], [ -122.092417720029772, 44.818972341444969 ], [ -122.091423538268288, 44.819450916201419 ], [ -122.090486046911067, 44.819078255067986 ], [ -122.089023107501106, 44.819370479018708 ], [ -122.087936366705307, 44.817627792386503 ], [ -122.08757063814906, 44.817700842653359 ], [ -122.087055665581744, 44.816403885989708 ], [ -122.085752518891269, 44.816104241916356 ], [ -122.085546546358927, 44.815585458116239 ], [ -122.084243422200487, 44.815285799922727 ], [ -122.08299710456761, 44.814134912955438 ], [ -122.080653696927854, 44.8132031122841 ], [ -122.080241851247905, 44.81216553613762 ], [ -122.080607557712653, 44.812092506792659 ], [ -122.07952115181584, 44.810349780713842 ], [ -122.077589705543915, 44.810455506349555 ], [ -122.076013138260052, 44.81244999908931 ], [ -122.074024720113556, 44.813406884126252 ], [ -122.074127658315504, 44.81366628356038 ], [ -122.073030489869723, 44.813885316357826 ], [ -122.073179442444996, 44.815255330073306 ], [ -122.072391049080466, 44.816252562549671 ], [ -122.072596922394212, 44.8167713673541 ], [ -122.070505397403764, 44.817468806548227 ], [ -122.068985432103588, 44.818612028667047 ], [ -122.069191286409861, 44.8191308414847 ], [ -122.068299862667146, 44.81986865163379 ], [ -122.068608643156153, 44.820646874773239 ], [ -122.068082963040652, 44.821311686901545 ], [ -122.068391747636383, 44.822089913093514 ], [ -122.065625474338063, 44.822082053921072 ], [ -122.063625444257454, 44.825000672133378 ], [ -122.060801968343128, 44.825843942413861 ], [ -122.061476495264017, 44.82654921388152 ], [ -122.061110689626702, 44.826622193403992 ], [ -122.061419418040401, 44.827400445061102 ], [ -122.061053607720879, 44.827473424569156 ], [ -122.061773992672357, 44.829289349965251 ], [ -122.061408172483624, 44.829362330754954 ], [ -122.06161400129271, 44.829881167897959 ], [ -122.061979824074982, 44.829808186460177 ], [ -122.062963167069682, 44.831291713357103 ], [ -122.062174434909281, 44.832288922082668 ], [ -122.060814002242424, 44.83284026666 ], [ -122.059236414720871, 44.83483466347154 ], [ -122.05474322829221, 44.835450868519032 ], [ -122.054846125940543, 44.835710295769218 ], [ -122.0533826709934, 44.836002141630281 ], [ -122.053222589978219, 44.836593958592957 ], [ -122.049872507367184, 44.838101798019629 ], [ -122.049083501770085, 44.839098945167819 ], [ -122.048248848563219, 44.83898540540963 ], [ -122.046670745268955, 44.840979682230461 ], [ -122.045573042860028, 44.841198503781371 ], [ -122.044360722669637, 44.843119823610799 ], [ -122.04133052921334, 44.843443838133638 ], [ -122.040541334649603, 44.84444094714457 ], [ -122.040952766179402, 44.845478721479068 ], [ -122.040323761389473, 44.845884018195861 ], [ -122.040529478300485, 44.846402907257279 ], [ -122.038230998693521, 44.84658099978715 ], [ -122.036721796856853, 44.845761965824792 ], [ -122.034423329053013, 44.845939992801249 ], [ -122.031507904661467, 44.844561276472319 ], [ -122.029003839390072, 44.84422030909478 ], [ -122.023617497801837, 44.845573069689856 ], [ -122.02256485044488, 44.84690241522317 ], [ -122.019957963162639, 44.846301818586859 ], [ -122.01886008733473, 44.846520424009391 ], [ -122.017017737036127, 44.848846715563219 ], [ -122.015451066156032, 44.848878691723911 ], [ -122.015553833004844, 44.849138157069817 ], [ -122.01419267875643, 44.849689049499148 ], [ -122.013987154653506, 44.849170116142083 ], [ -122.01127750619797, 44.848309881364848 ], [ -122.01107200875478, 44.847790945173585 ], [ -122.011701207279188, 44.847385783980428 ], [ -122.010821502351646, 44.846161293907272 ], [ -122.011187468494185, 44.846088448427189 ], [ -122.010981978519581, 44.845569514730805 ], [ -122.012343075797773, 44.845018660088307 ], [ -122.012137580185666, 44.844499729431178 ], [ -122.012503535880683, 44.844426880634224 ], [ -122.011578833112637, 44.842091699298393 ], [ -122.01257391571157, 44.84161369247682 ], [ -122.014050295948095, 44.839360353577604 ], [ -122.015148070721253, 44.839141791122621 ], [ -122.014942571430126, 44.838622871724901 ], [ -122.015571661076621, 44.83821770084198 ], [ -122.015160664771642, 44.837179865831409 ], [ -122.014223348835344, 44.836806656187171 ], [ -122.013240998516721, 44.8353227532101 ], [ -122.011045553909199, 44.835759834192096 ], [ -122.009639647713641, 44.83519997603053 ], [ -122.009331481620933, 44.834421591373498 ], [ -122.008394236335093, 44.834048343309703 ], [ -122.006282285573789, 44.829710331502909 ], [ -122.004042089724081, 44.829036618629104 ], [ -122.003265450882793, 44.828071591824852 ], [ -122.001391214505887, 44.827325015416193 ], [ -122.000659464034555, 44.827470645666395 ], [ -122.000454111889397, 44.826951717857831 ], [ -121.996237278583962, 44.825271801677545 ], [ -121.995505539269971, 44.825417403104353 ], [ -121.995300233064796, 44.824898469823083 ], [ -121.995929312675784, 44.824493403806869 ], [ -121.99562135388129, 44.823715006606605 ], [ -121.995987214566753, 44.823642206352339 ], [ -121.994755434950008, 44.820528628130397 ], [ -121.993349981790445, 44.819968618507843 ], [ -121.991783970966424, 44.820000315963796 ], [ -121.990744396657263, 44.819367490614638 ], [ -121.990012709579275, 44.819513060092994 ], [ -121.98850469990704, 44.818693533870736 ], [ -121.986104420377103, 44.818611253155268 ], [ -121.981085121364245, 44.819889451958304 ], [ -121.980045649223896, 44.81925654376834 ], [ -121.979737897794607, 44.818478119343332 ], [ -121.97833261218419, 44.817917954823677 ], [ -121.974205671618961, 44.818458683739443 ], [ -121.970502746450933, 44.818075380834706 ], [ -121.969258320251697, 44.816923429412959 ], [ -121.964413713197857, 44.815647482497106 ], [ -121.955998931962853, 44.817319625475797 ], [ -121.956101421829629, 44.817579117692823 ], [ -121.955003806995379, 44.817797185774033 ], [ -121.954316121263744, 44.819053222330695 ], [ -121.947993578039501, 44.820029245323262 ], [ -121.948096041205105, 44.820288745260328 ], [ -121.945373773728946, 44.82138907436542 ], [ -121.94458341826477, 44.822385567810265 ], [ -121.94411505740031, 44.822198723317946 ], [ -121.94350036478626, 44.820641699793455 ], [ -121.943134463751917, 44.820714356238071 ], [ -121.941802744057938, 44.817340810303598 ], [ -121.941436859112926, 44.817413461567689 ], [ -121.940924701217313, 44.816115945648512 ], [ -121.940558821974861, 44.816188594312869 ], [ -121.939007680660552, 44.814257859350327 ], [ -121.938173521013965, 44.814143640634065 ], [ -121.937397996940291, 44.81317826501499 ], [ -121.934017716102858, 44.811610666766427 ], [ -121.933710531138289, 44.81083215023429 ], [ -121.933344672801496, 44.810904778327874 ], [ -121.933037498826863, 44.810126261499491 ], [ -121.932101014061701, 44.809752500655662 ], [ -121.931896243699555, 44.80923348881808 ], [ -121.930491548542335, 44.808672834386357 ], [ -121.929393995921785, 44.808890688268711 ], [ -121.926584684885029, 44.807769313793827 ], [ -121.925018926461576, 44.807800230100661 ], [ -121.923673118505377, 44.806388372774016 ], [ -121.923146120869617, 44.807052594035952 ], [ -121.916663039065213, 44.808618735300669 ], [ -121.914790303416169, 44.807870981046335 ], [ -121.908365944135696, 44.80858559073976 ], [ -121.908468237350931, 44.808845114213682 ], [ -121.907004733682243, 44.809135343631404 ], [ -121.907107022491033, 44.809394868468175 ], [ -121.90381408147438, 44.810047829803104 ], [ -121.903652749210025, 44.810639432464725 ], [ -121.901457399449541, 44.811074693535112 ], [ -121.901296044043818, 44.81166629473708 ], [ -121.899891552780815, 44.81110531640951 ], [ -121.895602994823875, 44.812235215956754 ], [ -121.891900859818819, 44.811849746440288 ], [ -121.890028309162702, 44.811101640600768 ], [ -121.888198767160802, 44.811464174966517 ], [ -121.884921921439485, 44.810154884007275 ], [ -121.880896899184918, 44.810952271909777 ], [ -121.879228861784881, 44.810723107515699 ], [ -121.877620220187026, 44.809642803890966 ], [ -121.873390820209224, 44.809920869538516 ], [ -121.871416377148222, 44.808912956431733 ], [ -121.864727660273857, 44.809957485597209 ], [ -121.863246934459212, 44.812209026237369 ], [ -121.861783163215051, 44.812498763856389 ], [ -121.861885283004156, 44.812758325170265 ], [ -121.858591740002453, 44.813410179933143 ], [ -121.856617416049716, 44.812402040763104 ], [ -121.853953661052728, 44.812649377328825 ], [ -121.853162056939084, 44.813645311319945 ], [ -121.853366234380829, 44.814164448513523 ], [ -121.852370429432753, 44.814641242885664 ], [ -121.849460087593542, 44.813258667901302 ], [ -121.844702518436435, 44.814199770091925 ], [ -121.843400495972503, 44.813897771451508 ], [ -121.841936602779739, 44.814187293349974 ], [ -121.840064541989165, 44.813438485335503 ], [ -121.839332594788161, 44.813583229885374 ], [ -121.837826551640575, 44.812762019970137 ], [ -121.835162713526515, 44.813008983146098 ], [ -121.834226731922058, 44.812634535929057 ], [ -121.832396848515899, 44.812996309505913 ], [ -121.831094904442836, 44.812694192112062 ], [ -121.831358880030507, 44.812362258569095 ], [ -121.831052877477958, 44.811583505793479 ], [ -121.832210749782064, 44.810515356276319 ], [ -121.831802746006758, 44.809477026337859 ], [ -121.832168705790124, 44.809404675798632 ], [ -121.831964706016379, 44.808885511923023 ], [ -121.832492616196831, 44.808221646876078 ], [ -121.831838593407653, 44.805553490927757 ], [ -121.82689543697775, 44.80401302693862 ], [ -121.82581572367539, 44.802268281801616 ], [ -121.82404613040994, 44.801778852474548 ], [ -121.82327238335148, 44.800812844056836 ], [ -121.821502846754257, 44.800323382748019 ], [ -121.820405078604935, 44.800540339534948 ], [ -121.820669059233353, 44.800208436200371 ], [ -121.819853544509868, 44.798131755753829 ], [ -121.820381489736292, 44.797467954607164 ], [ -121.819769880488536, 44.795910452170851 ], [ -121.820135779542809, 44.795838136722537 ], [ -121.819931913474164, 44.795318970484793 ], [ -121.819566017018786, 44.795391285291338 ], [ -121.818852519598835, 44.793574203571517 ], [ -121.816513486044869, 44.792637830269484 ], [ -121.818625164040199, 44.789982704831019 ], [ -121.819356899483381, 44.789838081139173 ], [ -121.818643466461097, 44.788021021118929 ], [ -121.818277608226381, 44.788093331212991 ], [ -121.817300281381677, 44.786608159365834 ], [ -121.814655818961413, 44.784893030542733 ], [ -121.8143501339582, 44.784114288054191 ], [ -121.812479214449368, 44.783365145640971 ], [ -121.812071678764696, 44.782326819430267 ], [ -121.812701460626471, 44.781922653315362 ], [ -121.812497693863179, 44.78140349208919 ], [ -121.810038748842487, 44.782169099760132 ], [ -121.809469168722643, 44.781722219188168 ], [ -121.807639991397423, 44.782083629345301 ], [ -121.806236896037575, 44.781521707144236 ], [ -121.806764845253738, 44.780857984583996 ], [ -121.806255556533458, 44.779560062618032 ], [ -121.804384853307866, 44.778810814836916 ], [ -121.804181159974519, 44.778291644604394 ], [ -121.80005525516404, 44.778826960793907 ], [ -121.799444284423998, 44.777269431180635 ], [ -121.796842082791585, 44.776664592476891 ], [ -121.796536640794841, 44.775885823803094 ], [ -121.796902456104746, 44.775813575086147 ], [ -121.795416747159535, 44.773030344401384 ], [ -121.79318054574388, 44.772353195235389 ], [ -121.79161554995089, 44.772382550083684 ], [ -121.791453323742275, 44.772973966865308 ], [ -121.790457689514611, 44.773450256617664 ], [ -121.788953137852502, 44.772628572022384 ], [ -121.787489906958427, 44.772917472034386 ], [ -121.787286361487503, 44.772398283011121 ], [ -121.786087170221819, 44.772355350369331 ], [ -121.785050262674147, 44.77172099904756 ], [ -121.78368879227186, 44.772269452882668 ], [ -121.783119470380115, 44.771822470245418 ], [ -121.780660541311804, 44.772587521976625 ], [ -121.780762288436222, 44.772847121596534 ], [ -121.779928910117931, 44.772731928639374 ], [ -121.778201556455414, 44.773352529875183 ], [ -121.777937471981588, 44.773684329363306 ], [ -121.778344429869165, 44.774722739131938 ], [ -121.776210075598996, 44.774304906243444 ], [ -121.774116812924248, 44.77499764903898 ], [ -121.772896167164745, 44.771882382845867 ], [ -121.772530347472838, 44.771954565346363 ], [ -121.772123495809694, 44.770916144388011 ], [ -121.770558524239576, 44.770945253059857 ], [ -121.770355115066678, 44.770426040616627 ], [ -121.769521784446525, 44.770310783523747 ], [ -121.769785897112357, 44.769979003153772 ], [ -121.769175705575904, 44.76842136658663 ], [ -121.768342401740938, 44.768306102674671 ], [ -121.767935636566804, 44.767267677524416 ], [ -121.766533180339778, 44.766705358200582 ], [ -121.763606771053972, 44.767282644766823 ], [ -121.763098415399256, 44.765984598525428 ], [ -121.762265152058788, 44.765869297427699 ], [ -121.761960158201603, 44.765090468880501 ], [ -121.761594363646552, 44.765162620403125 ], [ -121.76139104092006, 44.764643401104124 ], [ -121.762122624050704, 44.764499098350733 ], [ -121.761817638035268, 44.763720271879542 ], [ -121.759744564513127, 44.762451210988537 ], [ -121.761898387011072, 44.760907739414264 ], [ -121.76139011227761, 44.759609705298125 ], [ -121.761755876937315, 44.759537555234402 ], [ -121.761552569923381, 44.759018342747588 ], [ -121.761918331202594, 44.758946192335991 ], [ -121.761715024720587, 44.758426980785835 ], [ -121.762243231187639, 44.757763468305306 ], [ -121.763706241436424, 44.757474854001124 ], [ -121.764600167304025, 44.756739177704816 ], [ -121.766164811857067, 44.756710139594894 ], [ -121.768034477508223, 44.757459883883584 ], [ -121.768806936148891, 44.758426116685634 ], [ -121.770371618019738, 44.758397029304554 ], [ -121.770981746488388, 44.759954625300772 ], [ -121.772444766864908, 44.759665914091528 ], [ -121.772505432762713, 44.758814940287074 ], [ -121.773135232117269, 44.758410981646342 ], [ -121.772830146478455, 44.757632190922379 ], [ -121.77392736922188, 44.75741564497924 ], [ -121.774719482949223, 44.756420305851371 ], [ -121.774678419189812, 44.755309743145773 ], [ -121.775572196695535, 44.754573997176131 ], [ -121.775165403034308, 44.75353562604495 ], [ -121.775531120021526, 44.753463439336336 ], [ -121.775652361263951, 44.751761514238659 ], [ -121.777480887676589, 44.751400565609565 ], [ -121.777379185526428, 44.751140976014668 ], [ -121.779735660410424, 44.750116434218889 ], [ -121.779633951519727, 44.74985684708485 ], [ -121.783392560783099, 44.749394403409056 ], [ -121.783290838909295, 44.749134819473838 ], [ -121.786581970627097, 44.748484910220355 ], [ -121.786480237852132, 44.748225329238181 ], [ -121.789405624644601, 44.747647567557593 ], [ -121.78930388226749, 44.747387989208669 ], [ -121.790766551680264, 44.747099085957394 ], [ -121.790664804893822, 44.74683950896204 ], [ -121.792025705390841, 44.746291015555279 ], [ -121.792086112275783, 44.745440058443045 ], [ -121.792451767266371, 44.745367826826886 ], [ -121.79224826673034, 44.744848677486409 ], [ -121.79261391834207, 44.744776445523115 ], [ -121.792410418342115, 44.744257297117223 ], [ -121.793405607972474, 44.74378102409198 ], [ -121.79356774687318, 44.743189643735896 ], [ -121.794299028504696, 44.743045172151248 ], [ -121.795354549249097, 44.741717934890943 ], [ -121.795151037385907, 44.741198794208934 ], [ -121.795780536695233, 44.740794745028786 ], [ -121.795577024338954, 44.740275606067797 ], [ -121.796572132883071, 44.739799313750495 ], [ -121.797363705712598, 44.738803880009947 ], [ -121.797424038569943, 44.73795293476276 ], [ -121.798784704870712, 44.737404383566748 ], [ -121.798581179626098, 44.73688525311362 ], [ -121.800367705693176, 44.735413498129013 ], [ -121.799960645987454, 44.734375246955437 ], [ -121.800326232584084, 44.734302995621157 ], [ -121.799715658729667, 44.732745622980133 ], [ -121.799248321645891, 44.732558310224988 ], [ -121.799775956509208, 44.731894688206992 ], [ -121.801238245229584, 44.731605680570127 ], [ -121.801927887852642, 44.730350678634593 ], [ -121.803552152325494, 44.729470274196338 ], [ -121.802881293446035, 44.728763861722101 ], [ -121.802150184962571, 44.72890837557145 ], [ -121.800179176639503, 44.727899596899597 ], [ -121.799448071733522, 44.728044095709613 ], [ -121.797477129052155, 44.72703527919424 ], [ -121.79627873743182, 44.726992442172033 ], [ -121.796075262868982, 44.726473319994135 ], [ -121.794775150685652, 44.726170908608239 ], [ -121.794571690167075, 44.725651785097085 ], [ -121.795728665418508, 44.724584157467376 ], [ -121.79552520234887, 44.724065037245154 ], [ -121.795890737838135, 44.723992799689888 ], [ -121.795687275304658, 44.723473680399451 ], [ -121.796214874155751, 44.722810085888334 ], [ -121.795095874856443, 44.719954943653462 ], [ -121.795725176338848, 44.719550913919086 ], [ -121.795683789369377, 44.718440449322806 ], [ -121.79631307320966, 44.718036418188731 ], [ -121.795601019516425, 44.716219528341867 ], [ -121.795966512431278, 44.716147291843981 ], [ -121.795763072967205, 44.715628181754305 ], [ -121.797345652167408, 44.713637428868957 ], [ -121.798442081012524, 44.713420703368115 ], [ -121.799964253067799, 44.712280824615 ], [ -121.803984346094936, 44.711486044771625 ], [ -121.804553297206212, 44.711932878298398 ], [ -121.805547924529392, 44.711456549408922 ], [ -121.803818282652117, 44.707044292858207 ], [ -121.804183717087412, 44.706972035394401 ], [ -121.803878505753076, 44.706193405021992 ], [ -121.801584182969705, 44.7063673840265 ], [ -121.800363510764299, 44.703252846926894 ], [ -121.799327530530832, 44.702618704245339 ], [ -121.798818975053123, 44.701320981427067 ], [ -121.797417631719753, 44.700759068483627 ], [ -121.796909126969879, 44.699461343771112 ], [ -121.796543725408853, 44.699533580160654 ], [ -121.796197253166426, 44.697644532214319 ], [ -121.794430617031523, 44.697154826639945 ], [ -121.793251772770674, 44.695150693128483 ], [ -121.793880854067666, 44.694746694369897 ], [ -121.793839512641497, 44.693636290496691 ], [ -121.795259634158143, 44.692236972362508 ], [ -121.795056272181895, 44.691717888804803 ], [ -121.797165637521644, 44.689063701694771 ], [ -121.798525320634184, 44.688515212880731 ], [ -121.79921457353548, 44.687260345324724 ], [ -121.800310568021374, 44.6870436172197 ], [ -121.800837836753331, 44.686380058263431 ], [ -121.80043106543701, 44.685341921883214 ], [ -121.800796386031521, 44.685269677152725 ], [ -121.800389622042516, 44.684231543201427 ], [ -121.800754936673187, 44.684159298761926 ], [ -121.800246492800113, 44.68286163453817 ], [ -121.800611800171708, 44.682789390708827 ], [ -121.800306739342901, 44.682010793995453 ], [ -121.800672042046486, 44.681938550137758 ], [ -121.800487469861054, 44.679458281824893 ], [ -121.80127827761433, 44.678462958657761 ], [ -121.800811311887799, 44.678275673979321 ], [ -121.800302911235377, 44.676978026877421 ], [ -121.799937634974086, 44.677050268933641 ], [ -121.799143082571419, 44.67301285807801 ], [ -121.800988134511471, 44.670690485154289 ], [ -121.800479787567738, 44.669392860493929 ], [ -121.800845021828394, 44.669320618180528 ], [ -121.800600249224743, 44.667691231478841 ], [ -121.801127364011535, 44.667027699799092 ], [ -121.800110739451924, 44.664432474324919 ], [ -121.800739493579215, 44.664028470794626 ], [ -121.800231201559797, 44.662730864283247 ], [ -121.801387009490099, 44.661663336859682 ], [ -121.801183692482269, 44.661144297734772 ], [ -121.801710750438318, 44.660480773345782 ], [ -121.800999158335216, 44.658664144118461 ], [ -121.801364334020988, 44.658591902097911 ], [ -121.800957721971429, 44.657553831097282 ], [ -121.801322891698092, 44.65748158936676 ], [ -121.801119587771666, 44.656962554931695 ], [ -121.800754420633893, 44.657034796024384 ], [ -121.800712989293075, 44.655924486916092 ], [ -121.799414214283416, 44.655622167916064 ], [ -121.799109289962942, 44.654843615208868 ], [ -121.798744132131418, 44.654915850474417 ], [ -121.798439218723829, 44.654137297451136 ], [ -121.799067887010452, 44.653733310953157 ], [ -121.798924849201001, 44.652363493180971 ], [ -121.799289993040304, 44.652291257828132 ], [ -121.797645025410532, 44.650100081898081 ], [ -121.798010158382567, 44.650027850400285 ], [ -121.797705275500448, 44.649249304085743 ], [ -121.79807040380895, 44.649177072558722 ], [ -121.797562274819626, 44.647879498382089 ], [ -121.798352755977348, 44.646884261884054 ], [ -121.799082984860021, 44.646739795060228 ], [ -121.799609951057747, 44.646076300009028 ], [ -121.799406694619989, 44.645557276007509 ], [ -121.799771801152019, 44.645485040421271 ], [ -121.799425515852661, 44.643596226540026 ], [ -121.798390459282885, 44.642962160253646 ], [ -121.798755552875178, 44.642889927854796 ], [ -121.798002848531937, 44.639963082335079 ], [ -121.800091682608013, 44.63927017451087 ], [ -121.801408908260186, 44.63761145210708 ], [ -121.802869149365435, 44.63732248702722 ], [ -121.802767521405201, 44.637062982462318 ], [ -121.804126112489428, 44.636514499671513 ], [ -121.803922850123982, 44.635995493444447 ], [ -121.804287900150726, 44.635923247044275 ], [ -121.803678124031677, 44.634366231969928 ], [ -121.805928493346229, 44.633081993071364 ], [ -121.805725227461821, 44.632562993495867 ], [ -121.807042184032298, 44.630904240017649 ], [ -121.80673728337193, 44.63012574702023 ], [ -121.807730691062488, 44.629649488031902 ], [ -121.807527421660936, 44.629130495105237 ], [ -121.808419172519251, 44.628394735953272 ], [ -121.808114267317663, 44.62761625038133 ], [ -121.808479267588908, 44.627543993864528 ], [ -121.8076662110565, 44.625468037983822 ], [ -121.808031200201881, 44.625395783030697 ], [ -121.80762468549905, 44.624357808052309 ], [ -121.807989668691405, 44.62428555338839 ], [ -121.807421432831333, 44.623838820984815 ], [ -121.80778641343764, 44.623766566958025 ], [ -121.807583161306226, 44.623247580808751 ], [ -121.80867809068323, 44.623030814728949 ], [ -121.809569748509688, 44.622295057737432 ], [ -121.809426564363193, 44.620925345796771 ], [ -121.809791527087867, 44.620853086756043 ], [ -121.809588268319629, 44.620334106967555 ], [ -121.809953227677966, 44.620261847578824 ], [ -121.809749969446301, 44.619742868708038 ], [ -121.810276620368953, 44.619079370933513 ], [ -121.809971735802051, 44.618300905485285 ], [ -121.811551617295464, 44.616310412487614 ], [ -121.8110850525795, 44.616123189286292 ], [ -121.810272053409889, 44.614047301170579 ], [ -121.806682869320028, 44.613919133713303 ], [ -121.80647965528243, 44.613400157072007 ], [ -121.805648199210864, 44.613285164873126 ], [ -121.804835401197678, 44.611209256572103 ], [ -121.803334286265112, 44.610388029275839 ], [ -121.802604459262938, 44.610532507801217 ], [ -121.801893369049409, 44.608716082525007 ], [ -121.802156691404122, 44.608384357255936 ], [ -121.801791787853659, 44.60845659347946 ], [ -121.800411127394426, 44.60593393892205 ], [ -121.799579773506025, 44.605818910846459 ], [ -121.799071941516573, 44.604521465733846 ], [ -121.7998017111575, 44.604377008396476 ], [ -121.800226772335094, 44.603454084708268 ], [ -121.800956527982066, 44.603309621400967 ], [ -121.80071199174391, 44.601680471059105 ], [ -121.801076859863471, 44.601608238852592 ], [ -121.800670595031363, 44.600570296712434 ], [ -121.800305732081014, 44.600642527646066 ], [ -121.800001045522478, 44.599864070817972 ], [ -121.798703350903239, 44.599561782066523 ], [ -121.797932280382483, 44.598596061474105 ], [ -121.795701823898625, 44.597919216110284 ], [ -121.794381849128911, 44.594545882260057 ], [ -121.794017011979051, 44.594618095073884 ], [ -121.793813953215846, 44.594099121042959 ], [ -121.795758566955598, 44.592036708051758 ], [ -121.795717257502531, 44.590926555506485 ], [ -121.797033648479399, 44.589268051566066 ], [ -121.796729050870979, 44.588489606570057 ], [ -121.797093852046672, 44.588417387314884 ], [ -121.796950992433395, 44.587047763315709 ], [ -121.79757904572179, 44.586643843154043 ], [ -121.797375983566056, 44.586124883546297 ], [ -121.797902494027923, 44.58546148320314 ], [ -121.797496374971345, 44.584423567917327 ], [ -121.798124400620623, 44.584019647497477 ], [ -121.797921342160947, 44.583500691680506 ], [ -121.798447826832771, 44.582837292973998 ], [ -121.798143241915326, 44.582058862090726 ], [ -121.800230285505492, 44.581366039768881 ], [ -121.799316510109819, 44.579030768645104 ], [ -121.798850236547935, 44.578843517953402 ], [ -121.799741418554405, 44.578107897435146 ], [ -121.799436840049637, 44.577329477500378 ], [ -121.800226468790441, 44.576334383406184 ], [ -121.799718845854045, 44.575037024032845 ], [ -121.799354119679478, 44.575109248354941 ], [ -121.799617323604608, 44.574777552365163 ], [ -121.799008206471939, 44.573220723807481 ], [ -121.800993444616395, 44.57226843206417 ], [ -121.800790399428124, 44.571749493852984 ], [ -121.801418287673684, 44.571345569068079 ], [ -121.800158692529521, 44.567121860283166 ], [ -121.800888056210908, 44.566977408763925 ], [ -121.801576026532729, 44.565722863355475 ], [ -121.803196341683147, 44.564842782138179 ], [ -121.801978149649898, 44.561729227206527 ], [ -121.802342800853594, 44.561656997815369 ], [ -121.802038266501498, 44.560878611579852 ], [ -121.802402913053953, 44.560806382157573 ], [ -121.802199891466117, 44.560287458978948 ], [ -121.80282766486431, 44.559883537601465 ], [ -121.802624642787663, 44.559364616105078 ], [ -121.803150893409224, 44.558701233596466 ], [ -121.802804958103366, 44.556812786028964 ], [ -121.803169581912925, 44.556740555149034 ], [ -121.802865060184502, 44.55596217908014 ], [ -121.803229679343474, 44.555889948169032 ], [ -121.803188269332949, 44.554779885014732 ], [ -121.805860664341836, 44.552573037422412 ], [ -121.806954455064442, 44.552356318789258 ], [ -121.806751423919778, 44.5518374120144 ], [ -121.807379091694344, 44.551433476626052 ], [ -121.806788587291095, 44.547916120611987 ], [ -121.807840818366728, 44.546589354496085 ], [ -121.811283370027724, 44.545347987279705 ], [ -121.812335472976159, 44.544021193103802 ], [ -121.814056657995764, 44.543400465678559 ], [ -121.814319666428148, 44.543068763487042 ], [ -121.81381202284507, 44.541771551073431 ], [ -121.814804083162443, 44.541295331046904 ], [ -121.81585605400987, 44.539968520733098 ], [ -121.815652991761027, 44.53944964136965 ], [ -121.816280491421395, 44.539045674947204 ], [ -121.816077428687137, 44.538526797261561 ], [ -121.816603385252051, 44.537863391610216 ], [ -121.816257180961458, 44.53597506387343 ], [ -121.816621678079116, 44.535902799518233 ], [ -121.815809473103911, 44.533827306536303 ], [ -121.815444986302396, 44.533899568351124 ], [ -121.815038907662981, 44.53286182221661 ], [ -121.814674425240625, 44.532934081777569 ], [ -121.813802374155614, 44.531709156035859 ], [ -121.814166850909402, 44.531636899046113 ], [ -121.813516223726438, 44.528970283862208 ], [ -121.814042131107712, 44.528306901952938 ], [ -121.813230096467322, 44.526231427216103 ], [ -121.813857487989466, 44.525827483677737 ], [ -121.810549819457478, 44.518376190388821 ], [ -121.809516574094772, 44.517742382725757 ], [ -121.809110683356266, 44.51670465461482 ], [ -121.813220536537557, 44.516169368592756 ], [ -121.813746347319096, 44.515506006096757 ], [ -121.81483951357238, 44.515289240185901 ], [ -121.815365301640952, 44.514625872565638 ], [ -121.814493474010561, 44.51340099953709 ], [ -121.815545017277003, 44.512074271270642 ], [ -121.817205478691051, 44.512304077020964 ], [ -121.818441715538981, 44.51345666361658 ], [ -121.819433328126635, 44.512980438201595 ], [ -121.820383261220627, 44.511394251818125 ], [ -121.821476339779153, 44.511177433467168 ], [ -121.822527711569947, 44.509850656520797 ], [ -121.823620758320558, 44.509633821326069 ], [ -121.825358997005665, 44.507052522635156 ], [ -121.826451989483445, 44.506835665555109 ], [ -121.826613272108361, 44.50624455223214 ], [ -121.827341923158286, 44.506099975231429 ], [ -121.828918674541171, 44.504109760478123 ], [ -121.832460218417125, 44.503127369902209 ], [ -121.834036750007343, 44.501137107354296 ], [ -121.833994868217204, 44.500027184555812 ], [ -121.834783086925512, 44.499032052088658 ], [ -121.836138647879977, 44.498483408176597 ], [ -121.836299825990309, 44.497892293720668 ], [ -121.837028366414074, 44.497747666423976 ], [ -121.837452250342167, 44.496824837030857 ], [ -121.843823225023712, 44.493043793721974 ], [ -121.84513653358627, 44.491385166229371 ], [ -121.846957656475496, 44.49102347504617 ], [ -121.847076632634028, 44.489322463670582 ], [ -121.848652412863032, 44.487332087232481 ], [ -121.848449257138938, 44.486813316359573 ], [ -121.84907607307575, 44.486409241461558 ], [ -121.848932377123631, 44.485039974274741 ], [ -121.849296565057315, 44.484967628623522 ], [ -121.84842450548696, 44.483743054998307 ], [ -121.845265846983111, 44.482693121661427 ], [ -121.843683034049533, 44.479652830757935 ], [ -121.843318868711833, 44.479725160267677 ], [ -121.842912687787987, 44.478687619381169 ], [ -121.843539461530341, 44.478283577493919 ], [ -121.843234828621931, 44.477505424624042 ], [ -121.843861589495276, 44.477101382241244 ], [ -121.84365850118958, 44.476582615392175 ], [ -121.844708900933711, 44.475255761854072 ], [ -121.843752999449976, 44.471811475196809 ], [ -121.844117121753413, 44.471739145721294 ], [ -121.843914047576035, 44.471220385183884 ], [ -121.847191090132966, 44.47056938139098 ], [ -121.847089542632062, 44.470310004074662 ], [ -121.849071086829028, 44.469357208599 ], [ -121.849232082683656, 44.468766115253636 ], [ -121.852144861449887, 44.468187336052303 ], [ -121.85204329854281, 44.46792796382131 ], [ -121.853499664103325, 44.467638551906994 ], [ -121.855260739140206, 44.468127233551009 ], [ -121.859993850904218, 44.467186472796392 ], [ -121.860095443158613, 44.467445838564544 ], [ -121.861551763919408, 44.467156339042326 ], [ -121.86207672046443, 44.466492855721825 ], [ -121.866911239147001, 44.465811216087801 ], [ -121.868308296635306, 44.466372114435309 ], [ -121.869485378608985, 44.468374589967766 ], [ -121.871610665213325, 44.4687906572793 ], [ -121.872584595891965, 44.470274398144269 ], [ -121.873617706974656, 44.470907653242264 ], [ -121.874345877227043, 44.470762830571111 ], [ -121.875379012238952, 44.471396072687561 ], [ -121.87564144047397, 44.471064300973666 ], [ -121.877199435741531, 44.471033984230765 ], [ -121.878596686247491, 44.47159478105776 ], [ -121.882237490039046, 44.47087049146387 ], [ -121.884100547001694, 44.471618146846815 ], [ -121.885556854813132, 44.471328382702829 ], [ -121.885091084687303, 44.471141476384389 ], [ -121.884582624666081, 44.469844733228243 ], [ -121.886156848784267, 44.467853996670506 ], [ -121.88724901348202, 44.467636659941597 ], [ -121.887773721891691, 44.466973074844802 ], [ -121.887468631495807, 44.466195041787152 ], [ -121.887832676849669, 44.466122593868896 ], [ -121.887629284576676, 44.465603906126027 ], [ -121.888153973504885, 44.464940322401198 ], [ -121.890134782449167, 44.463986927955105 ], [ -121.892361769844484, 44.464662002054119 ], [ -121.894181921421435, 44.464299687055025 ], [ -121.894749390526087, 44.46474589678644 ], [ -121.896467804199148, 44.464124212860689 ], [ -121.898330832639687, 44.464871658784524 ], [ -121.902961366225455, 44.46367004545472 ], [ -121.90446043585591, 44.464489893990127 ], [ -121.905916503164192, 44.464199911998428 ], [ -121.908143654893337, 44.464874722924101 ], [ -121.909963727703257, 44.464512192428515 ], [ -121.910997100398575, 44.465145150254564 ], [ -121.914010989571011, 44.464824350272899 ], [ -121.916704059782973, 44.465685822269613 ], [ -121.918160100356317, 44.465395705899915 ], [ -121.922818434640376, 44.467263521737294 ], [ -121.923022101491128, 44.467782157621727 ], [ -121.923750132341851, 44.467637066274072 ], [ -121.924783681621605, 44.468269921499484 ], [ -121.925875728932056, 44.468052268358676 ], [ -121.927273320925266, 44.468612551745231 ], [ -121.927477025963043, 44.469131182315657 ], [ -121.929238673291664, 44.469618888764536 ], [ -121.930417613820907, 44.471620840076099 ], [ -121.93015545192425, 44.4719527198788 ], [ -121.93248497800802, 44.472886450778141 ], [ -121.932790615918947, 44.473664391868127 ], [ -121.935120237252391, 44.474598080154784 ], [ -121.935848315469897, 44.474452920678367 ], [ -121.937348022106377, 44.475272418382879 ], [ -121.938440141974624, 44.475054659145911 ], [ -121.939007992917908, 44.475500690758921 ], [ -121.940566061557291, 44.475469633706702 ], [ -121.941599887624633, 44.476102369185121 ], [ -121.943623933211811, 44.476257987336751 ], [ -121.944555869501428, 44.476631393702753 ], [ -121.944759731082314, 44.477150006726518 ], [ -121.945851857396278, 44.476932185947611 ], [ -121.947977881372964, 44.477347044062242 ], [ -121.949798076028699, 44.476983960463301 ], [ -121.952856123591459, 44.477772105033537 ], [ -121.962408788970379, 44.478103105665006 ], [ -121.965933079111636, 44.47907759177086 ], [ -121.969311353300156, 44.478682868917872 ], [ -121.971539613059036, 44.479356642029593 ], [ -121.9722097588823, 44.480061823991932 ], [ -121.974131944420691, 44.479957693355914 ], [ -121.978996964116348, 44.482342178538794 ], [ -121.979725031457079, 44.482196777230243 ], [ -121.980759326245561, 44.482829218280976 ], [ -121.983613817931897, 44.483098102511917 ], [ -121.986308500383615, 44.483958202567337 ], [ -121.989322869328731, 44.48363568823153 ], [ -121.992745708249174, 44.484350200947461 ], [ -121.996283835241826, 44.483363506268851 ], [ -121.998352789214323, 44.484628127609511 ], [ -121.998659237150989, 44.485405937075676 ], [ -121.999023266563128, 44.485333182793077 ], [ -121.999227571669763, 44.485851722125453 ], [ -121.998863539688344, 44.485924477045963 ], [ -121.999987259601909, 44.488776451548681 ], [ -122.000351305714901, 44.488703693119476 ], [ -122.001270794922348, 44.491037129810145 ], [ -122.001998907925881, 44.490891604263759 ], [ -122.001794566372453, 44.490373063595683 ], [ -122.002944250831519, 44.489304196588698 ], [ -122.003001777919053, 44.48845362487144 ], [ -122.006016267476269, 44.488130730315575 ], [ -122.006686859353479, 44.488835752258872 ], [ -122.008551784045181, 44.489581697605608 ], [ -122.00927986573366, 44.489436132784064 ], [ -122.012077335868369, 44.490554988549299 ], [ -122.012895038201606, 44.492629090597134 ], [ -122.01362314333123, 44.492483501129897 ], [ -122.01559047214262, 44.49348861673996 ], [ -122.015999388600704, 44.494525662977374 ], [ -122.017034210732064, 44.495157839430689 ], [ -122.01821619298569, 44.497159123021682 ], [ -122.017852120601077, 44.497231931504253 ], [ -122.018158849727484, 44.498009717111124 ], [ -122.015961868376635, 44.500407010540975 ], [ -122.016779808823884, 44.502481132477904 ], [ -122.017712509686149, 44.502854048608363 ], [ -122.018121515260873, 44.503891109119998 ], [ -122.020817464192021, 44.504750550392842 ], [ -122.022101998440291, 44.507011105467456 ], [ -122.02339891250395, 44.507311163816269 ], [ -122.024172157959214, 44.508275390336557 ], [ -122.026982843378875, 44.507433482802625 ], [ -122.028746204211373, 44.507919914749806 ], [ -122.030930901453033, 44.507482860805581 ], [ -122.033058406133705, 44.507896389995523 ], [ -122.03384378720601, 44.506900067223782 ], [ -122.037382493630375, 44.505912235221132 ], [ -122.037906025784125, 44.505248006178519 ], [ -122.04263918568148, 44.504300691867584 ], [ -122.04274153358692, 44.50455993859385 ], [ -122.044823676319695, 44.503863413912967 ], [ -122.046120630769124, 44.50416324944505 ], [ -122.04757694304098, 44.503871696833166 ], [ -122.047474577651755, 44.503612454197309 ], [ -122.049556642510424, 44.502915857091928 ], [ -122.049715966503015, 44.502324480764401 ], [ -122.053356585993228, 44.501595474575765 ], [ -122.056928946883858, 44.503677462430609 ], [ -122.060046269556423, 44.503612572023144 ], [ -122.064506280153097, 44.504957122199457 ], [ -122.067987714491352, 44.504819109176843 ], [ -122.06902317958739, 44.505450896304602 ], [ -122.070115361710606, 44.505232045292146 ], [ -122.075098851247006, 44.505911887806185 ], [ -122.075918670806232, 44.507985671344564 ], [ -122.07555460232544, 44.508058638923991 ], [ -122.075862043762939, 44.508836309788727 ], [ -122.075497970644264, 44.50890927734671 ], [ -122.075646301997836, 44.510278366538806 ], [ -122.074861497328726, 44.511274942413806 ], [ -122.074133321904824, 44.511420871852565 ], [ -122.072040363312922, 44.514078384785414 ], [ -122.069184214337014, 44.513811374712233 ], [ -122.062368484968957, 44.515456496842667 ], [ -122.060240563514057, 44.515043428174408 ], [ -122.06003570267201, 44.514524949982466 ], [ -122.05780540429194, 44.513852604551637 ], [ -122.057498147605003, 44.51307488374345 ], [ -122.054596590649481, 44.511697684755035 ], [ -122.050124812887077, 44.512313294480855 ], [ -122.050329591086353, 44.512831785420609 ], [ -122.049703733729501, 44.513236827715673 ], [ -122.050215684033319, 44.514533059740423 ], [ -122.047757541795988, 44.517263108484762 ], [ -122.048064705531772, 44.518040858701866 ], [ -122.047700552917021, 44.518113751872676 ], [ -122.047643562604961, 44.518964396790018 ], [ -122.036923182322511, 44.521669255933588 ], [ -122.036763700943169, 44.522260641520774 ], [ -122.035671136083181, 44.522479227579218 ], [ -122.035249796340949, 44.523402735364193 ], [ -122.034157208145132, 44.523621309568711 ], [ -122.032688385465704, 44.525873294117545 ], [ -122.031231535400423, 44.526164698021766 ], [ -122.030184005981894, 44.527493162274837 ], [ -122.031616771012395, 44.531122936838642 ], [ -122.031252530253838, 44.531195787187251 ], [ -122.031661914789979, 44.532232869297601 ], [ -122.027892742177428, 44.536623271353371 ], [ -122.027937828516102, 44.537733218220801 ], [ -122.036804104652944, 44.541275197572091 ], [ -122.039718395145186, 44.54069223344937 ], [ -122.040913636764969, 44.540732873976019 ], [ -122.041482714676533, 44.54117853189603 ], [ -122.047208737354822, 44.539753073825487 ], [ -122.049804055322753, 44.540352732355473 ], [ -122.054585030610241, 44.540514869044593 ], [ -122.055302186577862, 44.542329674616731 ], [ -122.054937910990006, 44.542402591342665 ], [ -122.055245271471321, 44.543180367115838 ], [ -122.054880991240353, 44.54325328382032 ], [ -122.055393267988791, 44.544549579705397 ], [ -122.054869603365177, 44.545213933470727 ], [ -122.05517697583727, 44.545991714119815 ], [ -122.054812680390299, 44.546064631080363 ], [ -122.056964458651166, 44.551509119115785 ], [ -122.058467340901217, 44.552327389927576 ], [ -122.059287213102905, 44.554401482775077 ], [ -122.060687693959807, 44.554960471417928 ], [ -122.062406871844928, 44.554336530168442 ], [ -122.066710975265451, 44.556272612871325 ], [ -122.068270844975359, 44.556240058835577 ], [ -122.068783476784745, 44.557536339709621 ], [ -122.068419133820129, 44.557609295609517 ], [ -122.068829248273445, 44.558646322791994 ], [ -122.068464899377631, 44.558719278991958 ], [ -122.069490227681953, 44.561311854827132 ], [ -122.070424030654507, 44.561684449717156 ], [ -122.071301114208424, 44.562907773984243 ], [ -122.074102650052779, 44.564025505847972 ], [ -122.076288866681324, 44.563587656600326 ], [ -122.077689678332931, 44.564146478051626 ], [ -122.078418413915898, 44.564000512622989 ], [ -122.079921833402508, 44.564818564082096 ], [ -122.083247142311379, 44.56527162699593 ], [ -122.08402190405171, 44.566235626991819 ], [ -122.085422834469085, 44.566794370542816 ], [ -122.086880326170373, 44.566502349696329 ], [ -122.087814296640303, 44.566874827182581 ], [ -122.088019529128218, 44.567393321254059 ], [ -122.088850897397137, 44.567506544932812 ], [ -122.089056139751634, 44.568025038121469 ], [ -122.090251894050596, 44.568065239373063 ], [ -122.090457148844521, 44.568583731036867 ], [ -122.091755547080112, 44.568883164831 ], [ -122.092530471512745, 44.56984712301562 ], [ -122.095342864580658, 44.569003664209113 ], [ -122.095501943772632, 44.568412149074781 ], [ -122.096856774788975, 44.567860776615198 ], [ -122.097800966081877, 44.566272434711841 ], [ -122.103733272224787, 44.565362951931846 ], [ -122.104667319778656, 44.565735310649721 ], [ -122.106489049970307, 44.565370020490306 ], [ -122.107274016292138, 44.56437314248268 ], [ -122.108002690418019, 44.564227015576016 ], [ -122.108058959468863, 44.563376262014764 ], [ -122.109254642831715, 44.563416292746133 ], [ -122.109562723597008, 44.564193978690106 ], [ -122.111169226266639, 44.565270907967268 ], [ -122.113925001026516, 44.565277823104338 ], [ -122.114905636899735, 44.566760097142087 ], [ -122.115269978970431, 44.566687012984687 ], [ -122.116615012977533, 44.568096193624953 ], [ -122.117343707035033, 44.567950014579068 ], [ -122.118744948248747, 44.568508410674696 ], [ -122.118950422877745, 44.569026859028902 ], [ -122.11988460483937, 44.569399114282945 ], [ -122.120192835133153, 44.570176785786487 ], [ -122.120557189899699, 44.570103686665604 ], [ -122.121070929242293, 44.571399805565434 ], [ -122.119660095322104, 44.572802202129779 ], [ -122.121098624381887, 44.57643137016634 ], [ -122.121463011877054, 44.576358267582492 ], [ -122.121668531208215, 44.57687672058568 ], [ -122.124163163119391, 44.577215754815583 ], [ -122.127181029540012, 44.576890061070806 ], [ -122.128218151625759, 44.577521486969744 ], [ -122.128629304120196, 44.578558375074785 ], [ -122.129460877628858, 44.578671348716355 ], [ -122.129974852784855, 44.579967457471021 ], [ -122.129348851333987, 44.580372931833395 ], [ -122.12923681939958, 44.58207452114803 ], [ -122.128610794010243, 44.582479993908741 ], [ -122.128816386771106, 44.582998442809199 ], [ -122.129750816134447, 44.583370640350559 ], [ -122.130059223636181, 44.584148312675929 ], [ -122.130423643036679, 44.584075184423902 ], [ -122.130834869222028, 44.585112080509361 ], [ -122.130208825287781, 44.585517563436511 ], [ -122.130517247853675, 44.586295238335609 ], [ -122.130255624398885, 44.586627592618242 ], [ -122.129526756925927, 44.586773848035193 ], [ -122.128844663211623, 44.58803013258531 ], [ -122.128115777562968, 44.588176380751015 ], [ -122.128732605894044, 44.589731749814817 ], [ -122.129667127877326, 44.590103953393928 ], [ -122.130648469147616, 44.591586191761166 ], [ -122.131480206307828, 44.591699156033883 ], [ -122.132611280810011, 44.594550661225007 ], [ -122.137610980256795, 44.593267432068764 ], [ -122.138807209841602, 44.593307200822956 ], [ -122.139788798052905, 44.594789382390374 ], [ -122.140723450841151, 44.595161512733085 ], [ -122.144573837696882, 44.594948315703334 ], [ -122.145349814180875, 44.59591202191347 ], [ -122.146078745947065, 44.59576567726414 ], [ -122.149088671640115, 44.597400353903573 ], [ -122.151481291995466, 44.597479675901205 ], [ -122.157209760441305, 44.596049327025405 ], [ -122.157677142209906, 44.596235332553796 ], [ -122.158706461560087, 44.59882743357992 ], [ -122.16037021059762, 44.599053011197846 ], [ -122.160679041971719, 44.599830639353534 ], [ -122.162548727267648, 44.600574609702015 ], [ -122.163530941673059, 44.602056640287003 ], [ -122.164465825662589, 44.602428610434615 ], [ -122.165551078929511, 44.604169841075745 ], [ -122.165186589209, 44.604243068346314 ], [ -122.165392528759412, 44.604761485498308 ], [ -122.165757021052727, 44.604688257583177 ], [ -122.167103864033734, 44.606097046075952 ], [ -122.167832858527973, 44.605950579500529 ], [ -122.171105268919021, 44.607252353444103 ], [ -122.171049757103447, 44.608103214579366 ], [ -122.170423741538443, 44.608508906245561 ], [ -122.171097242724557, 44.609213284006572 ], [ -122.17239677847904, 44.609511960232595 ], [ -122.172602789398084, 44.610030372237041 ], [ -122.173537833628956, 44.610402285390293 ], [ -122.174892869294382, 44.609850071122516 ], [ -122.17681843019156, 44.609742990713059 ], [ -122.177753493645469, 44.610114874137111 ], [ -122.181850647451128, 44.613490022026284 ], [ -122.185440492072757, 44.613608113135349 ], [ -122.189711583234356, 44.612469445855808 ], [ -122.189608508038248, 44.61221025162903 ], [ -122.191431031215842, 44.611843766025316 ], [ -122.19132795037909, 44.61158457347927 ], [ -122.193721122279257, 44.611663141559106 ], [ -122.193934667419953, 44.610220578520419 ], [ -122.195392625845045, 44.609927346081463 ], [ -122.196066401400984, 44.610631600165334 ], [ -122.19736607474087, 44.610930034503269 ], [ -122.197572281526391, 44.611448409605494 ], [ -122.198459545057503, 44.610710083230657 ], [ -122.199917494406975, 44.610416801114596 ], [ -122.202723124864775, 44.611531949409979 ], [ -122.206835591597994, 44.61098443658895 ], [ -122.208183416331238, 44.612392830303101 ], [ -122.2118214062194, 44.613620279363687 ], [ -122.215308134234363, 44.613478390357436 ], [ -122.21724042219968, 44.611409775867457 ], [ -122.219104416549655, 44.614113927659766 ], [ -122.21946890102457, 44.614040551754705 ], [ -122.220246164673071, 44.615003862863155 ], [ -122.221078339494028, 44.615116275078584 ], [ -122.221800758454151, 44.616930477608101 ], [ -122.226071446557526, 44.615790640138059 ], [ -122.229867959975692, 44.616425874913951 ], [ -122.23028090890945, 44.61746253748737 ], [ -122.229655162378734, 44.617868514843643 ], [ -122.229861638037676, 44.618386847960942 ], [ -122.229077853622172, 44.619384562939715 ], [ -122.229697290714611, 44.620939570935143 ], [ -122.229332780133987, 44.621012975842611 ], [ -122.229642505514036, 44.621790481718897 ], [ -122.229277990283478, 44.621863886613738 ], [ -122.229690963400998, 44.622900563351465 ], [ -122.229326442234353, 44.622973968556927 ], [ -122.230049166681383, 44.624788157705382 ], [ -122.229423350912498, 44.625194140489427 ], [ -122.230352609068149, 44.627526680676787 ], [ -122.230820409836085, 44.627712443086466 ], [ -122.230455863935049, 44.627785852146161 ], [ -122.230765633288769, 44.628563366959462 ], [ -122.230401082736876, 44.628636776006758 ], [ -122.230814114487671, 44.62967346466332 ], [ -122.23044955799854, 44.629746874021556 ], [ -122.230862597279796, 44.630783565052496 ], [ -122.231694984129632, 44.630895915046871 ], [ -122.232108049546667, 44.631932604842831 ], [ -122.23106283321053, 44.633262948003697 ], [ -122.231682443248417, 44.634817994111614 ], [ -122.232047025763038, 44.634744580574072 ], [ -122.232356845338259, 44.635522103571574 ], [ -122.234696179290566, 44.636450881226416 ], [ -122.235473917927791, 44.637414151076186 ], [ -122.236774280532046, 44.637712219640434 ], [ -122.237552063323022, 44.638675480069189 ], [ -122.239320362785222, 44.63915926657436 ], [ -122.240408135452299, 44.640900028773586 ], [ -122.241708586929519, 44.641198051625594 ], [ -122.242486480218176, 44.642161290724665 ], [ -122.243319026596964, 44.642273571143193 ], [ -122.244510286455949, 44.644273482716613 ], [ -122.246692156303524, 44.645793859425176 ], [ -122.247780225796589, 44.647534587034812 ], [ -122.251791152341582, 44.646726478586999 ], [ -122.252210299014266, 44.645802041859803 ], [ -122.253668772178585, 44.645508150792971 ], [ -122.254713732738082, 44.644177595123217 ], [ -122.255442947923612, 44.644030638425797 ], [ -122.255236197580601, 44.64351231568601 ], [ -122.256019875548603, 44.642514394527034 ], [ -122.257478261154816, 44.64222046402999 ], [ -122.259246796083445, 44.642703990730858 ], [ -122.262370333927208, 44.642634353809342 ], [ -122.26387772893851, 44.643450473194051 ], [ -122.265542927307791, 44.643674763091006 ], [ -122.268035529337311, 44.645972252636717 ], [ -122.272198735918991, 44.64653281234262 ], [ -122.274011650521501, 44.650087387191604 ], [ -122.274479727574757, 44.650273005991941 ], [ -122.274115107398586, 44.650346537755027 ], [ -122.274632403692578, 44.651642291589603 ], [ -122.273484261188287, 44.65271387230397 ], [ -122.274208489997989, 44.654527941024192 ], [ -122.27457313264604, 44.654454408329137 ], [ -122.274780064881838, 44.654972713640888 ], [ -122.274518885683165, 44.655305400066162 ], [ -122.274883532190728, 44.65523186639868 ], [ -122.275090469190616, 44.655750172118154 ], [ -122.277224133435908, 44.656159940028587 ], [ -122.277431091241681, 44.656678243186001 ], [ -122.279150851311741, 44.656051374212247 ], [ -122.279618983822189, 44.656236977460132 ], [ -122.280708070181021, 44.657977477039353 ], [ -122.28471448968574, 44.659129513073417 ], [ -122.286010792095311, 44.661388277512323 ], [ -122.287883560961177, 44.662130593797514 ], [ -122.288977564990219, 44.661909877192194 ], [ -122.291057463209228, 44.663170442268772 ], [ -122.294181914691947, 44.66310005898147 ], [ -122.294857250752756, 44.663803896815615 ], [ -122.297094856048105, 44.664472497430921 ], [ -122.297301991834715, 44.664990779327773 ], [ -122.298134910671479, 44.665102724013252 ], [ -122.298913884084072, 44.666065685345487 ], [ -122.299850399138123, 44.666436760093809 ], [ -122.30104375936817, 44.668436274088172 ], [ -122.302448602679348, 44.668992864407379 ], [ -122.308283547092856, 44.667814953690048 ], [ -122.308440993056109, 44.667223058451782 ], [ -122.309170340058444, 44.667075801262207 ], [ -122.309481195925073, 44.667853200617785 ], [ -122.310886096643486, 44.668409701588956 ], [ -122.311196978402833, 44.669187099247374 ], [ -122.312029972024405, 44.669298958428428 ], [ -122.312340871046487, 44.670076354955455 ], [ -122.313745841584364, 44.670632828619709 ], [ -122.314367698578437, 44.67218761889302 ], [ -122.316452199588397, 44.671486603789617 ], [ -122.316974267329201, 44.670821043159641 ], [ -122.318432998650565, 44.670526429436812 ], [ -122.322233456759477, 44.671159116395764 ], [ -122.32410689468044, 44.67190094136258 ], [ -122.328325747932482, 44.671608741332193 ], [ -122.328844247347618, 44.67290434601081 ], [ -122.327435611916229, 44.674309246053333 ], [ -122.32764301075747, 44.674827492195881 ], [ -122.326860016568247, 44.675825904051628 ], [ -122.328676595282445, 44.679379966919662 ], [ -122.328311877002335, 44.679453651197953 ], [ -122.328623010250624, 44.6802310273263 ], [ -122.328258287314853, 44.680304711597302 ], [ -122.329141581585802, 44.681526655572362 ], [ -122.328047391091346, 44.681747710314184 ], [ -122.326584940854033, 44.684003696165036 ], [ -122.325490701844714, 44.684224731206093 ], [ -122.324968614415781, 44.684890344823593 ], [ -122.318925117338807, 44.68555075574892 ], [ -122.319028800963153, 44.685809891833735 ], [ -122.317569742013845, 44.686104522020635 ], [ -122.316786468066951, 44.687102899834436 ], [ -122.318652790234168, 44.691767405741061 ], [ -122.318287994090497, 44.691841064709649 ], [ -122.318806456250329, 44.693136766366408 ], [ -122.319171258829925, 44.693063105772225 ], [ -122.320158256923463, 44.694544284548527 ], [ -122.321824902426442, 44.694767898676261 ], [ -122.322500843516082, 44.695471646223325 ], [ -122.32531203238554, 44.696584428607792 ], [ -122.326299216707952, 44.698065573658567 ], [ -122.327236326246066, 44.698436482910274 ], [ -122.326506679816234, 44.698583848858199 ], [ -122.326714146110234, 44.699102124332953 ], [ -122.326088223112421, 44.699508626142162 ], [ -122.326295689035859, 44.700026903330951 ], [ -122.325566023361091, 44.70017426466972 ], [ -122.325616115284944, 44.701284502972129 ], [ -122.324571668693991, 44.70261578054405 ], [ -122.324932948708053, 44.704503451832778 ], [ -122.325870140119846, 44.704874375962746 ], [ -122.326181362427292, 44.705651801632229 ], [ -122.325397989022804, 44.706650273214308 ], [ -122.326281576297532, 44.707872307551121 ], [ -122.325498178603084, 44.708870784654266 ], [ -122.325548275865387, 44.709981044462232 ], [ -122.323151466211598, 44.709904820514829 ], [ -122.322475373789558, 44.709201053669005 ], [ -122.320236034190899, 44.708532811465041 ], [ -122.320028588653656, 44.708014515075249 ], [ -122.317996738935022, 44.707864532779588 ], [ -122.312262195297365, 44.709302126714235 ], [ -122.312104684683121, 44.709894081691644 ], [ -122.31100997850011, 44.710115010982832 ], [ -122.309703882879433, 44.711778997441733 ], [ -122.309911260697447, 44.712297314180127 ], [ -122.309023881628718, 44.713036545676246 ], [ -122.304541098098241, 44.713660951699893 ], [ -122.303757311584974, 44.714659314364695 ], [ -122.304171996765888, 44.715695973201591 ], [ -122.302604342359245, 44.717692700895384 ], [ -122.301040858007795, 44.717728004319959 ], [ -122.300518270231436, 44.718393572059362 ], [ -122.300829262815327, 44.719171080084017 ], [ -122.300567963584811, 44.719503864743245 ], [ -122.29837815675873, 44.719945535167327 ], [ -122.29769786216454, 44.721203048733905 ], [ -122.296602925373833, 44.721423865725768 ], [ -122.294773569683187, 44.723753306755938 ], [ -122.295345866514509, 44.724198059743166 ], [ -122.294980869616168, 44.724271660468041 ], [ -122.295291825487098, 44.725049191558988 ], [ -122.294926823926133, 44.725122792276345 ], [ -122.2964816914415, 44.729010462026551 ], [ -122.295855308890424, 44.729416849462901 ], [ -122.296269963361112, 44.730453566930812 ], [ -122.295120823415346, 44.731525520863691 ], [ -122.295328149894686, 44.732043883039054 ], [ -122.294544013517466, 44.733042232704719 ], [ -122.293813921489431, 44.733189431706215 ], [ -122.294021243041186, 44.733707797834633 ], [ -122.293656193254265, 44.733781396510921 ], [ -122.294016775139696, 44.735669282412935 ], [ -122.294381834747583, 44.73559568244238 ], [ -122.294692835905465, 44.736373234605963 ], [ -122.294431439786052, 44.736706020072781 ], [ -122.291249477609796, 44.737627574782707 ], [ -122.291091716498983, 44.738219542443581 ], [ -122.289996481928142, 44.738440313781332 ], [ -122.289838707923124, 44.739032281042412 ], [ -122.281806694485269, 44.740650993039146 ], [ -122.283361163792875, 44.744538950235828 ], [ -122.283726283019419, 44.744465377865438 ], [ -122.284244485720407, 44.745761365486267 ], [ -122.285182026496628, 44.746132608779234 ], [ -122.285492970191598, 44.74691020066561 ], [ -122.285858099926884, 44.746836622089745 ], [ -122.286637841928282, 44.747799830093641 ], [ -122.284807426835215, 44.750129272361043 ], [ -122.281466823060043, 44.751642600116682 ], [ -122.281570464352512, 44.751901803421475 ], [ -122.275362604957664, 44.753152320812767 ], [ -122.275515531883173, 44.754521918678272 ], [ -122.275150349268316, 44.754595470313184 ], [ -122.27592503259612, 44.757520337466275 ], [ -122.275140312860543, 44.758518630443888 ], [ -122.276897121733086, 44.764886860077873 ], [ -122.276373930277089, 44.765552403812364 ], [ -122.276630551643862, 44.7671812547242 ], [ -122.27610733975871, 44.767846800853306 ], [ -122.276314631746047, 44.768365234711801 ], [ -122.276679887650388, 44.768291677623992 ], [ -122.277405443739255, 44.770106196087134 ], [ -122.277770707882581, 44.770032635735653 ], [ -122.278496312050592, 44.771847155401701 ], [ -122.278131038871095, 44.771920718033002 ], [ -122.278491390036038, 44.773808807390864 ], [ -122.278126106226139, 44.77388237033383 ], [ -122.279631737010746, 44.776660215125737 ], [ -122.279370110397153, 44.776993001290094 ], [ -122.279839083185124, 44.777178653821586 ], [ -122.279473782591765, 44.777252220999401 ], [ -122.279784803957796, 44.778029880554961 ], [ -122.279523172785687, 44.778362668046107 ], [ -122.278427248338943, 44.778583364630975 ], [ -122.276650035780207, 44.780061624948267 ], [ -122.275188752238648, 44.78035585487202 ], [ -122.274403755856255, 44.781354194862161 ], [ -122.271846435121077, 44.781869045503726 ], [ -122.271895703089157, 44.782979506925869 ], [ -122.271530362405173, 44.783053053398909 ], [ -122.271841318915847, 44.783830741577475 ], [ -122.27048358131097, 44.784384152374216 ], [ -122.27058723070607, 44.784643383284696 ], [ -122.266568324487665, 44.785452304123091 ], [ -122.264168899103268, 44.78537501064082 ], [ -122.263127306734191, 44.784744350588454 ], [ -122.261562247016343, 44.784779198026968 ], [ -122.259321001516199, 44.784109823126357 ], [ -122.257859554655866, 44.784403866655559 ], [ -122.257019681348723, 44.786253347457688 ], [ -122.254931014290975, 44.786953615687516 ], [ -122.253883844960413, 44.788284596631279 ], [ -122.252787675363308, 44.788505088337345 ], [ -122.252111529480942, 44.7878008420169 ], [ -122.250649971183947, 44.788094809328662 ], [ -122.245540298758783, 44.787161852420539 ], [ -122.243244385129074, 44.787343435573987 ], [ -122.23834802022931, 44.784967003652532 ], [ -122.237416315388501, 44.782633701929022 ] ] ] } }
]
}
